{"type":"FeatureCollection","crs":{"type":"name","properties":{"name":"EPSG:4326"}},"features":[{"type":"Feature","id":489,"geometry":{"type":"Point","coordinates":[-85.760388,38.170727]},"properties":{"site_name":"Naval Surface Warfare Center Louisville","other_site_names":null,"state":"Kentucky","industry":"Military","matrix_type":"Groundwater","matrix":"Groundwater","year":2017,"pfoa":"115","pfos":"105","total_pfas":1449,"pfas_level":1449,"notes":null,"regulation_gvt_link":null,"resources_link":null,"suspected_source_link":"https://www.navfac.navy.mil/products_and_services/ev/products_and_services/env_restoration/pfas_reading_room.html","pfas_testing_link":"https://drive.google.com/file/d/1PMr8LucEa6PF6Awvlp2k1S7tE7ZofvTb/view?usp=sharing","site_ref_link":"https://drive.google.com/drive/u/0/folders/1z1jbhVe1MYzUgvtgqltW8Z6B0FFfjVQ7","state_ref_link":null,"ObjectId":489}},{"type":"Feature","id":796,"geometry":{"type":"Point","coordinates":[-85.721803,38.178101]},"properties":{"site_name":"Louisville Air National Guard Base","other_site_names":null,"state":"Kentucky","industry":"Military","matrix_type":"Groundwater","matrix":"Groundwater","year":2018,"pfoa":"72","pfos":"240","total_pfas":1071,"pfas_level":1071,"notes":null,"regulation_gvt_link":null,"resources_link":null,"suspected_source_link":"https://ar.afcec-cloud.af.mil/Search.aspx","pfas_testing_link":"https://drive.google.com/file/d/1zrp9DVHYE0-BnI_56DUjqaFwzHbVv6Oa/view?usp=sharing","site_ref_link":null,"state_ref_link":null,"ObjectId":796}},{"type":"Feature","id":1333,"geometry":{"type":"Point","coordinates":[-88.806939,37.112103]},"properties":{"site_name":"Paducah Gaseous Diffusion Plant","other_site_names":"Paducah Gaseous Diffusion Plant (USDOE)","state":"Kentucky","industry":"Industry","matrix_type":"Groundwater","matrix":"Groundwater","year":2019,"pfoa":"5,230","pfos":"128,000","total_pfas":230021,"pfas_level":230021,"notes":null,"regulation_gvt_link":null,"resources_link":null,"suspected_source_link":"https://drive.google.com/file/d/1LTkojaD6T9SaT9KY57p2hqdoVxIYGz3k/view?usp=share_link","pfas_testing_link":"https://drive.google.com/file/d/1LTkojaD6T9SaT9KY57p2hqdoVxIYGz3k/view?usp=share_link","site_ref_link":"https://drive.google.com/drive/folders/1fMYbqzG5fBckikfj4SgwS1gu0VO26Gwz?usp=share_link","state_ref_link":"https://drive.google.com/drive/folders/1fBR7PiNLiGpfGFDBus7k-675PIlR0thq?usp=share_link","ObjectId":1333}},{"type":"Feature","id":1348,"geometry":{"type":"Point","coordinates":[-87.640863,37.805873]},"properties":{"site_name":"Shamrock Technologies, Community Dr ","other_site_names":null,"state":"Kentucky","industry":"Industry","matrix_type":"Groundwater","matrix":"Groundwater","year":2019,"pfoa":"300,000,000","pfos":null,"total_pfas":null,"pfas_level":300000000,"notes":"PTFE (Teflon) recycling","regulation_gvt_link":null,"resources_link":null,"suspected_source_link":"https://www.thegleaner.com/story/news/local/2021/11/09/pfas-pollution-henderson-kentucky-louisville-public-radio/6347013001/","pfas_testing_link":"https://www.documentcloud.org/documents/21098717-eec-outlining-the-potential-damaged-to-bill-neuberg/","site_ref_link":"https://drive.google.com/drive/folders/1DIlcCv9Xh2NABfJTNlf4hzywrl1wIXEE?usp=drive_link","state_ref_link":"https://drive.google.com/drive/folders/1fBR7PiNLiGpfGFDBus7k-675PIlR0thq?usp=drive_link","ObjectId":1348}},{"type":"Feature","id":2943,"geometry":{"type":"Point","coordinates":[-85.721803,38.178101]},"properties":{"site_name":"Louisville Air National Guard Base","other_site_names":null,"state":"Kentucky","industry":"Military","matrix_type":"Groundwater","matrix":"Groundwater","year":2018,"pfoa":"72","pfos":"240","total_pfas":1071,"pfas_level":1071,"notes":null,"regulation_gvt_link":null,"resources_link":null,"suspected_source_link":"https://ar.afcec-cloud.af.mil/Search.aspx","pfas_testing_link":"https://drive.google.com/file/d/1zrp9DVHYE0-BnI_56DUjqaFwzHbVv6Oa/view?usp=sharing","site_ref_link":null,"state_ref_link":null,"ObjectId":2943}},{"type":"Feature","id":2944,"geometry":{"type":"Point","coordinates":[-85.760388,38.170727]},"properties":{"site_name":"Naval Surface Warfare Center Louisville","other_site_names":null,"state":"Kentucky","industry":"Military","matrix_type":"Groundwater","matrix":"Groundwater","year":2017,"pfoa":"115","pfos":"105","total_pfas":1449,"pfas_level":1449,"notes":null,"regulation_gvt_link":null,"resources_link":null,"suspected_source_link":"https://www.navfac.navy.mil/products_and_services/ev/products_and_services/env_restoration/pfas_reading_room.html","pfas_testing_link":"https://drive.google.com/file/d/1PMr8LucEa6PF6Awvlp2k1S7tE7ZofvTb/view?usp=sharing","site_ref_link":"https://drive.google.com/drive/u/0/folders/1z1jbhVe1MYzUgvtgqltW8Z6B0FFfjVQ7","state_ref_link":null,"ObjectId":2944}},{"type":"Feature","id":3059,"geometry":{"type":"Point","coordinates":[-87.640863,37.805873]},"properties":{"site_name":"Shamrock Technologies, Community Dr ","other_site_names":null,"state":"Kentucky","industry":"Industry","matrix_type":"Groundwater","matrix":"Groundwater","year":2019,"pfoa":"300000000","pfos":null,"total_pfas":null,"pfas_level":300000000,"notes":"PTFE (Teflon) recycling","regulation_gvt_link":null,"resources_link":null,"suspected_source_link":"https://www.thegleaner.com/story/news/local/2021/11/09/pfas-pollution-henderson-kentucky-louisville-public-radio/6347013001/","pfas_testing_link":"https://www.documentcloud.org/documents/21098717-eec-outlining-the-potential-damaged-to-bill-neuberg/","site_ref_link":"https://drive.google.com/drive/folders/1DIlcCv9Xh2NABfJTNlf4hzywrl1wIXEE?usp=drive_link","state_ref_link":"https://drive.google.com/drive/folders/1fBR7PiNLiGpfGFDBus7k-675PIlR0thq?usp=drive_link","ObjectId":3059}},{"type":"Feature","id":3084,"geometry":{"type":"Point","coordinates":[-88.806939,37.112103]},"properties":{"site_name":"Paducah Gaseous Diffusion Plant","other_site_names":"Paducah Gaseous Diffusion Plant (USDOE)","state":"Kentucky","industry":"Industry","matrix_type":"Groundwater","matrix":"Groundwater","year":2019,"pfoa":"5230","pfos":"128000","total_pfas":230021,"pfas_level":230021,"notes":null,"regulation_gvt_link":null,"resources_link":null,"suspected_source_link":"https://drive.google.com/file/d/1LTkojaD6T9SaT9KY57p2hqdoVxIYGz3k/view?usp=share_link","pfas_testing_link":"https://drive.google.com/file/d/1LTkojaD6T9SaT9KY57p2hqdoVxIYGz3k/view?usp=share_link","site_ref_link":"https://drive.google.com/drive/folders/1fMYbqzG5fBckikfj4SgwS1gu0VO26Gwz?usp=share_link","state_ref_link":"https://drive.google.com/drive/folders/1fBR7PiNLiGpfGFDBus7k-675PIlR0thq?usp=share_link","ObjectId":3084}}]}