{"type":"FeatureCollection","crs":{"type":"name","properties":{"name":"EPSG:4326"}},"features":[{"type":"Feature","id":188,"geometry":{"type":"Point","coordinates":[-71.421289,41.594977]},"properties":{"site_name":"Quonset Air National Guard Base","other_site_names":"Quonset State Airport","state":"Rhode Island","industry":"Military","matrix_type":"Groundwater","matrix":"Groundwater","year":2018,"pfoa":"1,110","pfos":"2,680","total_pfas":3961,"pfas_level":3961,"notes":"AFFF used at Quonset State Airport / Air National Guard Base","regulation_gvt_link":"N/A","resources_link":"https://www.143aw.ang.af.mil/About-Us/Environmental/","suspected_source_link":"https://www.143aw.ang.af.mil/About-Us/Environmental/","pfas_testing_link":"https://drive.google.com/file/d/1GOsP9ZizpupENJ5_cXichOQuwOdOOLYG/view?usp=sharing","site_ref_link":"https://drive.google.com/drive/u/0/folders/1UGRxryBYAvlzb3rPBC_5AjNtvccVb9zj","state_ref_link":"https://drive.google.com/drive/u/0/folders/1DZVTtHrtffhNzVd3s8hAy8pcQfLzMzIV","ObjectId":188}},{"type":"Feature","id":349,"geometry":{"type":"Point","coordinates":[-71.597733,41.720966]},"properties":{"site_name":"Coventry Training Site","other_site_names":null,"state":"Rhode Island","industry":"Military","matrix_type":"Other Water","matrix":"Drinking Water","year":2018,"pfoa":"4","pfos":"1","total_pfas":61,"pfas_level":61,"notes":null,"regulation_gvt_link":null,"resources_link":null,"suspected_source_link":"https://drive.google.com/file/d/1g1t60FsMLcfluvkLqorqlbsHnkF_rNZw/view?usp=sharing","pfas_testing_link":"https://drive.google.com/file/d/1g1t60FsMLcfluvkLqorqlbsHnkF_rNZw/view?usp=sharing","site_ref_link":"https://drive.google.com/drive/u/0/folders/17vc5JX3Gvo92Bih-kg-GABnBbExIJhXg","state_ref_link":"https://drive.google.com/drive/u/0/folders/1DZVTtHrtffhNzVd3s8hAy8pcQfLzMzIV","ObjectId":349}},{"type":"Feature","id":573,"geometry":{"type":"Point","coordinates":[-71.549507,41.966765]},"properties":{"site_name":"North Smithfield","other_site_names":null,"state":"Rhode Island","industry":"Military","matrix_type":"Other Water","matrix":"Drinking Water","year":2018,"pfoa":"1","pfos":null,"total_pfas":20,"pfas_level":20,"notes":null,"regulation_gvt_link":null,"resources_link":"https://www.143aw.ang.af.mil/About-Us/Environmental/","suspected_source_link":"https://www.143aw.ang.af.mil/About-Us/Environmental/","pfas_testing_link":"https://drive.google.com/file/d/1g1t60FsMLcfluvkLqorqlbsHnkF_rNZw/view?usp=sharing","site_ref_link":"https://drive.google.com/drive/u/0/folders/17vc5JX3Gvo92Bih-kg-GABnBbExIJhXg","state_ref_link":"https://drive.google.com/drive/u/0/folders/1DZVTtHrtffhNzVd3s8hAy8pcQfLzMzIV","ObjectId":573}},{"type":"Feature","id":643,"geometry":{"type":"Point","coordinates":[-71.319622,41.51684]},"properties":{"site_name":"Naval Station Newport","other_site_names":"Newport Naval Education and Training Center, Newport Naval Education & Training Center","state":"Rhode Island","industry":"Military","matrix_type":"Groundwater","matrix":"Groundwater","year":2018,"pfoa":null,"pfos":null,"total_pfas":null,"pfas_level":20420,"notes":"AFFF used at Naval Station Newport","regulation_gvt_link":"N/A","resources_link":"https://cumulis.epa.gov/supercpad/SiteProfiles/index.cfm?fuseaction=second.docdata&id=0101431","suspected_source_link":"https://drive.google.com/file/d/1EUMAiROzk8OxvPAWubv0xGGH9zI6mw4d/view?usp=drive_link ","pfas_testing_link":"https://drive.google.com/file/d/1PkCsP9a16pU-sOxVu-RJE5Utl9Z-v8HC/view?usp=sharing","site_ref_link":"https://drive.google.com/drive/u/0/folders/1tWSX3nmtB-wMS9ocUAKz6Xe6YxhRsl1p","state_ref_link":"https://drive.google.com/drive/u/0/folders/1DZVTtHrtffhNzVd3s8hAy8pcQfLzMzIV","ObjectId":643}},{"type":"Feature","id":1055,"geometry":{"type":"Point","coordinates":[-71.535278,41.496667]},"properties":{"site_name":"West Kingston Dump","other_site_names":"URI Disposal Area","state":"Rhode Island","industry":"Waste","matrix_type":"Groundwater","matrix":"Groundwater","year":2023,"pfoa":"54","pfos":"6","total_pfas":59,"pfas_level":59,"notes":null,"regulation_gvt_link":null,"resources_link":"https://cumulis.epa.gov/supercpad/SiteProfiles/index.cfm?fuseaction=second.cleanup&id=0101322","suspected_source_link":"https://cumulis.epa.gov/supercpad/SiteProfiles/index.cfm?fuseaction=second.cleanup&id=0101322#bkground","pfas_testing_link":"https://semspub.epa.gov/work/01/100032173.pdf","site_ref_link":"https://drive.google.com/drive/folders/1cQsxh99Hv8TSng2u_VbeUGpgqI3jKvZl?usp=drive_link","state_ref_link":"https://drive.google.com/drive/folders/18E9JwkJ_4ZasRBJduV1elykOb739mgF5?usp=drive_link","ObjectId":1055}},{"type":"Feature","id":1057,"geometry":{"type":"Point","coordinates":[-71.5647,41.9964]},"properties":{"site_name":"Stamina Mills","other_site_names":null,"state":"Rhode Island","industry":"Industry","matrix_type":"Groundwater","matrix":"Groundwater","year":2023,"pfoa":"10","pfos":"48","total_pfas":60,"pfas_level":60,"notes":null,"regulation_gvt_link":null,"resources_link":null,"suspected_source_link":null,"pfas_testing_link":"https://semspub.epa.gov/work/01/100028669.pdf","site_ref_link":null,"state_ref_link":null,"ObjectId":1057}},{"type":"Feature","id":1070,"geometry":{"type":"Point","coordinates":[-71.522847,41.804672]},"properties":{"site_name":"Landfill & Resource Recovery, Inc. (L&RR)","other_site_names":null,"state":"Rhode Island","industry":"Landfill","matrix_type":"Groundwater","matrix":"Groundwater","year":2023,"pfoa":"36","pfos":"3","total_pfas":228,"pfas_level":228,"notes":"Identified by the Environmental Protection Agency (EPA) as having PFAS contamination. Provided to the Senate Committee on Environment and Public Works.","regulation_gvt_link":null,"resources_link":"https://cumulis.epa.gov/supercpad/cursites/csitinfo.cfm?id=0101265","suspected_source_link":"https://www.epw.senate.gov/public/index.cfm/superfund-sites-identified-by-epa-to-have-pfas-contamination","pfas_testing_link":"https://semspub.epa.gov/work/01/100031422.pdf","site_ref_link":"https://drive.google.com/drive/folders/1ErkOZTOUnlQEhH5OUF2D9EQGmPQwUlQp?usp=drive_link","state_ref_link":"https://drive.google.com/drive/folders/18E9JwkJ_4ZasRBJduV1elykOb739mgF5?usp=drive_link","ObjectId":1070}},{"type":"Feature","id":1504,"geometry":{"type":"Point","coordinates":[-71.491669,41.470831]},"properties":{"site_name":"Rose Hill Regional Landfill","other_site_names":null,"state":"Rhode Island","industry":"Waste","matrix_type":"Groundwater","matrix":"Groundwater","year":2020,"pfoa":"298","pfos":"6","total_pfas":437,"pfas_level":437,"notes":null,"regulation_gvt_link":"https://semspub.epa.gov/work/01/100014700.pdf","resources_link":"https://cumulis.epa.gov/supercpad/SiteProfiles/index.cfm?fuseaction=second.scs&id=0101279&doc=Y&colid=33030&region=01&type=SC","suspected_source_link":"https://cumulis.epa.gov/supercpad/SiteProfiles/index.cfm?fuseaction=second.scs&id=0101279&doc=Y&colid=33030&region=01&type=SC","pfas_testing_link":"https://semspub.epa.gov/work/01/100014700.pdf","site_ref_link":"https://drive.google.com/drive/u/0/folders/1-Yhul12UbSkxudMv-DA-o50Yzz84AAqJ","state_ref_link":"https://drive.google.com/drive/u/0/folders/18E9JwkJ_4ZasRBJduV1elykOb739mgF5","ObjectId":1504}},{"type":"Feature","id":1707,"geometry":{"type":"Point","coordinates":[-71.70749,41.67269]},"properties":{"site_name":"Picillo Farm","other_site_names":null,"state":"Rhode Island","industry":"Industry","matrix_type":"Groundwater","matrix":"Groundwater","year":2018,"pfoa":"80","pfos":"57","total_pfas":null,"pfas_level":80,"notes":"Identified by the Environmental Protection Agency (EPA) as having PFAS contamination. Provided to the Senate Committee on Environment and Public Works.","regulation_gvt_link":null,"resources_link":"https://cumulis.epa.gov/supercpad/cursites/csitinfo.cfm?id=0101284","suspected_source_link":"https://www.epw.senate.gov/public/index.cfm/superfund-sites-identified-by-epa-to-have-pfas-contamination","pfas_testing_link":"https://semspub.epa.gov/work/01/100026084.pdf","site_ref_link":"https://drive.google.com/drive/folders/17S_boy4WvaeoIQYhWlmco9YcD65kcjgf?usp=drive_link","state_ref_link":"https://drive.google.com/drive/folders/18E9JwkJ_4ZasRBJduV1elykOb739mgF5?usp=drive_link","ObjectId":1707}},{"type":"Feature","id":1708,"geometry":{"type":"Point","coordinates":[-71.593596,41.972903]},"properties":{"site_name":"Western Sand & Gravel","other_site_names":null,"state":"Rhode Island","industry":"Waste","matrix_type":"Groundwater","matrix":"Groundwater","year":2018,"pfoa":"680","pfos":"24","total_pfas":1940,"pfas_level":1940,"notes":"Identified by the Environmental Protection Agency (EPA) as having PFAS contamination. Provided to the Senate Committee on Environment and Public Works.","regulation_gvt_link":null,"resources_link":"https://cumulis.epa.gov/supercpad/SiteProfiles/index.cfm?fuseaction=second.docdata&id=0101233","suspected_source_link":"https://www.epw.senate.gov/public/index.cfm/superfund-sites-identified-by-epa-to-have-pfas-contamination","pfas_testing_link":"https://semspub.epa.gov/work/01/100026993.pdf","site_ref_link":"https://drive.google.com/drive/folders/1GlOpS5gaMQrRt7f5L7z2pqFvE7q40f7J?usp=drive_link","state_ref_link":"https://drive.google.com/drive/folders/18E9JwkJ_4ZasRBJduV1elykOb739mgF5?usp=drive_link","ObjectId":1708}},{"type":"Feature","id":1822,"geometry":{"type":"Point","coordinates":[-71.534719,41.808331]},"properties":{"site_name":"Central Landfill","other_site_names":null,"state":"Rhode Island","industry":"Waste","matrix_type":"Groundwater","matrix":"Groundwater","year":2021,"pfoa":"1,770","pfos":"234","total_pfas":3601,"pfas_level":3601,"notes":null,"regulation_gvt_link":"https://semspub.epa.gov/work/01/675277.pdf","resources_link":"https://cumulis.epa.gov/supercpad/SiteProfiles/index.cfm?fuseaction=second.scs&id=0101277&doc=Y&colid=32742&region=01&type=SC","suspected_source_link":"https://cumulis.epa.gov/supercpad/SiteProfiles/index.cfm?fuseaction=second.scs&id=0101277&doc=Y&colid=32742&region=01&type=SC","pfas_testing_link":"https://semspub.epa.gov/work/01/675277.pdf","site_ref_link":"https://drive.google.com/drive/folders/1v3OkRpkj3-q8hB6rlPe0aCVC2AXrpaua","state_ref_link":"https://drive.google.com/drive/folders/18E9JwkJ_4ZasRBJduV1elykOb739mgF5","ObjectId":1822}},{"type":"Feature","id":2079,"geometry":{"type":"Point","coordinates":[-71.47332,41.60865]},"properties":{"site_name":"Davisville Naval Construction Battalion","other_site_names":"Seabee Museum & Memorial Park, Davisville Naval Construction Battalion Center","state":"Rhode Island","industry":"Military","matrix_type":"Unknown","matrix":null,"year":null,"pfoa":"970","pfos":"15","total_pfas":null,"pfas_level":970,"notes":"Identified by the Environmental Protection Agency (EPA) as having PFAS contamination. Provided to the Senate Committee on Environment and Public Works.","regulation_gvt_link":null,"resources_link":"https://cumulis.epa.gov/supercpad/cursites/csitinfo.cfm?id=0101430","suspected_source_link":"https://www.epw.senate.gov/public/index.cfm/superfund-sites-identified-by-epa-to-have-pfas-contamination","pfas_testing_link":"https://www.agri-pulse.com/ext/resources/pdfs/congress/STATUS-OF-NOTIFICATIONS-TO-AGRICULTURAL-OPERATIONS-PURSUANT-TO-SECTION-335-OF-THE-FISCAL-YEAR-2021-NATIONAL-DEFENSE-AUTHORIZATION-ACT-1.pdf","site_ref_link":null,"state_ref_link":null,"ObjectId":2079}},{"type":"Feature","id":2396,"geometry":{"type":"Point","coordinates":[-71.319622,41.51684]},"properties":{"site_name":"Naval Station Newport","other_site_names":"Newport Naval Education and Training Center, Newport Naval Education & Training Center","state":"Rhode Island","industry":"Military","matrix_type":"Groundwater","matrix":"Groundwater","year":2018,"pfoa":null,"pfos":null,"total_pfas":null,"pfas_level":20420,"notes":"AFFF used at Naval Station Newport","regulation_gvt_link":"N/A","resources_link":"https://cumulis.epa.gov/supercpad/SiteProfiles/index.cfm?fuseaction=second.docdata&id=0101431","suspected_source_link":"https://drive.google.com/file/d/1EUMAiROzk8OxvPAWubv0xGGH9zI6mw4d/view?usp=drive_link ","pfas_testing_link":"https://drive.google.com/file/d/1PkCsP9a16pU-sOxVu-RJE5Utl9Z-v8HC/view?usp=sharing","site_ref_link":"https://drive.google.com/drive/u/0/folders/1tWSX3nmtB-wMS9ocUAKz6Xe6YxhRsl1p","state_ref_link":"https://drive.google.com/drive/u/0/folders/1DZVTtHrtffhNzVd3s8hAy8pcQfLzMzIV","ObjectId":2396}},{"type":"Feature","id":2397,"geometry":{"type":"Point","coordinates":[-71.421289,41.594977]},"properties":{"site_name":"Quonset Air National Guard Base","other_site_names":"Quonset State Airport","state":"Rhode Island","industry":"Military","matrix_type":"Groundwater","matrix":"Groundwater","year":2018,"pfoa":"1110","pfos":"2680","total_pfas":3961,"pfas_level":3961,"notes":"AFFF used at Quonset State Airport / Air National Guard Base","regulation_gvt_link":"N/A","resources_link":"https://www.143aw.ang.af.mil/About-Us/Environmental/","suspected_source_link":"https://www.143aw.ang.af.mil/About-Us/Environmental/","pfas_testing_link":"https://drive.google.com/file/d/1GOsP9ZizpupENJ5_cXichOQuwOdOOLYG/view?usp=sharing","site_ref_link":"https://drive.google.com/drive/u/0/folders/1UGRxryBYAvlzb3rPBC_5AjNtvccVb9zj","state_ref_link":"https://drive.google.com/drive/u/0/folders/1DZVTtHrtffhNzVd3s8hAy8pcQfLzMzIV","ObjectId":2397}},{"type":"Feature","id":2603,"geometry":{"type":"Point","coordinates":[-71.597733,41.720966]},"properties":{"site_name":"Coventry Training Site","other_site_names":null,"state":"Rhode Island","industry":"Military","matrix_type":"Other Water","matrix":"Drinking Water","year":2018,"pfoa":"4","pfos":"1","total_pfas":61,"pfas_level":61,"notes":null,"regulation_gvt_link":null,"resources_link":null,"suspected_source_link":"https://drive.google.com/file/d/1g1t60FsMLcfluvkLqorqlbsHnkF_rNZw/view?usp=sharing","pfas_testing_link":"https://drive.google.com/file/d/1g1t60FsMLcfluvkLqorqlbsHnkF_rNZw/view?usp=sharing","site_ref_link":"https://drive.google.com/drive/u/0/folders/17vc5JX3Gvo92Bih-kg-GABnBbExIJhXg","state_ref_link":"https://drive.google.com/drive/u/0/folders/1DZVTtHrtffhNzVd3s8hAy8pcQfLzMzIV","ObjectId":2603}},{"type":"Feature","id":2604,"geometry":{"type":"Point","coordinates":[-71.549507,41.966765]},"properties":{"site_name":"North Smithfield","other_site_names":null,"state":"Rhode Island","industry":"Military","matrix_type":"Other Water","matrix":"Drinking Water","year":2018,"pfoa":"1","pfos":null,"total_pfas":20,"pfas_level":20,"notes":null,"regulation_gvt_link":null,"resources_link":"https://www.143aw.ang.af.mil/About-Us/Environmental/","suspected_source_link":"https://www.143aw.ang.af.mil/About-Us/Environmental/","pfas_testing_link":"https://drive.google.com/file/d/1g1t60FsMLcfluvkLqorqlbsHnkF_rNZw/view?usp=sharing","site_ref_link":"https://drive.google.com/drive/u/0/folders/17vc5JX3Gvo92Bih-kg-GABnBbExIJhXg","state_ref_link":"https://drive.google.com/drive/u/0/folders/1DZVTtHrtffhNzVd3s8hAy8pcQfLzMzIV","ObjectId":2604}},{"type":"Feature","id":2897,"geometry":{"type":"Point","coordinates":[-71.47332,41.60865]},"properties":{"site_name":"Davisville Naval Construction Battalion","other_site_names":"Seabee Museum & Memorial Park, Davisville Naval Construction Battalion Center","state":"Rhode Island","industry":"Military","matrix_type":"Unknown","matrix":null,"year":null,"pfoa":"970","pfos":"15","total_pfas":null,"pfas_level":970,"notes":"Identified by the Environmental Protection Agency (EPA) as having PFAS contamination. Provided to the Senate Committee on Environment and Public Works.","regulation_gvt_link":null,"resources_link":"https://cumulis.epa.gov/supercpad/cursites/csitinfo.cfm?id=0101430","suspected_source_link":"https://www.epw.senate.gov/public/index.cfm/superfund-sites-identified-by-epa-to-have-pfas-contamination","pfas_testing_link":"https://www.agri-pulse.com/ext/resources/pdfs/congress/STATUS-OF-NOTIFICATIONS-TO-AGRICULTURAL-OPERATIONS-PURSUANT-TO-SECTION-335-OF-THE-FISCAL-YEAR-2021-NATIONAL-DEFENSE-AUTHORIZATION-ACT-1.pdf","site_ref_link":null,"state_ref_link":null,"ObjectId":2897}},{"type":"Feature","id":2898,"geometry":{"type":"Point","coordinates":[-71.522847,41.804672]},"properties":{"site_name":"Landfill & Resource Recovery, Inc. (L&RR)","other_site_names":null,"state":"Rhode Island","industry":"Landfill","matrix_type":"Groundwater","matrix":"Groundwater","year":2023,"pfoa":"36","pfos":"3","total_pfas":228,"pfas_level":228,"notes":"Identified by the Environmental Protection Agency (EPA) as having PFAS contamination. Provided to the Senate Committee on Environment and Public Works.","regulation_gvt_link":null,"resources_link":"https://cumulis.epa.gov/supercpad/cursites/csitinfo.cfm?id=0101265","suspected_source_link":"https://www.epw.senate.gov/public/index.cfm/superfund-sites-identified-by-epa-to-have-pfas-contamination","pfas_testing_link":"https://semspub.epa.gov/work/01/100031422.pdf","site_ref_link":"https://drive.google.com/drive/folders/1ErkOZTOUnlQEhH5OUF2D9EQGmPQwUlQp?usp=drive_link","state_ref_link":"https://drive.google.com/drive/folders/18E9JwkJ_4ZasRBJduV1elykOb739mgF5?usp=drive_link","ObjectId":2898}},{"type":"Feature","id":2899,"geometry":{"type":"Point","coordinates":[-71.70749,41.67269]},"properties":{"site_name":"Picillo Farm","other_site_names":null,"state":"Rhode Island","industry":"Industry","matrix_type":"Groundwater","matrix":"Groundwater","year":2018,"pfoa":"80","pfos":"57","total_pfas":null,"pfas_level":80,"notes":"Identified by the Environmental Protection Agency (EPA) as having PFAS contamination. Provided to the Senate Committee on Environment and Public Works.","regulation_gvt_link":null,"resources_link":"https://cumulis.epa.gov/supercpad/cursites/csitinfo.cfm?id=0101284","suspected_source_link":"https://www.epw.senate.gov/public/index.cfm/superfund-sites-identified-by-epa-to-have-pfas-contamination","pfas_testing_link":"https://semspub.epa.gov/work/01/100026084.pdf","site_ref_link":"https://drive.google.com/drive/folders/17S_boy4WvaeoIQYhWlmco9YcD65kcjgf?usp=drive_link","state_ref_link":"https://drive.google.com/drive/folders/18E9JwkJ_4ZasRBJduV1elykOb739mgF5?usp=drive_link","ObjectId":2899}},{"type":"Feature","id":2900,"geometry":{"type":"Point","coordinates":[-71.593596,41.972903]},"properties":{"site_name":"Western Sand & Gravel","other_site_names":null,"state":"Rhode Island","industry":"Waste","matrix_type":"Groundwater","matrix":"Groundwater","year":2018,"pfoa":"680","pfos":"24","total_pfas":1940,"pfas_level":1940,"notes":"Identified by the Environmental Protection Agency (EPA) as having PFAS contamination. Provided to the Senate Committee on Environment and Public Works.","regulation_gvt_link":null,"resources_link":"https://cumulis.epa.gov/supercpad/SiteProfiles/index.cfm?fuseaction=second.docdata&id=0101233","suspected_source_link":"https://www.epw.senate.gov/public/index.cfm/superfund-sites-identified-by-epa-to-have-pfas-contamination","pfas_testing_link":"https://semspub.epa.gov/work/01/100026993.pdf","site_ref_link":"https://drive.google.com/drive/folders/1GlOpS5gaMQrRt7f5L7z2pqFvE7q40f7J?usp=drive_link","state_ref_link":"https://drive.google.com/drive/folders/18E9JwkJ_4ZasRBJduV1elykOb739mgF5?usp=drive_link","ObjectId":2900}},{"type":"Feature","id":4236,"geometry":{"type":"Point","coordinates":[-71.534719,41.808331]},"properties":{"site_name":"Central Landfill","other_site_names":null,"state":"Rhode Island","industry":"Waste","matrix_type":"Groundwater","matrix":"Groundwater","year":2021,"pfoa":"1770","pfos":"234","total_pfas":3601,"pfas_level":3601,"notes":null,"regulation_gvt_link":"https://semspub.epa.gov/work/01/675277.pdf","resources_link":"https://cumulis.epa.gov/supercpad/SiteProfiles/index.cfm?fuseaction=second.scs&id=0101277&doc=Y&colid=32742&region=01&type=SC","suspected_source_link":"https://cumulis.epa.gov/supercpad/SiteProfiles/index.cfm?fuseaction=second.scs&id=0101277&doc=Y&colid=32742&region=01&type=SC","pfas_testing_link":"https://semspub.epa.gov/work/01/675277.pdf","site_ref_link":"https://drive.google.com/drive/folders/1v3OkRpkj3-q8hB6rlPe0aCVC2AXrpaua","state_ref_link":"https://drive.google.com/drive/folders/18E9JwkJ_4ZasRBJduV1elykOb739mgF5","ObjectId":4236}},{"type":"Feature","id":4237,"geometry":{"type":"Point","coordinates":[-71.491669,41.470831]},"properties":{"site_name":"Rose Hill Regional Landfill","other_site_names":null,"state":"Rhode Island","industry":"Waste","matrix_type":"Groundwater","matrix":"Groundwater","year":2020,"pfoa":"298","pfos":"6","total_pfas":437,"pfas_level":437,"notes":null,"regulation_gvt_link":"https://semspub.epa.gov/work/01/100014700.pdf","resources_link":"https://cumulis.epa.gov/supercpad/SiteProfiles/index.cfm?fuseaction=second.scs&id=0101279&doc=Y&colid=33030&region=01&type=SC","suspected_source_link":"https://cumulis.epa.gov/supercpad/SiteProfiles/index.cfm?fuseaction=second.scs&id=0101279&doc=Y&colid=33030&region=01&type=SC","pfas_testing_link":"https://semspub.epa.gov/work/01/100014700.pdf","site_ref_link":"https://drive.google.com/drive/u/0/folders/1-Yhul12UbSkxudMv-DA-o50Yzz84AAqJ","state_ref_link":"https://drive.google.com/drive/u/0/folders/18E9JwkJ_4ZasRBJduV1elykOb739mgF5","ObjectId":4237}},{"type":"Feature","id":4238,"geometry":{"type":"Point","coordinates":[-71.5647,41.9964]},"properties":{"site_name":"Stamina Mills","other_site_names":null,"state":"Rhode Island","industry":"Industry","matrix_type":"Groundwater","matrix":"Groundwater","year":2023,"pfoa":"10","pfos":"48","total_pfas":60,"pfas_level":60,"notes":null,"regulation_gvt_link":null,"resources_link":null,"suspected_source_link":null,"pfas_testing_link":"https://semspub.epa.gov/work/01/100028669.pdf","site_ref_link":null,"state_ref_link":null,"ObjectId":4238}},{"type":"Feature","id":4239,"geometry":{"type":"Point","coordinates":[-71.535278,41.496667]},"properties":{"site_name":"West Kingston Dump","other_site_names":"URI Disposal Area","state":"Rhode Island","industry":"Waste","matrix_type":"Groundwater","matrix":"Groundwater","year":2023,"pfoa":"54","pfos":"6","total_pfas":59,"pfas_level":59,"notes":null,"regulation_gvt_link":null,"resources_link":"https://cumulis.epa.gov/supercpad/SiteProfiles/index.cfm?fuseaction=second.cleanup&id=0101322","suspected_source_link":"https://cumulis.epa.gov/supercpad/SiteProfiles/index.cfm?fuseaction=second.cleanup&id=0101322#bkground","pfas_testing_link":"https://semspub.epa.gov/work/01/100032173.pdf","site_ref_link":"https://drive.google.com/drive/folders/1cQsxh99Hv8TSng2u_VbeUGpgqI3jKvZl?usp=drive_link","state_ref_link":"https://drive.google.com/drive/folders/18E9JwkJ_4ZasRBJduV1elykOb739mgF5?usp=drive_link","ObjectId":4239}}]}