{"type":"FeatureCollection","crs":{"type":"name","properties":{"name":"EPSG:4326"}},"features":[{"type":"Feature","id":153,"geometry":{"type":"Point","coordinates":[-83.130436,39.95373]},"properties":{"site_name":"Air Force Plant 85","other_site_names":null,"state":"Ohio","industry":"Military","matrix_type":"Groundwater","matrix":"Groundwater","year":2018,"pfoa":"3,400","pfos":"5","total_pfas":null,"pfas_level":3400,"notes":"From 1941 to 1977, a fire-training area was used to burn waste oil, solvents and aviation fuels in training exercises. Additionally, ast operations at the plant included machining, metal finishing, electroplating, forming, painting, coating and assembly. (Ohio EPA 8.15.2019)","regulation_gvt_link":"https://epa.ohio.gov/cdo/afp85","resources_link":"http://afcec.publicadmin-record.us.af.mil/","suspected_source_link":"https://drive.google.com/a/husky.neu.edu/file/d/1LPI3WkIrkDRvnvgDsEG6ZcYOvHZw4r0X/view?usp=sharing","pfas_testing_link":"https://drive.google.com/file/d/1tvcI73WVoDHbjuRLlhDvWGKdUtA3hQFL/view?usp=sharing","site_ref_link":"https://drive.google.com/drive/u/0/folders/1scj9AdIO8MKNFdDh8khZS_1G16-kvHcT","state_ref_link":"https://drive.google.com/drive/folders/1v77vtziX_3iVOE5ughvhk36StsBDnBGG?usp=sharing","ObjectId":153}},{"type":"Feature","id":231,"geometry":{"type":"Point","coordinates":[-83.786735,41.583399]},"properties":{"site_name":"Toledo Air National Guard Base","other_site_names":"Toledo Express Airport","state":"Ohio","industry":"Military","matrix_type":"Groundwater","matrix":"Groundwater","year":2017,"pfoa":"690","pfos":"47,000","total_pfas":135533,"pfas_level":135533,"notes":"AFFF used at Toledo Express Airport / Toledo Air National Guard Base","regulation_gvt_link":"N/A","resources_link":"http://afcec.publicadmin-record.us.af.mil/","suspected_source_link":null,"pfas_testing_link":"https://drive.google.com/file/d/1_b8O8cSB7o32qpRBfL3zSGEkeGo593AE/view?usp=sharing","site_ref_link":"https://drive.google.com/drive/u/0/folders/1yf4j_6JU5xpVVsYi5Sd-WfWzNGajV6WF","state_ref_link":"https://drive.google.com/drive/folders/1v77vtziX_3iVOE5ughvhk36StsBDnBGG?usp=sharing","ObjectId":231}},{"type":"Feature","id":232,"geometry":{"type":"Point","coordinates":[-82.943517,39.815203]},"properties":{"site_name":"Rickenbacker Air National Guard Base","other_site_names":null,"state":"Ohio","industry":"Military","matrix_type":"Groundwater","matrix":"Groundwater","year":2017,"pfoa":"45,800","pfos":"14,400","total_pfas":135533,"pfas_level":135533,"notes":"AFFF used at both BRAC and currently active portions of Rickenbacker Air National Guard Base","regulation_gvt_link":"N/A","resources_link":"http://afcec.publicadmin-record.us.af.mil/","suspected_source_link":"https://ar.afcec-cloud.af.mil/Search.aspx","pfas_testing_link":"https://drive.google.com/file/d/1H1IWztkGLpkjthrmt7d-XvNZA_z9kxir/view?usp=sharing","site_ref_link":"https://drive.google.com/drive/u/0/folders/1EZH6WHSVbdVe0qLzHDbt5Qb066S6mPCU","state_ref_link":"https://drive.google.com/drive/folders/1v77vtziX_3iVOE5ughvhk36StsBDnBGG?usp=sharing","ObjectId":232}},{"type":"Feature","id":300,"geometry":{"type":"Point","coordinates":[-81.08532,41.168427]},"properties":{"site_name":"Camp Ravenna Joint Military Training Center","other_site_names":"Camp James A Garfield","state":"Ohio","industry":"Military","matrix_type":"Other Water","matrix":"Drinking Water","year":2018,"pfoa":null,"pfos":null,"total_pfas":4,"pfas_level":4,"notes":null,"regulation_gvt_link":null,"resources_link":null,"suspected_source_link":"https://drive.google.com/file/d/1g1t60FsMLcfluvkLqorqlbsHnkF_rNZw/view?usp=sharing","pfas_testing_link":"https://drive.google.com/file/d/1g1t60FsMLcfluvkLqorqlbsHnkF_rNZw/view?usp=sharing","site_ref_link":"https://drive.google.com/drive/u/0/folders/17vc5JX3Gvo92Bih-kg-GABnBbExIJhXg","state_ref_link":"https://drive.google.com/drive/folders/1v77vtziX_3iVOE5ughvhk36StsBDnBGG?usp=sharing","ObjectId":300}},{"type":"Feature","id":435,"geometry":{"type":"Point","coordinates":[-82.771522,39.564846]},"properties":{"site_name":"Camp Tarlton","other_site_names":null,"state":"Ohio","industry":"Military","matrix_type":"Other Water","matrix":"Drinking Water","year":2017,"pfoa":null,"pfos":null,"total_pfas":30,"pfas_level":30,"notes":null,"regulation_gvt_link":null,"resources_link":null,"suspected_source_link":null,"pfas_testing_link":"https://cdn3.ewg.org/sites/default/files/u352/EWG_PFASTable-Army_C01.pdf","site_ref_link":"https://drive.google.com/drive/u/0/folders/17vc5JX3Gvo92Bih-kg-GABnBbExIJhXg","state_ref_link":"https://drive.google.com/drive/folders/1v77vtziX_3iVOE5ughvhk36StsBDnBGG?usp=sharing","ObjectId":435}},{"type":"Feature","id":492,"geometry":{"type":"Point","coordinates":[-82.470031,40.021551]},"properties":{"site_name":"Newark Air Force Base","other_site_names":null,"state":"Ohio","industry":"Military","matrix_type":"Groundwater","matrix":"Groundwater","year":2017,"pfoa":"249","pfos":"1,160","total_pfas":1831,"pfas_level":1831,"notes":"AFFF used at the former Newark Air Force Base","regulation_gvt_link":"N/A","resources_link":"http://afcec.publicadmin-record.us.af.mil/","suspected_source_link":null,"pfas_testing_link":"https://www.agri-pulse.com/ext/resources/pdfs/congress/STATUS-OF-NOTIFICATIONS-TO-AGRICULTURAL-OPERATIONS-PURSUANT-TO-SECTION-335-OF-THE-FISCAL-YEAR-2021-NATIONAL-DEFENSE-AUTHORIZATION-ACT-1.pdf","site_ref_link":"https://drive.google.com/drive/u/0/folders/1p3LZ4N5LPnBwiDNE5nuKItv62nibAmPi","state_ref_link":"https://drive.google.com/drive/folders/1v77vtziX_3iVOE5ughvhk36StsBDnBGG?usp=sharing","ObjectId":492}},{"type":"Feature","id":616,"geometry":{"type":"Point","coordinates":[-82.515445,40.812393]},"properties":{"site_name":"Mansfield Air National Guard Base","other_site_names":"Mansfield-Lahm Regional Airport, 179th Airlift Wing","state":"Ohio","industry":"Military","matrix_type":"Groundwater","matrix":"Groundwater","year":2018,"pfoa":"2,200","pfos":"640","total_pfas":7358,"pfas_level":7358,"notes":null,"regulation_gvt_link":null,"resources_link":null,"suspected_source_link":"https://ar.afcec-cloud.af.mil/Search.aspx","pfas_testing_link":"https://drive.google.com/file/d/1DiIsymPLPv7wbLOG47vRG7i0uRPnZ4nC/view?usp=sharing","site_ref_link":null,"state_ref_link":null,"ObjectId":616}},{"type":"Feature","id":618,"geometry":{"type":"Point","coordinates":[-83.843151,39.847304]},"properties":{"site_name":"Springfield-Beckley Air National Guard Base","other_site_names":"Springfield-Beckley Municipal Airport, Ohio Air National Guard 178th Fighter Wing","state":"Ohio","industry":"Military","matrix_type":"Groundwater","matrix":"Groundwater","year":2018,"pfoa":"4,800","pfos":"2,100","total_pfas":7851,"pfas_level":7851,"notes":null,"regulation_gvt_link":null,"resources_link":null,"suspected_source_link":"https://ar.afcec-cloud.af.mil/Search.aspx","pfas_testing_link":"https://drive.google.com/file/d/1z8zMoSUtj1pcpJIucD06iRTMMs9dTBZR/view?usp=sharing","site_ref_link":null,"state_ref_link":null,"ObjectId":618}},{"type":"Feature","id":619,"geometry":{"type":"Point","coordinates":[-84.053745,39.81373]},"properties":{"site_name":"Wright-Patterson Air Force Base","other_site_names":null,"state":"Ohio","industry":"Military","matrix_type":"Groundwater","matrix":"Groundwater","year":2018,"pfoa":"610","pfos":"7,000","total_pfas":7870,"pfas_level":7870,"notes":"AFFF use at Wright-Patterson Air Force Base","regulation_gvt_link":"N/A","resources_link":"https://www.ohioruralwater.org/pfas.html","suspected_source_link":"http://wyso.org/post/dayton-demands-wright-patterson-air-force-base-respond-water-contamination","pfas_testing_link":"https://drive.google.com/file/d/1zxisR0afI2Wr9LVQgGy__Hb2tSCeDHJe/view?usp=sharing","site_ref_link":"https://drive.google.com/drive/u/0/folders/1j9kbSqvPm7mwle5pfATDBWpYKT9xdOEZ","state_ref_link":"https://drive.google.com/drive/folders/1v77vtziX_3iVOE5ughvhk36StsBDnBGG?usp=sharing","ObjectId":619}},{"type":"Feature","id":719,"geometry":{"type":"Point","coordinates":[-84.168827,39.689504]},"properties":{"site_name":"Former Gentile Air Force Station","other_site_names":null,"state":"Ohio","industry":"Military","matrix_type":"Groundwater","matrix":"Groundwater","year":2018,"pfoa":"34","pfos":"146","total_pfas":null,"pfas_level":180,"notes":"AFFF used at the former Gentile Air Force Station","regulation_gvt_link":"N/A","resources_link":"http://afcec.publicadmin-record.us.af.mil/","suspected_source_link":null,"pfas_testing_link":"N/A","site_ref_link":"https://drive.google.com/drive/u/0/folders/1QJjq68Bpo6WtgqZYcW4s6yDSU6zwpeky","state_ref_link":"https://drive.google.com/drive/folders/1v77vtziX_3iVOE5ughvhk36StsBDnBGG?usp=sharing","ObjectId":719}},{"type":"Feature","id":1314,"geometry":{"type":"Point","coordinates":[-80.677242,41.269413]},"properties":{"site_name":"Youngstown Air Reserve Station","other_site_names":null,"state":"Ohio","industry":"Military","matrix_type":"Groundwater","matrix":"Groundwater","year":2019,"pfoa":"11,000","pfos":"54,000","total_pfas":null,"pfas_level":54000,"notes":null,"regulation_gvt_link":null,"resources_link":null,"suspected_source_link":"https://ar.afcec-cloud.af.mil/Search.aspx","pfas_testing_link":"https://drive.google.com/file/d/1uY4b0sYp3DdxxZ9PRl7B3rH2uVFPh1wm/view?usp=sharing","site_ref_link":null,"state_ref_link":null,"ObjectId":1314}},{"type":"Feature","id":1467,"geometry":{"type":"Point","coordinates":[-84.437231,39.236111]},"properties":{"site_name":"PRISTINE, INC.","other_site_names":null,"state":"Ohio","industry":"Waste","matrix_type":"Groundwater","matrix":"Groundwater","year":2020,"pfoa":"63","pfos":"28","total_pfas":185,"pfas_level":185,"notes":null,"regulation_gvt_link":"https://cumulis.epa.gov/supercpad/cursites/csitinfo.cfm?id=0504445","resources_link":"https://cumulis.epa.gov/supercpad/cursites/csitinfo.cfm?id=0504445","suspected_source_link":"https://semspub.epa.gov/work/05/966657.pdf","pfas_testing_link":"https://drive.google.com/file/d/1zfYlbXYeC0eaPo5FMKJXm7s31-iS31ee/view?usp=drive_link","site_ref_link":"https://drive.google.com/drive/folders/11r5bYzIe6qgG3VwLU-ve5D08njTM5zoP?usp=drive_link","state_ref_link":"https://drive.google.com/drive/folders/14XUC9RzrJOrL_ttJnJlQXlPP8ypglIBU?usp=drive_link","ObjectId":1467}},{"type":"Feature","id":1885,"geometry":{"type":"Point","coordinates":[-81.404169,40.968331]},"properties":{"site_name":"INDUSTRIAL EXCESS LANDFILL","other_site_names":null,"state":"Ohio","industry":"Waste","matrix_type":"Groundwater","matrix":"Groundwater","year":2022,"pfoa":"92","pfos":null,"total_pfas":null,"pfas_level":92,"notes":null,"regulation_gvt_link":"https://cumulis.epa.gov/supercpad/cursites/csitinfo.cfm?id=0504014","resources_link":null,"suspected_source_link":"https://semspub.epa.gov/work/05/980131.pdf","pfas_testing_link":"https://drive.google.com/file/d/1Pu-LsCTx2CzGPKVbpvmq4KdG0UkyHrt7/view?usp=drive_link","site_ref_link":"https://drive.google.com/drive/folders/1-L7Fo6CCW5wsVOY8u2LoTIJQ7eGpYYjK?usp=drive_link","state_ref_link":"https://drive.google.com/drive/folders/14XUC9RzrJOrL_ttJnJlQXlPP8ypglIBU?usp=drive_link","ObjectId":1885}},{"type":"Feature","id":1898,"geometry":{"type":"Point","coordinates":[-84.16,39.833331]},"properties":{"site_name":"POWELL ROAD LANDFILL","other_site_names":null,"state":"Ohio","industry":"Waste","matrix_type":"Groundwater","matrix":"Groundwater","year":2022,"pfoa":"30","pfos":"15","total_pfas":262,"pfas_level":262,"notes":null,"regulation_gvt_link":"https://cumulis.epa.gov/supercpad/cursites/csitinfo.cfm?id=0504015","resources_link":"https://cumulis.epa.gov/supercpad/cursites/csitinfo.cfm?id=0504015","suspected_source_link":"https://semspub.epa.gov/work/05/982970.pdf","pfas_testing_link":"https://drive.google.com/file/d/1PSAFJ_jYUyheuVftppjXpyh4USYtQYDW/view?usp=drive_link","site_ref_link":"https://drive.google.com/drive/folders/1PDoJ4lduFCajnb82Ft4PPQTUBHjalLmc?usp=drive_link","state_ref_link":"https://drive.google.com/drive/folders/14XUC9RzrJOrL_ttJnJlQXlPP8ypglIBU?usp=drive_link","ObjectId":1898}},{"type":"Feature","id":2377,"geometry":{"type":"Point","coordinates":[-84.053745,39.81373]},"properties":{"site_name":"Wright-Patterson Air Force Base","other_site_names":null,"state":"Ohio","industry":"Military","matrix_type":"Groundwater","matrix":"Groundwater","year":2018,"pfoa":"610","pfos":"7000","total_pfas":7870,"pfas_level":7870,"notes":"AFFF use at Wright-Patterson Air Force Base","regulation_gvt_link":"N/A","resources_link":"https://www.ohioruralwater.org/pfas.html","suspected_source_link":"http://wyso.org/post/dayton-demands-wright-patterson-air-force-base-respond-water-contamination","pfas_testing_link":"https://drive.google.com/file/d/1zxisR0afI2Wr9LVQgGy__Hb2tSCeDHJe/view?usp=sharing","site_ref_link":"https://drive.google.com/drive/u/0/folders/1j9kbSqvPm7mwle5pfATDBWpYKT9xdOEZ","state_ref_link":"https://drive.google.com/drive/folders/1v77vtziX_3iVOE5ughvhk36StsBDnBGG?usp=sharing","ObjectId":2377}},{"type":"Feature","id":2378,"geometry":{"type":"Point","coordinates":[-84.168827,39.689504]},"properties":{"site_name":"Former Gentile Air Force Station","other_site_names":null,"state":"Ohio","industry":"Military","matrix_type":"Groundwater","matrix":"Groundwater","year":2018,"pfoa":"34","pfos":"146","total_pfas":null,"pfas_level":180,"notes":"AFFF used at the former Gentile Air Force Station","regulation_gvt_link":"N/A","resources_link":"http://afcec.publicadmin-record.us.af.mil/","suspected_source_link":null,"pfas_testing_link":"N/A","site_ref_link":"https://drive.google.com/drive/u/0/folders/1QJjq68Bpo6WtgqZYcW4s6yDSU6zwpeky","state_ref_link":"https://drive.google.com/drive/folders/1v77vtziX_3iVOE5ughvhk36StsBDnBGG?usp=sharing","ObjectId":2378}},{"type":"Feature","id":2379,"geometry":{"type":"Point","coordinates":[-83.130436,39.95373]},"properties":{"site_name":"Air Force Plant 85","other_site_names":null,"state":"Ohio","industry":"Military","matrix_type":"Groundwater","matrix":"Groundwater","year":2018,"pfoa":"3400","pfos":"5","total_pfas":null,"pfas_level":3400,"notes":"From 1941 to 1977, a fire-training area was used to burn waste oil, solvents and aviation fuels in training exercises. Additionally, ast operations at the plant included machining, metal finishing, electroplating, forming, painting, coating and assembly. (Ohio EPA 8.15.2019)","regulation_gvt_link":"https://epa.ohio.gov/cdo/afp85","resources_link":"http://afcec.publicadmin-record.us.af.mil/","suspected_source_link":"https://drive.google.com/a/husky.neu.edu/file/d/1LPI3WkIrkDRvnvgDsEG6ZcYOvHZw4r0X/view?usp=sharing","pfas_testing_link":"https://drive.google.com/file/d/1tvcI73WVoDHbjuRLlhDvWGKdUtA3hQFL/view?usp=sharing","site_ref_link":"https://drive.google.com/drive/u/0/folders/1scj9AdIO8MKNFdDh8khZS_1G16-kvHcT","state_ref_link":"https://drive.google.com/drive/folders/1v77vtziX_3iVOE5ughvhk36StsBDnBGG?usp=sharing","ObjectId":2379}},{"type":"Feature","id":2380,"geometry":{"type":"Point","coordinates":[-82.943517,39.815203]},"properties":{"site_name":"Rickenbacker Air National Guard Base","other_site_names":null,"state":"Ohio","industry":"Military","matrix_type":"Groundwater","matrix":"Groundwater","year":2017,"pfoa":"45800","pfos":"14400","total_pfas":135533,"pfas_level":135533,"notes":"AFFF used at both BRAC and currently active portions of Rickenbacker Air National Guard Base","regulation_gvt_link":"N/A","resources_link":"http://afcec.publicadmin-record.us.af.mil/","suspected_source_link":"https://ar.afcec-cloud.af.mil/Search.aspx","pfas_testing_link":"https://drive.google.com/file/d/1H1IWztkGLpkjthrmt7d-XvNZA_z9kxir/view?usp=sharing","site_ref_link":"https://drive.google.com/drive/u/0/folders/1EZH6WHSVbdVe0qLzHDbt5Qb066S6mPCU","state_ref_link":"https://drive.google.com/drive/folders/1v77vtziX_3iVOE5ughvhk36StsBDnBGG?usp=sharing","ObjectId":2380}},{"type":"Feature","id":2381,"geometry":{"type":"Point","coordinates":[-82.470031,40.021551]},"properties":{"site_name":"Newark Air Force Base","other_site_names":null,"state":"Ohio","industry":"Military","matrix_type":"Groundwater","matrix":"Groundwater","year":2017,"pfoa":"249","pfos":"1160","total_pfas":1831,"pfas_level":1831,"notes":"AFFF used at the former Newark Air Force Base","regulation_gvt_link":"N/A","resources_link":"http://afcec.publicadmin-record.us.af.mil/","suspected_source_link":null,"pfas_testing_link":"https://www.agri-pulse.com/ext/resources/pdfs/congress/STATUS-OF-NOTIFICATIONS-TO-AGRICULTURAL-OPERATIONS-PURSUANT-TO-SECTION-335-OF-THE-FISCAL-YEAR-2021-NATIONAL-DEFENSE-AUTHORIZATION-ACT-1.pdf","site_ref_link":"https://drive.google.com/drive/u/0/folders/1p3LZ4N5LPnBwiDNE5nuKItv62nibAmPi","state_ref_link":"https://drive.google.com/drive/folders/1v77vtziX_3iVOE5ughvhk36StsBDnBGG?usp=sharing","ObjectId":2381}},{"type":"Feature","id":2382,"geometry":{"type":"Point","coordinates":[-83.786735,41.583399]},"properties":{"site_name":"Toledo Air National Guard Base","other_site_names":"Toledo Express Airport","state":"Ohio","industry":"Military","matrix_type":"Groundwater","matrix":"Groundwater","year":2017,"pfoa":"690","pfos":"47000","total_pfas":135533,"pfas_level":135533,"notes":"AFFF used at Toledo Express Airport / Toledo Air National Guard Base","regulation_gvt_link":"N/A","resources_link":"http://afcec.publicadmin-record.us.af.mil/","suspected_source_link":null,"pfas_testing_link":"https://drive.google.com/file/d/1_b8O8cSB7o32qpRBfL3zSGEkeGo593AE/view?usp=sharing","site_ref_link":"https://drive.google.com/drive/u/0/folders/1yf4j_6JU5xpVVsYi5Sd-WfWzNGajV6WF","state_ref_link":"https://drive.google.com/drive/folders/1v77vtziX_3iVOE5ughvhk36StsBDnBGG?usp=sharing","ObjectId":2382}},{"type":"Feature","id":2589,"geometry":{"type":"Point","coordinates":[-81.08532,41.168427]},"properties":{"site_name":"Camp Ravenna Joint Military Training Center","other_site_names":"Camp James A Garfield","state":"Ohio","industry":"Military","matrix_type":"Other Water","matrix":"Drinking Water","year":2018,"pfoa":null,"pfos":null,"total_pfas":4,"pfas_level":4,"notes":null,"regulation_gvt_link":null,"resources_link":null,"suspected_source_link":"https://drive.google.com/file/d/1g1t60FsMLcfluvkLqorqlbsHnkF_rNZw/view?usp=sharing","pfas_testing_link":"https://drive.google.com/file/d/1g1t60FsMLcfluvkLqorqlbsHnkF_rNZw/view?usp=sharing","site_ref_link":"https://drive.google.com/drive/u/0/folders/17vc5JX3Gvo92Bih-kg-GABnBbExIJhXg","state_ref_link":"https://drive.google.com/drive/folders/1v77vtziX_3iVOE5ughvhk36StsBDnBGG?usp=sharing","ObjectId":2589}},{"type":"Feature","id":2590,"geometry":{"type":"Point","coordinates":[-82.771522,39.564846]},"properties":{"site_name":"Camp Tarlton","other_site_names":null,"state":"Ohio","industry":"Military","matrix_type":"Other Water","matrix":"Drinking Water","year":2017,"pfoa":null,"pfos":null,"total_pfas":30,"pfas_level":30,"notes":null,"regulation_gvt_link":null,"resources_link":null,"suspected_source_link":null,"pfas_testing_link":"https://cdn3.ewg.org/sites/default/files/u352/EWG_PFASTable-Army_C01.pdf","site_ref_link":"https://drive.google.com/drive/u/0/folders/17vc5JX3Gvo92Bih-kg-GABnBbExIJhXg","state_ref_link":"https://drive.google.com/drive/folders/1v77vtziX_3iVOE5ughvhk36StsBDnBGG?usp=sharing","ObjectId":2590}},{"type":"Feature","id":2983,"geometry":{"type":"Point","coordinates":[-82.515445,40.812393]},"properties":{"site_name":"Mansfield Air National Guard Base","other_site_names":"Mansfield-Lahm Regional Airport, 179th Airlift Wing","state":"Ohio","industry":"Military","matrix_type":"Groundwater","matrix":"Groundwater","year":2018,"pfoa":"2200","pfos":"640","total_pfas":7358,"pfas_level":7358,"notes":null,"regulation_gvt_link":null,"resources_link":null,"suspected_source_link":"https://ar.afcec-cloud.af.mil/Search.aspx","pfas_testing_link":"https://drive.google.com/file/d/1DiIsymPLPv7wbLOG47vRG7i0uRPnZ4nC/view?usp=sharing","site_ref_link":null,"state_ref_link":null,"ObjectId":2983}},{"type":"Feature","id":2984,"geometry":{"type":"Point","coordinates":[-83.843151,39.847304]},"properties":{"site_name":"Springfield-Beckley Air National Guard Base","other_site_names":"Springfield-Beckley Municipal Airport, Ohio Air National Guard 178th Fighter Wing","state":"Ohio","industry":"Military","matrix_type":"Groundwater","matrix":"Groundwater","year":2018,"pfoa":"4800","pfos":"2100","total_pfas":7851,"pfas_level":7851,"notes":null,"regulation_gvt_link":null,"resources_link":null,"suspected_source_link":"https://ar.afcec-cloud.af.mil/Search.aspx","pfas_testing_link":"https://drive.google.com/file/d/1z8zMoSUtj1pcpJIucD06iRTMMs9dTBZR/view?usp=sharing","site_ref_link":null,"state_ref_link":null,"ObjectId":2984}},{"type":"Feature","id":2985,"geometry":{"type":"Point","coordinates":[-80.677242,41.269413]},"properties":{"site_name":"Youngstown Air Reserve Station","other_site_names":null,"state":"Ohio","industry":"Military","matrix_type":"Groundwater","matrix":"Groundwater","year":2019,"pfoa":"11000","pfos":"54000","total_pfas":null,"pfas_level":54000,"notes":null,"regulation_gvt_link":null,"resources_link":null,"suspected_source_link":"https://ar.afcec-cloud.af.mil/Search.aspx","pfas_testing_link":"https://drive.google.com/file/d/1uY4b0sYp3DdxxZ9PRl7B3rH2uVFPh1wm/view?usp=sharing","site_ref_link":null,"state_ref_link":null,"ObjectId":2985}},{"type":"Feature","id":4224,"geometry":{"type":"Point","coordinates":[-81.404169,40.968331]},"properties":{"site_name":"INDUSTRIAL EXCESS LANDFILL","other_site_names":null,"state":"Ohio","industry":"Waste","matrix_type":"Groundwater","matrix":"Groundwater","year":2022,"pfoa":"92","pfos":null,"total_pfas":null,"pfas_level":92,"notes":null,"regulation_gvt_link":"https://cumulis.epa.gov/supercpad/cursites/csitinfo.cfm?id=0504014","resources_link":null,"suspected_source_link":"https://semspub.epa.gov/work/05/980131.pdf","pfas_testing_link":"https://drive.google.com/file/d/1Pu-LsCTx2CzGPKVbpvmq4KdG0UkyHrt7/view?usp=drive_link","site_ref_link":"https://drive.google.com/drive/folders/1-L7Fo6CCW5wsVOY8u2LoTIJQ7eGpYYjK?usp=drive_link","state_ref_link":"https://drive.google.com/drive/folders/14XUC9RzrJOrL_ttJnJlQXlPP8ypglIBU?usp=drive_link","ObjectId":4224}},{"type":"Feature","id":4225,"geometry":{"type":"Point","coordinates":[-84.16,39.833331]},"properties":{"site_name":"POWELL ROAD LANDFILL","other_site_names":null,"state":"Ohio","industry":"Waste","matrix_type":"Groundwater","matrix":"Groundwater","year":2022,"pfoa":"30","pfos":"15","total_pfas":262,"pfas_level":262,"notes":null,"regulation_gvt_link":"https://cumulis.epa.gov/supercpad/cursites/csitinfo.cfm?id=0504015","resources_link":"https://cumulis.epa.gov/supercpad/cursites/csitinfo.cfm?id=0504015","suspected_source_link":"https://semspub.epa.gov/work/05/982970.pdf","pfas_testing_link":"https://drive.google.com/file/d/1PSAFJ_jYUyheuVftppjXpyh4USYtQYDW/view?usp=drive_link","site_ref_link":"https://drive.google.com/drive/folders/1PDoJ4lduFCajnb82Ft4PPQTUBHjalLmc?usp=drive_link","state_ref_link":"https://drive.google.com/drive/folders/14XUC9RzrJOrL_ttJnJlQXlPP8ypglIBU?usp=drive_link","ObjectId":4225}},{"type":"Feature","id":4226,"geometry":{"type":"Point","coordinates":[-84.437231,39.236111]},"properties":{"site_name":"PRISTINE, INC.","other_site_names":null,"state":"Ohio","industry":"Waste","matrix_type":"Groundwater","matrix":"Groundwater","year":2020,"pfoa":"63","pfos":"28","total_pfas":185,"pfas_level":185,"notes":null,"regulation_gvt_link":"https://cumulis.epa.gov/supercpad/cursites/csitinfo.cfm?id=0504445","resources_link":"https://cumulis.epa.gov/supercpad/cursites/csitinfo.cfm?id=0504445","suspected_source_link":"https://semspub.epa.gov/work/05/966657.pdf","pfas_testing_link":"https://drive.google.com/file/d/1zfYlbXYeC0eaPo5FMKJXm7s31-iS31ee/view?usp=drive_link","site_ref_link":"https://drive.google.com/drive/folders/11r5bYzIe6qgG3VwLU-ve5D08njTM5zoP?usp=drive_link","state_ref_link":"https://drive.google.com/drive/folders/14XUC9RzrJOrL_ttJnJlQXlPP8ypglIBU?usp=drive_link","ObjectId":4226}},{"type":"Feature","id":4291,"geometry":{"type":"Point","coordinates":[-80.5476,40.631874]},"properties":{"site_name":"Arcwood Environmental","other_site_names":"Heritage Thermal; Heritage WTI","state":"Ohio","industry":"Waste","matrix_type":"Soil","matrix":"Soil","year":2021,"pfoa":"1300","pfos":"8300","total_pfas":10908,"pfas_level":10908,"notes":"Testing proximate to incinerator; also surface water sampling","regulation_gvt_link":"N/A","resources_link":"https://hero.epa.gov/reference/11412286/","suspected_source_link":"https://hero.epa.gov/reference/11412286/","pfas_testing_link":"https://hero.epa.gov/reference/11412286/","site_ref_link":"https://hero.epa.gov/reference/11412286/","state_ref_link":"N/A","ObjectId":4291}}]}