{"type":"FeatureCollection","crs":{"type":"name","properties":{"name":"EPSG:4326"}},"features":[{"type":"Feature","id":42,"geometry":{"type":"Point","coordinates":[-73.202949,43.09114]},"properties":{"site_name":"Stunderland Municipal Landfill","other_site_names":null,"state":"Vermont","industry":"Landfill","matrix_type":"Groundwater","matrix":"Groundwater","year":2016,"pfoa":"2","pfos":null,"total_pfas":null,"pfas_level":2,"notes":null,"regulation_gvt_link":null,"resources_link":"https://dec.vermont.gov/pfas","suspected_source_link":"https://dec.vermont.gov/sites/dec/files/documents/PFAS%20Sampling%20Report%207.10.18%20FINAL.pdf","pfas_testing_link":"https://dec.vermont.gov/sites/dec/files/documents/PFAS%20Sampling%20Report%207.10.18%20FINAL.pdf","site_ref_link":null,"state_ref_link":"https://drive.google.com/drive/u/0/folders/1lGp9mNF1VW52zcJOUD9x-wZO9oAb_opR","ObjectId":42}},{"type":"Feature","id":45,"geometry":{"type":"Point","coordinates":[-72.540338,42.894219]},"properties":{"site_name":"Windham Solid Waste Management District Regional Landfill","other_site_names":null,"state":"Vermont","industry":"Landfill","matrix_type":"Groundwater","matrix":"Groundwater","year":2016,"pfoa":"9","pfos":null,"total_pfas":null,"pfas_level":9,"notes":null,"regulation_gvt_link":null,"resources_link":"https://dec.vermont.gov/pfas","suspected_source_link":"https://dec.vermont.gov/sites/dec/files/documents/PFAS%20Sampling%20Report%207.10.18%20FINAL.pdf","pfas_testing_link":"https://dec.vermont.gov/sites/dec/files/documents/PFAS%20Sampling%20Report%207.10.18%20FINAL.pdf","site_ref_link":null,"state_ref_link":"https://drive.google.com/drive/u/0/folders/1lGp9mNF1VW52zcJOUD9x-wZO9oAb_opR","ObjectId":45}},{"type":"Feature","id":48,"geometry":{"type":"Point","coordinates":[-72.819886,42.930306]},"properties":{"site_name":"Dover Municipal Landfill","other_site_names":null,"state":"Vermont","industry":"Landfill","matrix_type":"Groundwater","matrix":"Groundwater","year":2016,"pfoa":"8","pfos":"5","total_pfas":null,"pfas_level":13,"notes":null,"regulation_gvt_link":null,"resources_link":"https://dec.vermont.gov/pfas","suspected_source_link":"https://dec.vermont.gov/sites/dec/files/documents/PFAS%20Sampling%20Report%207.10.18%20FINAL.pdf","pfas_testing_link":"https://dec.vermont.gov/sites/dec/files/documents/PFAS%20Sampling%20Report%207.10.18%20FINAL.pdf","site_ref_link":null,"state_ref_link":"https://drive.google.com/drive/u/0/folders/1lGp9mNF1VW52zcJOUD9x-wZO9oAb_opR","ObjectId":48}},{"type":"Feature","id":49,"geometry":{"type":"Point","coordinates":[-73.26189,42.790516]},"properties":{"site_name":"Old Pownal Landfill (West Landfill)","other_site_names":null,"state":"Vermont","industry":"Industry","matrix_type":"Groundwater","matrix":"Groundwater","year":2016,"pfoa":"14","pfos":"5","total_pfas":null,"pfas_level":19,"notes":"Use of Teflon-containing PFOA at the former Warren Wire/General Cable Co. factory. ","regulation_gvt_link":"N/A","resources_link":"https://dec.vermont.gov/pfas","suspected_source_link":"https://www.benningtonbanner.com/stories/pfas-in-old-landfill-prompts-more-testing,607655","pfas_testing_link":"https://dec.vermont.gov/sites/dec/files/documents/PFAS%20Sampling%20Report%207.10.18%20FINAL.pdf","site_ref_link":"https://drive.google.com/drive/folders/11cbVmBaqGGaLIY7WiFdLU8yDU0dzYw_P","state_ref_link":"https://drive.google.com/drive/u/0/folders/1lGp9mNF1VW52zcJOUD9x-wZO9oAb_opR","ObjectId":49}},{"type":"Feature","id":50,"geometry":{"type":"Point","coordinates":[-73.183203,42.818202]},"properties":{"site_name":"Pownal Landfill","other_site_names":null,"state":"Vermont","industry":"Landfill","matrix_type":"Groundwater","matrix":"Groundwater","year":2016,"pfoa":null,"pfos":null,"total_pfas":20,"pfas_level":20,"notes":null,"regulation_gvt_link":null,"resources_link":null,"suspected_source_link":"https://www.datawrapper.de/_/pmQX8/","pfas_testing_link":"https://drive.google.com/file/d/1JhhV5mZ6zw_VMwGJ3SWPF1_cUHAeanAg/view?usp=sharing","site_ref_link":null,"state_ref_link":"https://drive.google.com/drive/u/0/folders/1lGp9mNF1VW52zcJOUD9x-wZO9oAb_opR","ObjectId":50}},{"type":"Feature","id":51,"geometry":{"type":"Point","coordinates":[-73.076128,44.834304]},"properties":{"site_name":"Eveready St. Albans","other_site_names":null,"state":"Vermont","industry":"Industry","matrix_type":"Unknown","matrix":null,"year":2016,"pfoa":null,"pfos":"20","total_pfas":null,"pfas_level":20,"notes":"Battery manufacturing","regulation_gvt_link":null,"resources_link":null,"suspected_source_link":"https://dec.vermont.gov/sites/dec/files/documents/PFAS%20Sampling%20Report%207.10.18%20FINAL.pdf","pfas_testing_link":null,"site_ref_link":null,"state_ref_link":null,"ObjectId":51}},{"type":"Feature","id":52,"geometry":{"type":"Point","coordinates":[-72.5205,42.975494]},"properties":{"site_name":"Putney Paper Sludge Landfill","other_site_names":null,"state":"Vermont","industry":"Landfill","matrix_type":"Groundwater","matrix":"Groundwater","year":2016,"pfoa":"18","pfos":"11","total_pfas":null,"pfas_level":29,"notes":null,"regulation_gvt_link":null,"resources_link":"https://dec.vermont.gov/pfas","suspected_source_link":"https://dec.vermont.gov/sites/dec/files/documents/PFAS%20Sampling%20Report%207.10.18%20FINAL.pdf","pfas_testing_link":"https://dec.vermont.gov/sites/dec/files/documents/PFAS%20Sampling%20Report%207.10.18%20FINAL.pdf","site_ref_link":null,"state_ref_link":"https://drive.google.com/drive/folders/1o9EXiyyAVB_spCy1okhaLex7ovjeJgdN","ObjectId":52}},{"type":"Feature","id":53,"geometry":{"type":"Point","coordinates":[-73.082493,44.474532]},"properties":{"site_name":"CSWD Williston Lined Landfill","other_site_names":null,"state":"Vermont","industry":"Landfill","matrix_type":"Groundwater","matrix":"Groundwater","year":2016,"pfoa":null,"pfos":null,"total_pfas":33,"pfas_level":33,"notes":null,"regulation_gvt_link":null,"resources_link":null,"suspected_source_link":"https://www.datawrapper.de/_/pmQX8/","pfas_testing_link":"https://drive.google.com/file/d/1JhhV5mZ6zw_VMwGJ3SWPF1_cUHAeanAg/view?usp=sharing","site_ref_link":null,"state_ref_link":"https://drive.google.com/drive/u/0/folders/1lGp9mNF1VW52zcJOUD9x-wZO9oAb_opR","ObjectId":53}},{"type":"Feature","id":56,"geometry":{"type":"Point","coordinates":[-73.23609,42.765026]},"properties":{"site_name":"Pownal Fire Department #2","other_site_names":null,"state":"Vermont","industry":"Fire Department/Training Facility","matrix_type":"Groundwater","matrix":"Groundwater","year":2016,"pfoa":"43","pfos":null,"total_pfas":null,"pfas_level":43,"notes":null,"regulation_gvt_link":null,"resources_link":null,"suspected_source_link":"https://anrweb.vt.gov/PubDocs/DEC/Hazsites/870129.PFAS.Summary.pdf","pfas_testing_link":"https://anrweb.vt.gov/PubDocs/DEC/Hazsites/870129.PFAS.Summary.pdf","site_ref_link":null,"state_ref_link":null,"ObjectId":56}},{"type":"Feature","id":61,"geometry":{"type":"Point","coordinates":[-73.016774,43.718939]},"properties":{"site_name":"Vermont Fire Academy","other_site_names":null,"state":"Vermont","industry":"Military","matrix_type":"Groundwater","matrix":"Groundwater","year":2016,"pfoa":null,"pfos":null,"total_pfas":80,"pfas_level":80,"notes":"AFFF used during training exercises from the 1970s to 2011.","regulation_gvt_link":null,"resources_link":"https://dec.vermont.gov/pfas","suspected_source_link":"https://www.stone-env.com/assets/resources/443aa16247/16-061-PFAS-and-Water-Treatment-at-VT-Fire-Academy.pdf","pfas_testing_link":"https://www.stone-env.com/assets/resources/443aa16247/16-061-PFAS-and-Water-Treatment-at-VT-Fire-Academy.pdf","site_ref_link":"https://drive.google.com/drive/u/0/folders/1rLpujWTQ8faXtu_cyAhxNLk1NstR5wzl","state_ref_link":"https://drive.google.com/drive/u/0/folders/1lGp9mNF1VW52zcJOUD9x-wZO9oAb_opR","ObjectId":61}},{"type":"Feature","id":66,"geometry":{"type":"Point","coordinates":[-73.26567,42.79718]},"properties":{"site_name":"Pownal Tannery","other_site_names":null,"state":"Vermont","industry":"Industry","matrix_type":"Groundwater","matrix":"Groundwater","year":2016,"pfoa":"200","pfos":"47","total_pfas":null,"pfas_level":200,"notes":"Identified by the Environmental Protection Agency (EPA) as having PFAS contamination. Provided to the Senate Committee on Environment and Public Works.","regulation_gvt_link":null,"resources_link":"https://cumulis.epa.gov/supercpad/cursites/csitinfo.cfm?id=0101463","suspected_source_link":"https://www.epw.senate.gov/public/index.cfm/superfund-sites-identified-by-epa-to-have-pfas-contamination","pfas_testing_link":"https://anrweb.vt.gov/PubDocs/DEC/Hazsites/870129.PFAS.Summary.pdf","site_ref_link":null,"state_ref_link":null,"ObjectId":66}},{"type":"Feature","id":70,"geometry":{"type":"Point","coordinates":[-73.222429,42.796759]},"properties":{"site_name":"Former Plant No. 3","other_site_names":null,"state":"Vermont","industry":"Industry","matrix_type":"Solid","matrix":"Soil","year":2016,"pfoa":"320","pfos":null,"total_pfas":null,"pfas_level":320,"notes":null,"regulation_gvt_link":null,"resources_link":null,"suspected_source_link":"https://anrweb.vt.gov/PubDocs/DEC/Hazsites/870129.PFAS.Summary.pdf","pfas_testing_link":"https://anrweb.vt.gov/PubDocs/DEC/Hazsites/870129.PFAS.Summary.pdf","site_ref_link":null,"state_ref_link":null,"ObjectId":70}},{"type":"Feature","id":71,"geometry":{"type":"Point","coordinates":[-73.241943,42.774681]},"properties":{"site_name":"Former General Cable Facility","other_site_names":null,"state":"Vermont","industry":"Industry","matrix_type":"Groundwater","matrix":"Groundwater","year":2016,"pfoa":"400","pfos":null,"total_pfas":null,"pfas_level":400,"notes":"Wirecoating operations","regulation_gvt_link":null,"resources_link":null,"suspected_source_link":"https://anrweb.vt.gov/PubDocs/DEC/Hazsites/870129.PFAS.Summary.pdf","pfas_testing_link":"https://anrweb.vt.gov/PubDocs/DEC/Hazsites/870129.PFAS.Summary.pdf","site_ref_link":null,"state_ref_link":null,"ObjectId":71}},{"type":"Feature","id":75,"geometry":{"type":"Point","coordinates":[-73.15363,42.872574]},"properties":{"site_name":"Burgess Brothers C&D Landfill","other_site_names":"Burgess Superfund Site, Burgess Brothers Landfill","state":"Vermont","industry":"Landfill","matrix_type":"Groundwater","matrix":"Groundwater","year":2016,"pfoa":"900","pfos":"140","total_pfas":null,"pfas_level":1040,"notes":null,"regulation_gvt_link":null,"resources_link":"https://dec.vermont.gov/pfas","suspected_source_link":"https://dec.vermont.gov/sites/dec/files/documents/PFAS%20Sampling%20Report%207.10.18%20FINAL.pdf","pfas_testing_link":"https://dec.vermont.gov/sites/dec/files/documents/PFAS%20Sampling%20Report%207.10.18%20FINAL.pdf","site_ref_link":null,"state_ref_link":"https://drive.google.com/drive/u/0/folders/1lGp9mNF1VW52zcJOUD9x-wZO9oAb_opR","ObjectId":75}},{"type":"Feature","id":76,"geometry":{"type":"Point","coordinates":[-73.195891,42.919424]},"properties":{"site_name":"Burgess Bro Landfill","other_site_names":null,"state":"Vermont","industry":"Landfill","matrix_type":"Groundwater","matrix":"Groundwater","year":2016,"pfoa":null,"pfos":null,"total_pfas":1420,"pfas_level":1420,"notes":null,"regulation_gvt_link":null,"resources_link":null,"suspected_source_link":"https://www.datawrapper.de/_/pmQX8/","pfas_testing_link":"https://drive.google.com/file/d/1JhhV5mZ6zw_VMwGJ3SWPF1_cUHAeanAg/view?usp=sharing","site_ref_link":null,"state_ref_link":"https://drive.google.com/drive/u/0/folders/1lGp9mNF1VW52zcJOUD9x-wZO9oAb_opR","ObjectId":76}},{"type":"Feature","id":85,"geometry":{"type":"Point","coordinates":[-73.174498,44.512189]},"properties":{"site_name":"Champlain Cable","other_site_names":"Hercules Inc.","state":"Vermont","industry":"Industry","matrix_type":"Groundwater","matrix":"Groundwater","year":2016,"pfoa":"7,200","pfos":null,"total_pfas":null,"pfas_level":7200,"notes":"Wirecoating operations","regulation_gvt_link":null,"resources_link":null,"suspected_source_link":"https://dec.vermont.gov/sites/dec/files/documents/PFAS%20Sampling%20Report%207.10.18%20FINAL.pdf","pfas_testing_link":"https://vtdigger.org/2016/07/14/pfoa-found-in-groundwater-at-globalfoundries-champlain-cable-plants/","site_ref_link":null,"state_ref_link":null,"ObjectId":85}},{"type":"Feature","id":86,"geometry":{"type":"Point","coordinates":[-73.111737,44.484264]},"properties":{"site_name":"Global Foundries","other_site_names":"IBM SYSTEMS & TECHNOLOGY SEMICONDUCTOR FACILITY","state":"Vermont","industry":"Industry","matrix_type":"Groundwater","matrix":"Groundwater","year":2016,"pfoa":"7,200","pfos":null,"total_pfas":null,"pfas_level":7200,"notes":"Semiconductor manufacturing","regulation_gvt_link":null,"resources_link":null,"suspected_source_link":"https://dec.vermont.gov/sites/dec/files/documents/PFAS%20Sampling%20Report%207.10.18%20FINAL.pdf","pfas_testing_link":"http://www.mynbc5.com/article/water-contamination-found-at-two-chittenden-county-sites/3327693","site_ref_link":null,"state_ref_link":null,"ObjectId":86}},{"type":"Feature","id":127,"geometry":{"type":"Point","coordinates":[-72.223486,44.910938]},"properties":{"site_name":"Coventry Landfill (NEWSVT)","other_site_names":null,"state":"Vermont","industry":"Landfill","matrix_type":"Other Water","matrix":"Leachate","year":2018,"pfoa":"1,850","pfos":"244","total_pfas":null,"pfas_level":2094,"notes":null,"regulation_gvt_link":null,"resources_link":"https://dec.vermont.gov/pfas","suspected_source_link":"https://dec.vermont.gov/sites/dec/files/documents/PFAS%20Sampling%20Report%207.10.18%20FINAL.pdf","pfas_testing_link":"https://dec.vermont.gov/sites/dec/files/documents/PFAS%20Sampling%20Report%207.10.18%20FINAL.pdf","site_ref_link":null,"state_ref_link":"https://drive.google.com/drive/u/0/folders/1lGp9mNF1VW52zcJOUD9x-wZO9oAb_opR","ObjectId":127}},{"type":"Feature","id":135,"geometry":{"type":"Point","coordinates":[-72.653324,43.903073]},"properties":{"site_name":"Randolph Landfill","other_site_names":null,"state":"Vermont","industry":"Landfill","matrix_type":"Other Water","matrix":"Leachate","year":2018,"pfoa":"2,110","pfos":"278","total_pfas":null,"pfas_level":2388,"notes":null,"regulation_gvt_link":null,"resources_link":"https://dec.vermont.gov/pfas","suspected_source_link":"https://dec.vermont.gov/sites/dec/files/documents/PFAS%20Sampling%20Report%207.10.18%20FINAL.pdf","pfas_testing_link":"https://dec.vermont.gov/sites/dec/files/documents/PFAS%20Sampling%20Report%207.10.18%20FINAL.pdf","site_ref_link":null,"state_ref_link":"https://drive.google.com/drive/u/0/folders/1lGp9mNF1VW52zcJOUD9x-wZO9oAb_opR","ObjectId":135}},{"type":"Feature","id":147,"geometry":{"type":"Point","coordinates":[-72.711257,44.312244]},"properties":{"site_name":"Moretown Landfill","other_site_names":null,"state":"Vermont","industry":"Landfill","matrix_type":"Other Water","matrix":"Leachate","year":2018,"pfoa":"2,800","pfos":"300","total_pfas":null,"pfas_level":3100,"notes":null,"regulation_gvt_link":null,"resources_link":"https://dec.vermont.gov/pfas","suspected_source_link":"https://dec.vermont.gov/sites/dec/files/documents/PFAS%20Sampling%20Report%207.10.18%20FINAL.pdf","pfas_testing_link":"https://dec.vermont.gov/sites/dec/files/documents/PFAS%20Sampling%20Report%207.10.18%20FINAL.pdf","site_ref_link":null,"state_ref_link":"https://drive.google.com/drive/u/0/folders/1lGp9mNF1VW52zcJOUD9x-wZO9oAb_opR","ObjectId":147}},{"type":"Feature","id":204,"geometry":{"type":"Point","coordinates":[-73.1956,42.92066]},"properties":{"site_name":"Bennington Municipal Sanitary Landfill","other_site_names":null,"state":"Vermont","industry":"Landfill","matrix_type":"Groundwater","matrix":"Groundwater","year":2017,"pfoa":"5,800","pfos":"28","total_pfas":null,"pfas_level":5800,"notes":"Identified by the Environmental Protection Agency (EPA) as having PFAS contamination. Provided to the Senate Committee on Environment and Public Works.","regulation_gvt_link":null,"resources_link":"https://cumulis.epa.gov/supercpad/cursites/csitinfo.cfm?id=0101493","suspected_source_link":"https://www.epw.senate.gov/public/index.cfm/superfund-sites-identified-by-epa-to-have-pfas-contamination","pfas_testing_link":"https://semspub.epa.gov/work/01/639139.pdf","site_ref_link":null,"state_ref_link":null,"ObjectId":204}},{"type":"Feature","id":336,"geometry":{"type":"Point","coordinates":[-72.63596,43.755714]},"properties":{"site_name":"Barnard Landfill","other_site_names":null,"state":"Vermont","industry":"Landfill","matrix_type":"Groundwater","matrix":"Groundwater","year":2018,"pfoa":null,"pfos":null,"total_pfas":55,"pfas_level":55,"notes":null,"regulation_gvt_link":null,"resources_link":null,"suspected_source_link":"https://www.datawrapper.de/_/pmQX8/","pfas_testing_link":"https://drive.google.com/file/d/1JhhV5mZ6zw_VMwGJ3SWPF1_cUHAeanAg/view?usp=sharing","site_ref_link":null,"state_ref_link":"https://drive.google.com/drive/u/0/folders/1lGp9mNF1VW52zcJOUD9x-wZO9oAb_opR","ObjectId":336}},{"type":"Feature","id":376,"geometry":{"type":"Point","coordinates":[-73.098557,44.132545]},"properties":{"site_name":"Bristol Waste Management, Inc. Landfill","other_site_names":null,"state":"Vermont","industry":"Landfill","matrix_type":"Groundwater","matrix":"Groundwater","year":2018,"pfoa":null,"pfos":null,"total_pfas":85,"pfas_level":85,"notes":null,"regulation_gvt_link":null,"resources_link":null,"suspected_source_link":"https://www.datawrapper.de/_/pmQX8/","pfas_testing_link":"https://drive.google.com/file/d/1JhhV5mZ6zw_VMwGJ3SWPF1_cUHAeanAg/view?usp=sharing","site_ref_link":null,"state_ref_link":"https://drive.google.com/drive/u/0/folders/1lGp9mNF1VW52zcJOUD9x-wZO9oAb_opR","ObjectId":376}},{"type":"Feature","id":389,"geometry":{"type":"Point","coordinates":[-72.951414,43.620865]},"properties":{"site_name":"Rutland City Landfill","other_site_names":null,"state":"Vermont","industry":"Landfill","matrix_type":"Groundwater","matrix":"Groundwater","year":2018,"pfoa":null,"pfos":null,"total_pfas":104,"pfas_level":104,"notes":null,"regulation_gvt_link":null,"resources_link":null,"suspected_source_link":"https://www.datawrapper.de/_/pmQX8/","pfas_testing_link":"https://drive.google.com/file/d/1JhhV5mZ6zw_VMwGJ3SWPF1_cUHAeanAg/view?usp=sharing","site_ref_link":null,"state_ref_link":"https://drive.google.com/drive/u/0/folders/1lGp9mNF1VW52zcJOUD9x-wZO9oAb_opR","ObjectId":389}},{"type":"Feature","id":391,"geometry":{"type":"Point","coordinates":[-73.17443,44.478107]},"properties":{"site_name":"South Burlington Landfill","other_site_names":null,"state":"Vermont","industry":"Landfill","matrix_type":"Other Water","matrix":"Leachate","year":2018,"pfoa":"80","pfos":"30","total_pfas":null,"pfas_level":109,"notes":null,"regulation_gvt_link":null,"resources_link":"https://dec.vermont.gov/pfas","suspected_source_link":"https://dec.vermont.gov/sites/dec/files/documents/PFAS%20Sampling%20Report%207.10.18%20FINAL.pdf","pfas_testing_link":"https://dec.vermont.gov/sites/dec/files/documents/PFAS%20Sampling%20Report%207.10.18%20FINAL.pdf","site_ref_link":null,"state_ref_link":"https://drive.google.com/drive/u/0/folders/1lGp9mNF1VW52zcJOUD9x-wZO9oAb_opR","ObjectId":391}},{"type":"Feature","id":397,"geometry":{"type":"Point","coordinates":[-72.950178,44.480783]},"properties":{"site_name":"Camp Ethan Allen Training Site","other_site_names":null,"state":"Vermont","industry":"Military","matrix_type":"Other Water","matrix":"Drinking Water","year":2018,"pfoa":"32","pfos":"2","total_pfas":118,"pfas_level":118,"notes":"AFFF","regulation_gvt_link":null,"resources_link":"https://dec.vermont.gov/pfas","suspected_source_link":"https://dec.vermont.gov/sites/dec/files/documents/PFAS%20Sampling%20Report%207.10.18%20FINAL.pdf","pfas_testing_link":"https://drive.google.com/file/d/1g1t60FsMLcfluvkLqorqlbsHnkF_rNZw/view?usp=sharing","site_ref_link":null,"state_ref_link":"https://drive.google.com/drive/u/0/folders/1lGp9mNF1VW52zcJOUD9x-wZO9oAb_opR","ObjectId":397}},{"type":"Feature","id":410,"geometry":{"type":"Point","coordinates":[-72.594632,44.680357]},"properties":{"site_name":"North Hyde Park Training Site","other_site_names":null,"state":"Vermont","industry":"Military","matrix_type":"Other Water","matrix":"Drinking Water","year":2017,"pfoa":"2","pfos":null,"total_pfas":6,"pfas_level":6,"notes":null,"regulation_gvt_link":null,"resources_link":"https://dec.vermont.gov/pfas","suspected_source_link":"https://www.militarypoisons.org/vermont.html","pfas_testing_link":"https://cdn3.ewg.org/sites/default/files/u352/EWG_PFASTable-Army_C01.pdf?_ga=2.27118269.1802277307.1589039917-836179027.1562707229","site_ref_link":null,"state_ref_link":"https://drive.google.com/drive/u/0/folders/1lGp9mNF1VW52zcJOUD9x-wZO9oAb_opR","ObjectId":410}},{"type":"Feature","id":449,"geometry":{"type":"Point","coordinates":[-72.762369,42.760312]},"properties":{"site_name":"Halifax Municipal Landfill","other_site_names":null,"state":"Vermont","industry":"Landfill","matrix_type":"Groundwater","matrix":"Groundwater","year":2017,"pfoa":"45","pfos":"37","total_pfas":null,"pfas_level":82,"notes":null,"regulation_gvt_link":null,"resources_link":"https://dec.vermont.gov/pfas","suspected_source_link":"https://dec.vermont.gov/sites/dec/files/documents/PFAS%20Sampling%20Report%207.10.18%20FINAL.pdf","pfas_testing_link":"https://dec.vermont.gov/sites/dec/files/documents/PFAS%20Sampling%20Report%207.10.18%20FINAL.pdf","site_ref_link":null,"state_ref_link":"https://drive.google.com/drive/u/0/folders/1lGp9mNF1VW52zcJOUD9x-wZO9oAb_opR","ObjectId":449}},{"type":"Feature","id":497,"geometry":{"type":"Point","coordinates":[-73.2463,42.91444]},"properties":{"site_name":"Former ChemFab Teflon Plant","other_site_names":null,"state":"Vermont","industry":"Industry","matrix_type":"Groundwater","matrix":"Groundwater","year":2017,"pfoa":"2,730","pfos":"131","total_pfas":null,"pfas_level":2861,"notes":"Former Chemfab teflon fabric coating plants, later purchased by Saint-Gobain  ","regulation_gvt_link":"https://dec.vermont.gov/pfas/pfoa/communities","resources_link":"https://dec.vermont.gov/pfas","suspected_source_link":"https://vtdigger.org/investigations/teflon-town-part-1/","pfas_testing_link":"https://dec.vermont.gov/geological-survey/groundwater/town-gw/bennington","site_ref_link":"https://drive.google.com/drive/u/0/folders/11cbVmBaqGGaLIY7WiFdLU8yDU0dzYw_P","state_ref_link":"https://drive.google.com/drive/u/0/folders/1lGp9mNF1VW52zcJOUD9x-wZO9oAb_opR","ObjectId":497}},{"type":"Feature","id":511,"geometry":{"type":"Point","coordinates":[-72.455584,43.086448]},"properties":{"site_name":"Westminster Training Site","other_site_names":null,"state":"Vermont","industry":"Military","matrix_type":"Other Water","matrix":"Drinking Water","year":2018,"pfoa":"1","pfos":null,"total_pfas":6,"pfas_level":6,"notes":null,"regulation_gvt_link":null,"resources_link":"https://dec.vermont.gov/pfas","suspected_source_link":"https://www.militarypoisons.org/vermont.html","pfas_testing_link":"https://drive.google.com/file/d/1g1t60FsMLcfluvkLqorqlbsHnkF_rNZw/view?usp=sharing","site_ref_link":null,"state_ref_link":"https://drive.google.com/drive/u/0/folders/1lGp9mNF1VW52zcJOUD9x-wZO9oAb_opR","ObjectId":511}},{"type":"Feature","id":592,"geometry":{"type":"Point","coordinates":[-72.905887,44.643583]},"properties":{"site_name":"Cambridge Landfill","other_site_names":null,"state":"Vermont","industry":"Landfill","matrix_type":"Groundwater","matrix":"Groundwater","year":2018,"pfoa":null,"pfos":null,"total_pfas":28,"pfas_level":28,"notes":null,"regulation_gvt_link":null,"resources_link":null,"suspected_source_link":"https://www.datawrapper.de/_/pmQX8/","pfas_testing_link":"https://drive.google.com/file/d/1JhhV5mZ6zw_VMwGJ3SWPF1_cUHAeanAg/view?usp=sharing","site_ref_link":null,"state_ref_link":"https://drive.google.com/drive/u/0/folders/1lGp9mNF1VW52zcJOUD9x-wZO9oAb_opR","ObjectId":592}},{"type":"Feature","id":597,"geometry":{"type":"Point","coordinates":[-72.520436,42.975645]},"properties":{"site_name":"Putney Paper Landfill","other_site_names":null,"state":"Vermont","industry":"Landfill","matrix_type":"Groundwater","matrix":"Groundwater","year":2018,"pfoa":null,"pfos":null,"total_pfas":30,"pfas_level":30,"notes":null,"regulation_gvt_link":null,"resources_link":null,"suspected_source_link":"https://www.datawrapper.de/_/pmQX8/","pfas_testing_link":"https://drive.google.com/file/d/1JhhV5mZ6zw_VMwGJ3SWPF1_cUHAeanAg/view?usp=sharing","site_ref_link":null,"state_ref_link":"https://drive.google.com/drive/u/0/folders/1lGp9mNF1VW52zcJOUD9x-wZO9oAb_opR","ObjectId":597}},{"type":"Feature","id":730,"geometry":{"type":"Point","coordinates":[-73.188494,44.516423]},"properties":{"site_name":"Rathe Landfill","other_site_names":null,"state":"Vermont","industry":"Landfill","matrix_type":"Other Water","matrix":"Leachate","year":2018,"pfoa":"110","pfos":"99","total_pfas":null,"pfas_level":209,"notes":null,"regulation_gvt_link":null,"resources_link":"https://dec.vermont.gov/pfas","suspected_source_link":"https://dec.vermont.gov/sites/dec/files/documents/PFAS%20Sampling%20Report%207.10.18%20FINAL.pdf","pfas_testing_link":"https://dec.vermont.gov/sites/dec/files/documents/PFAS%20Sampling%20Report%207.10.18%20FINAL.pdf","site_ref_link":null,"state_ref_link":"https://drive.google.com/drive/u/0/folders/1lGp9mNF1VW52zcJOUD9x-wZO9oAb_opR","ObjectId":730}},{"type":"Feature","id":761,"geometry":{"type":"Point","coordinates":[-73.215556,44.469903]},"properties":{"site_name":"Chittenden Solid Waste District Landfill","other_site_names":null,"state":"Vermont","industry":"Landfill","matrix_type":"Other Water","matrix":"Leachate","year":2018,"pfoa":"418","pfos":"23","total_pfas":441,"pfas_level":441,"notes":null,"regulation_gvt_link":null,"resources_link":"https://dec.vermont.gov/pfas","suspected_source_link":"https://dec.vermont.gov/sites/dec/files/documents/PFAS%20Sampling%20Report%207.10.18%20FINAL.pdf","pfas_testing_link":"https://dec.vermont.gov/sites/dec/files/documents/PFAS%20Sampling%20Report%207.10.18%20FINAL.pdf","site_ref_link":null,"state_ref_link":"https://drive.google.com/drive/u/0/folders/1lGp9mNF1VW52zcJOUD9x-wZO9oAb_opR","ObjectId":761}},{"type":"Feature","id":837,"geometry":{"type":"Point","coordinates":[-72.46733,43.27479]},"properties":{"site_name":"Old Springfield Landfill","other_site_names":null,"state":"Vermont","industry":"Landfill","matrix_type":"Groundwater","matrix":"Groundwater","year":2019,"pfoa":null,"pfos":"6","total_pfas":null,"pfas_level":6,"notes":"Identified by the Environmental Protection Agency (EPA) as having PFAS contamination. Provided to the Senate Committee on Environment and Public Works.","regulation_gvt_link":null,"resources_link":"https://cumulis.epa.gov/supercpad/SiteProfiles/index.cfm?fuseaction=second.cleanup&id=0101437","suspected_source_link":"https://www.epw.senate.gov/public/index.cfm/superfund-sites-identified-by-epa-to-have-pfas-contamination","pfas_testing_link":"https://semspub.epa.gov/work/01/100026135.pdf","site_ref_link":null,"state_ref_link":null,"ObjectId":837}},{"type":"Feature","id":878,"geometry":{"type":"Point","coordinates":[-72.242247,43.826406]},"properties":{"site_name":"Upper Valley Landfill","other_site_names":null,"state":"Vermont","industry":"Landfill","matrix_type":"Groundwater","matrix":"Groundwater","year":2019,"pfoa":null,"pfos":null,"total_pfas":21,"pfas_level":21,"notes":null,"regulation_gvt_link":null,"resources_link":null,"suspected_source_link":"https://www.datawrapper.de/_/pmQX8/","pfas_testing_link":"https://drive.google.com/file/d/1JhhV5mZ6zw_VMwGJ3SWPF1_cUHAeanAg/view?usp=sharing","site_ref_link":null,"state_ref_link":"https://drive.google.com/drive/u/0/folders/1lGp9mNF1VW52zcJOUD9x-wZO9oAb_opR","ObjectId":878}},{"type":"Feature","id":1014,"geometry":{"type":"Point","coordinates":[-73.242553,42.77567]},"properties":{"site_name":"Warren Wire Facility","other_site_names":null,"state":"Vermont","industry":"Industry","matrix_type":"Groundwater","matrix":"Groundwater","year":2022,"pfoa":"960","pfos":null,"total_pfas":null,"pfas_level":960,"notes":"A public water supply well (Fire District 2) which supplied water to 400 people and several private drinking water wells were contaminated with PFAS above the standard, associated from the Warren Wire facility. The site is now owned by Mack Molding.","regulation_gvt_link":null,"resources_link":null,"suspected_source_link":"https://dec.vermont.gov/sites/dec/files/documents/PFAS%20Sampling%20Report%207.10.18%20FINAL.pdf","pfas_testing_link":"https://drive.google.com/file/d/1It3Ey2_-jJDxF82W4kqR-qKMuXPb6h00/view?usp=drive_link","site_ref_link":"https://drive.google.com/drive/folders/1Yqc3YjOoVWv9IB-bNb_PU_h4TBv6kp0_?usp=drive_link","state_ref_link":"https://drive.google.com/drive/folders/1o9EXiyyAVB_spCy1okhaLex7ovjeJgdN?usp=drive_link","ObjectId":1014}},{"type":"Feature","id":1060,"geometry":{"type":"Point","coordinates":[-71.989439,44.518611]},"properties":{"site_name":"Parker Sanitary Landfill","other_site_names":null,"state":"Vermont","industry":"Industry","matrix_type":"Groundwater","matrix":"Groundwater","year":2023,"pfoa":"60","pfos":"8","total_pfas":72,"pfas_level":72,"notes":null,"regulation_gvt_link":null,"resources_link":null,"suspected_source_link":"https://cumulis.epa.gov/supercpad/SiteProfiles/index.cfm?fuseaction=second.Cleanup&id=0101491#bkground","pfas_testing_link":"https://semspub.epa.gov/work/01/100030946.pdf","site_ref_link":"https://drive.google.com/drive/folders/1lqalpLLeBF1CFsGdtLNLKFXhasDtb34N?usp=drive_link","state_ref_link":"https://drive.google.com/drive/folders/1o9EXiyyAVB_spCy1okhaLex7ovjeJgdN?usp=drive_link","ObjectId":1060}},{"type":"Feature","id":1066,"geometry":{"type":"Point","coordinates":[-72.44041,43.2264]},"properties":{"site_name":"BFI Sanitary Landfill (Rockingham)","other_site_names":null,"state":"Vermont","industry":"Landfill","matrix_type":"Groundwater","matrix":"Groundwater","year":2023,"pfoa":"150","pfos":"43","total_pfas":null,"pfas_level":154,"notes":"Identified by the Environmental Protection Agency (EPA) as having PFAS contamination. Provided to the Senate Committee on Environment and Public Works.","regulation_gvt_link":null,"resources_link":"https://cumulis.epa.gov/supercpad/cursites/csitinfo.cfm?id=0101475","suspected_source_link":"https://www.epw.senate.gov/public/index.cfm/superfund-sites-identified-by-epa-to-have-pfas-contamination","pfas_testing_link":"https://semspub.epa.gov/work/01/100031869.pdf","site_ref_link":"https://drive.google.com/drive/folders/10A5hgfHNCORbwBL6lBBWz27pSmY4rkYc?usp=drive_link","state_ref_link":"https://drive.google.com/drive/folders/18E9JwkJ_4ZasRBJduV1elykOb739mgF5?usp=drive_link","ObjectId":1066}},{"type":"Feature","id":1083,"geometry":{"type":"Point","coordinates":[-73.224639,44.390051]},"properties":{"site_name":"Harbour Industry","other_site_names":null,"state":"Vermont","industry":"Industry","matrix_type":"Groundwater","matrix":"Groundwater","year":2023,"pfoa":"438","pfos":"1,030","total_pfas":1224,"pfas_level":1224,"notes":"Wirecoating operations","regulation_gvt_link":null,"resources_link":null,"suspected_source_link":"https://dec.vermont.gov/sites/dec/files/documents/PFAS%20Sampling%20Report%207.10.18%20FINAL.pdf","pfas_testing_link":"https://drive.google.com/file/d/1dV3Apk_B10L4NLF-Wk92PJRjV0lzY7yn/view?usp=drive_link","site_ref_link":"https://drive.google.com/drive/folders/12tstMbKSiyOx1uJPb8FvOQS9Kjstuc97?usp=drive_link","state_ref_link":"https://drive.google.com/drive/folders/1o9EXiyyAVB_spCy1okhaLex7ovjeJgdN?usp=drive_link","ObjectId":1083}},{"type":"Feature","id":1119,"geometry":{"type":"Point","coordinates":[-72.652892,43.585915]},"properties":{"site_name":"Bridgewater Landfill","other_site_names":null,"state":"Vermont","industry":"Landfill","matrix_type":"Groundwater","matrix":"Groundwater","year":2019,"pfoa":null,"pfos":null,"total_pfas":138,"pfas_level":138,"notes":null,"regulation_gvt_link":null,"resources_link":null,"suspected_source_link":"https://www.datawrapper.de/_/pmQX8/","pfas_testing_link":"https://drive.google.com/file/d/1JhhV5mZ6zw_VMwGJ3SWPF1_cUHAeanAg/view?usp=sharing","site_ref_link":null,"state_ref_link":"https://drive.google.com/drive/u/0/folders/1lGp9mNF1VW52zcJOUD9x-wZO9oAb_opR","ObjectId":1119}},{"type":"Feature","id":1249,"geometry":{"type":"Point","coordinates":[-72.52113,44.21044]},"properties":{"site_name":"Barre City Wastewater Treatment Facility","other_site_names":null,"state":"Vermont","industry":"WWTP","matrix_type":"Other Water","matrix":"Wastewater","year":2021,"pfoa":"3","pfos":"1","total_pfas":37,"pfas_level":37,"notes":null,"regulation_gvt_link":null,"resources_link":null,"suspected_source_link":"PFAS in Surface Waters | Department of Environmental Conservation (vermont.gov)","pfas_testing_link":"2021-PFAS-Surface-Water-Fish-Tissue-and-WWTF-Effluent-Monitoring-Report.pdf (vermont.gov)","site_ref_link":null,"state_ref_link":null,"ObjectId":1249}},{"type":"Feature","id":1272,"geometry":{"type":"Point","coordinates":[-72.19927,44.93999]},"properties":{"site_name":"Newport City Wastewater Treatment Facility","other_site_names":null,"state":"Vermont","industry":"WWTP","matrix_type":"Other Water","matrix":"Wastewater","year":2021,"pfoa":"13","pfos":"7","total_pfas":138,"pfas_level":138,"notes":"Previously received landfill leachate","regulation_gvt_link":null,"resources_link":null,"suspected_source_link":"PFAS in Surface Waters | Department of Environmental Conservation (vermont.gov)","pfas_testing_link":"2021-PFAS-Surface-Water-Fish-Tissue-and-WWTF-Effluent-Monitoring-Report.pdf (vermont.gov)","site_ref_link":null,"state_ref_link":null,"ObjectId":1272}},{"type":"Feature","id":1292,"geometry":{"type":"Point","coordinates":[-72.600744,44.25474]},"properties":{"site_name":"Montpelier Wastewater Treatment Facility","other_site_names":null,"state":"Vermont","industry":"WWTP","matrix_type":"Other Water","matrix":"Wastewater","year":2021,"pfoa":"33","pfos":"5","total_pfas":378,"pfas_level":378,"notes":"Has received landfill leaechate","regulation_gvt_link":null,"resources_link":null,"suspected_source_link":"PFAS in Surface Waters | Department of Environmental Conservation (vermont.gov)","pfas_testing_link":"2021-PFAS-Surface-Water-Fish-Tissue-and-WWTF-Effluent-Monitoring-Report.pdf (vermont.gov)","site_ref_link":null,"state_ref_link":null,"ObjectId":1292}},{"type":"Feature","id":1309,"geometry":{"type":"Point","coordinates":[-73.151604,44.470694]},"properties":{"site_name":"Burlington Air National Guard Base","other_site_names":"Burlington International Airport, Chittenden County National Guard Base","state":"Vermont","industry":"Military","matrix_type":"Groundwater","matrix":"Groundwater","year":2019,"pfoa":"2,100","pfos":"34,000","total_pfas":46332,"pfas_level":46332,"notes":"AFFF used at Burlington ANGB/International Airport","regulation_gvt_link":"N/A","resources_link":"https://dec.vermont.gov/pfas","suspected_source_link":null,"pfas_testing_link":"https://drive.google.com/file/d/1OM0nIJCOhlPT97PkvM4aBXkVlunsR2Xi/view?usp=sharing","site_ref_link":"https://drive.google.com/drive/u/0/folders/1hz1Jv-yK1BDkP6n2odZtH_YDts61FDO8","state_ref_link":"https://drive.google.com/drive/u/0/folders/1lGp9mNF1VW52zcJOUD9x-wZO9oAb_opR","ObjectId":1309}},{"type":"Feature","id":1396,"geometry":{"type":"Point","coordinates":[-72.540355,42.89427]},"properties":{"site_name":"WSWMD Landfill Landfill","other_site_names":null,"state":"Vermont","industry":"Landfill","matrix_type":"Groundwater","matrix":"Groundwater","year":2020,"pfoa":null,"pfos":null,"total_pfas":33,"pfas_level":33,"notes":null,"regulation_gvt_link":null,"resources_link":null,"suspected_source_link":"https://www.datawrapper.de/_/pmQX8/","pfas_testing_link":"https://drive.google.com/file/d/1JhhV5mZ6zw_VMwGJ3SWPF1_cUHAeanAg/view?usp=sharing","site_ref_link":null,"state_ref_link":"https://drive.google.com/drive/u/0/folders/1lGp9mNF1VW52zcJOUD9x-wZO9oAb_opR","ObjectId":1396}},{"type":"Feature","id":1397,"geometry":{"type":"Point","coordinates":[-72.82005,42.930348]},"properties":{"site_name":"Dover Landfill","other_site_names":null,"state":"Vermont","industry":"Landfill","matrix_type":"Groundwater","matrix":"Groundwater","year":2020,"pfoa":null,"pfos":null,"total_pfas":34,"pfas_level":34,"notes":null,"regulation_gvt_link":null,"resources_link":null,"suspected_source_link":"https://www.datawrapper.de/_/pmQX8/","pfas_testing_link":"https://drive.google.com/file/d/1JhhV5mZ6zw_VMwGJ3SWPF1_cUHAeanAg/view?usp=sharing","site_ref_link":null,"state_ref_link":"https://drive.google.com/drive/u/0/folders/1lGp9mNF1VW52zcJOUD9x-wZO9oAb_opR","ObjectId":1397}},{"type":"Feature","id":1398,"geometry":{"type":"Point","coordinates":[-73.198777,42.964863]},"properties":{"site_name":"Shaftsbury Landfill","other_site_names":null,"state":"Vermont","industry":"Landfill","matrix_type":"Groundwater","matrix":"Groundwater","year":2020,"pfoa":null,"pfos":null,"total_pfas":34,"pfas_level":34,"notes":null,"regulation_gvt_link":null,"resources_link":null,"suspected_source_link":"https://www.datawrapper.de/_/pmQX8/","pfas_testing_link":"https://drive.google.com/file/d/1JhhV5mZ6zw_VMwGJ3SWPF1_cUHAeanAg/view?usp=sharing","site_ref_link":null,"state_ref_link":"https://drive.google.com/drive/u/0/folders/1lGp9mNF1VW52zcJOUD9x-wZO9oAb_opR","ObjectId":1398}},{"type":"Feature","id":1437,"geometry":{"type":"Point","coordinates":[-72.763324,44.390051]},"properties":{"site_name":"Halifax Landfill","other_site_names":null,"state":"Vermont","industry":"Landfill","matrix_type":"Groundwater","matrix":"Groundwater","year":2020,"pfoa":null,"pfos":null,"total_pfas":94,"pfas_level":94,"notes":null,"regulation_gvt_link":null,"resources_link":null,"suspected_source_link":"https://www.datawrapper.de/_/pmQX8/","pfas_testing_link":"https://drive.google.com/file/d/1JhhV5mZ6zw_VMwGJ3SWPF1_cUHAeanAg/view?usp=sharing","site_ref_link":null,"state_ref_link":"https://drive.google.com/drive/u/0/folders/1lGp9mNF1VW52zcJOUD9x-wZO9oAb_opR","ObjectId":1437}},{"type":"Feature","id":1450,"geometry":{"type":"Point","coordinates":[-72.57644,43.829046]},"properties":{"site_name":"Bethel/Royalton Landfill","other_site_names":null,"state":"Vermont","industry":"Landfill","matrix_type":"Groundwater","matrix":"Groundwater","year":2020,"pfoa":null,"pfos":null,"total_pfas":131,"pfas_level":131,"notes":null,"regulation_gvt_link":null,"resources_link":null,"suspected_source_link":"https://www.datawrapper.de/_/pmQX8/","pfas_testing_link":"https://drive.google.com/file/d/1JhhV5mZ6zw_VMwGJ3SWPF1_cUHAeanAg/view?usp=sharing","site_ref_link":null,"state_ref_link":"https://drive.google.com/drive/u/0/folders/1lGp9mNF1VW52zcJOUD9x-wZO9oAb_opR","ObjectId":1450}},{"type":"Feature","id":1490,"geometry":{"type":"Point","coordinates":[-73.052339,44.208497]},"properties":{"site_name":"Starksboro Landfill","other_site_names":null,"state":"Vermont","industry":"Landfill","matrix_type":"Groundwater","matrix":"Groundwater","year":2020,"pfoa":null,"pfos":null,"total_pfas":296,"pfas_level":296,"notes":null,"regulation_gvt_link":null,"resources_link":null,"suspected_source_link":"https://www.datawrapper.de/_/pmQX8/","pfas_testing_link":"https://drive.google.com/file/d/1JhhV5mZ6zw_VMwGJ3SWPF1_cUHAeanAg/view?usp=sharing","site_ref_link":null,"state_ref_link":"https://drive.google.com/drive/u/0/folders/1lGp9mNF1VW52zcJOUD9x-wZO9oAb_opR","ObjectId":1490}},{"type":"Feature","id":1493,"geometry":{"type":"Point","coordinates":[-73.185466,44.345405]},"properties":{"site_name":"Charlotte Landfill","other_site_names":null,"state":"Vermont","industry":"Landfill","matrix_type":"Groundwater","matrix":"Groundwater","year":2020,"pfoa":null,"pfos":null,"total_pfas":303,"pfas_level":303,"notes":null,"regulation_gvt_link":null,"resources_link":null,"suspected_source_link":"https://www.datawrapper.de/_/pmQX8/","pfas_testing_link":"https://drive.google.com/file/d/1JhhV5mZ6zw_VMwGJ3SWPF1_cUHAeanAg/view?usp=sharing","site_ref_link":null,"state_ref_link":"https://drive.google.com/drive/u/0/folders/1lGp9mNF1VW52zcJOUD9x-wZO9oAb_opR","ObjectId":1493}},{"type":"Feature","id":1517,"geometry":{"type":"Point","coordinates":[-72.506701,44.240443]},"properties":{"site_name":"CV Landfill Landfill","other_site_names":null,"state":"Vermont","industry":"Landfill","matrix_type":"Groundwater","matrix":"Groundwater","year":2020,"pfoa":null,"pfos":null,"total_pfas":623,"pfas_level":623,"notes":null,"regulation_gvt_link":null,"resources_link":null,"suspected_source_link":"https://www.datawrapper.de/_/pmQX8/","pfas_testing_link":"https://drive.google.com/file/d/1JhhV5mZ6zw_VMwGJ3SWPF1_cUHAeanAg/view?usp=sharing","site_ref_link":null,"state_ref_link":"https://drive.google.com/drive/u/0/folders/1lGp9mNF1VW52zcJOUD9x-wZO9oAb_opR","ObjectId":1517}},{"type":"Feature","id":1568,"geometry":{"type":"Point","coordinates":[-73.289346,44.63361]},"properties":{"site_name":"South Hero Landfill","other_site_names":null,"state":"Vermont","industry":"Landfill","matrix_type":"Groundwater","matrix":"Groundwater","year":2020,"pfoa":null,"pfos":null,"total_pfas":3573,"pfas_level":3573,"notes":null,"regulation_gvt_link":null,"resources_link":null,"suspected_source_link":"https://www.datawrapper.de/_/pmQX8/","pfas_testing_link":"https://drive.google.com/file/d/1JhhV5mZ6zw_VMwGJ3SWPF1_cUHAeanAg/view?usp=sharing","site_ref_link":null,"state_ref_link":"https://drive.google.com/drive/u/0/folders/1lGp9mNF1VW52zcJOUD9x-wZO9oAb_opR","ObjectId":1568}},{"type":"Feature","id":1720,"geometry":{"type":"Point","coordinates":[-73.219899,44.472019]},"properties":{"site_name":"Burlington-Main Wastewater Treatment Plant","other_site_names":null,"state":"Vermont","industry":"WWTP","matrix_type":"Other Water","matrix":"Leachate","year":null,"pfoa":"4","pfos":"3","total_pfas":null,"pfas_level":4,"notes":"Received leachate from landfills","regulation_gvt_link":null,"resources_link":null,"suspected_source_link":"https://dec.vermont.gov/sites/dec/files/documents/PFAS%20Sampling%20Report%207.10.18%20FINAL.pdf","pfas_testing_link":null,"site_ref_link":null,"state_ref_link":null,"ObjectId":1720}},{"type":"Feature","id":1741,"geometry":{"type":"Point","coordinates":[-73.245411,42.791744]},"properties":{"site_name":"Former Dodge Farm Dump Site","other_site_names":null,"state":"Vermont","industry":"Landfill","matrix_type":"Groundwater","matrix":"Groundwater","year":null,"pfoa":"8","pfos":null,"total_pfas":null,"pfas_level":8,"notes":"The current owners indicate that they have found several dumping areas around the farm that contain “melted” wire bundles and other debris from the former wire manufacturing facility. PFAS are likely present in this debris and may be leaching into soils and groundwater","regulation_gvt_link":null,"resources_link":null,"suspected_source_link":"https://anrweb.vt.gov/PubDocs/DEC/Hazsites/870129.PFAS.Summary.pdf","pfas_testing_link":"https://anrweb.vt.gov/PubDocs/DEC/Hazsites/870129.PFAS.Summary.pdf","site_ref_link":null,"state_ref_link":null,"ObjectId":1741}},{"type":"Feature","id":1762,"geometry":{"type":"Point","coordinates":[-73.190918,42.880791]},"properties":{"site_name":"Eveready Bennington","other_site_names":null,"state":"Vermont","industry":"Industry","matrix_type":"Groundwater","matrix":"Groundwater","year":null,"pfoa":"20","pfos":null,"total_pfas":null,"pfas_level":20,"notes":"Battery manufacturing","regulation_gvt_link":null,"resources_link":null,"suspected_source_link":"https://dec.vermont.gov/sites/dec/files/documents/PFAS%20Sampling%20Report%207.10.18%20FINAL.pdf","pfas_testing_link":null,"site_ref_link":null,"state_ref_link":null,"ObjectId":1762}},{"type":"Feature","id":1774,"geometry":{"type":"Point","coordinates":[-73.170653,44.481887]},"properties":{"site_name":"South Burlington Wastewater Treatment Plant","other_site_names":null,"state":"Vermont","industry":"WWTP","matrix_type":"Other Water","matrix":"Leachate","year":null,"pfoa":"5","pfos":"23","total_pfas":null,"pfas_level":23,"notes":"Received leachate from landfills, located on Aiport Pkwy","regulation_gvt_link":null,"resources_link":null,"suspected_source_link":"https://dec.vermont.gov/sites/dec/files/documents/PFAS%20Sampling%20Report%207.10.18%20FINAL.pdf","pfas_testing_link":null,"site_ref_link":null,"state_ref_link":null,"ObjectId":1774}},{"type":"Feature","id":2029,"geometry":{"type":"Point","coordinates":[-72.955229,43.523865]},"properties":{"site_name":"Rutland-Southern Vermont Regional Airport business park","other_site_names":null,"state":"Vermont","industry":"Airport","matrix_type":"Groundwater","matrix":"Groundwater","year":null,"pfoa":"19","pfos":"8","total_pfas":null,"pfas_level":87,"notes":"AFFF used during training at the airport and a 1986 plane crash site there","regulation_gvt_link":"https://dec.vermont.gov/press-release/state-agencies-work-remove-pfas-contamination-rutland-business-park-water-system","resources_link":"https://dec.vermont.gov/pfas","suspected_source_link":"https://www.rutlandherald.com/articles/hazardous-chemicals-found-in-airport-business-park-well/","pfas_testing_link":"N/A","site_ref_link":"https://drive.google.com/drive/u/0/folders/1A9YVxBZGusEMLpl39kb80VsK0ICi-NDf","state_ref_link":"https://drive.google.com/drive/u/0/folders/1lGp9mNF1VW52zcJOUD9x-wZO9oAb_opR","ObjectId":2029}},{"type":"Feature","id":2101,"geometry":{"type":"Point","coordinates":[-73.258015,42.915359]},"properties":{"site_name":"Bennington Wastewater Treatment Facility","other_site_names":null,"state":"Vermont","industry":"WWTP","matrix_type":"Solid","matrix":"Sludge","year":null,"pfoa":"7,000","pfos":"8,000","total_pfas":null,"pfas_level":8000,"notes":null,"regulation_gvt_link":null,"resources_link":null,"suspected_source_link":"https://dec.vermont.gov/sites/dec/files/documents/PFAS%20Sampling%20Report%207.10.18%20FINAL.pdf","pfas_testing_link":null,"site_ref_link":null,"state_ref_link":null,"ObjectId":2101}},{"type":"Feature","id":2107,"geometry":{"type":"Point","coordinates":[-72.657253,43.926121]},"properties":{"site_name":"Randolph Wastewater Treatment Plant","other_site_names":null,"state":"Vermont","industry":"WWTP","matrix_type":"Solid","matrix":"Sludge","year":null,"pfoa":"13,000","pfos":null,"total_pfas":null,"pfas_level":13000,"notes":"Received leachate from landfills","regulation_gvt_link":null,"resources_link":null,"suspected_source_link":"https://dec.vermont.gov/sites/dec/files/documents/PFAS%20Sampling%20Report%207.10.18%20FINAL.pdf","pfas_testing_link":null,"site_ref_link":null,"state_ref_link":null,"ObjectId":2107}},{"type":"Feature","id":2424,"geometry":{"type":"Point","coordinates":[-73.2463,42.91444]},"properties":{"site_name":"Former ChemFab Teflon Plant","other_site_names":null,"state":"Vermont","industry":"Industry","matrix_type":"Groundwater","matrix":"Groundwater","year":2017,"pfoa":"2730","pfos":"131","total_pfas":null,"pfas_level":2861,"notes":"Former Chemfab teflon fabric coating plants, later purchased by Saint-Gobain  ","regulation_gvt_link":"https://dec.vermont.gov/pfas/pfoa/communities","resources_link":"https://dec.vermont.gov/pfas","suspected_source_link":"https://vtdigger.org/investigations/teflon-town-part-1/","pfas_testing_link":"https://dec.vermont.gov/geological-survey/groundwater/town-gw/bennington","site_ref_link":"https://drive.google.com/drive/u/0/folders/11cbVmBaqGGaLIY7WiFdLU8yDU0dzYw_P","state_ref_link":"https://drive.google.com/drive/u/0/folders/1lGp9mNF1VW52zcJOUD9x-wZO9oAb_opR","ObjectId":2424}},{"type":"Feature","id":2425,"geometry":{"type":"Point","coordinates":[-72.955229,43.523865]},"properties":{"site_name":"Rutland-Southern Vermont Regional Airport business park","other_site_names":null,"state":"Vermont","industry":"Airport","matrix_type":"Groundwater","matrix":"Groundwater","year":null,"pfoa":"19","pfos":"8","total_pfas":null,"pfas_level":87,"notes":"AFFF used during training at the airport and a 1986 plane crash site there","regulation_gvt_link":"https://dec.vermont.gov/press-release/state-agencies-work-remove-pfas-contamination-rutland-business-park-water-system","resources_link":"https://dec.vermont.gov/pfas","suspected_source_link":"https://www.rutlandherald.com/articles/hazardous-chemicals-found-in-airport-business-park-well/","pfas_testing_link":"N/A","site_ref_link":"https://drive.google.com/drive/u/0/folders/1A9YVxBZGusEMLpl39kb80VsK0ICi-NDf","state_ref_link":"https://drive.google.com/drive/u/0/folders/1lGp9mNF1VW52zcJOUD9x-wZO9oAb_opR","ObjectId":2425}},{"type":"Feature","id":2426,"geometry":{"type":"Point","coordinates":[-73.151604,44.470694]},"properties":{"site_name":"Burlington Air National Guard Base","other_site_names":"Burlington International Airport, Chittenden County National Guard Base","state":"Vermont","industry":"Military","matrix_type":"Groundwater","matrix":"Groundwater","year":2019,"pfoa":"2100","pfos":"34000","total_pfas":46332,"pfas_level":46332,"notes":"AFFF used at Burlington ANGB/International Airport","regulation_gvt_link":"N/A","resources_link":"https://dec.vermont.gov/pfas","suspected_source_link":null,"pfas_testing_link":"https://drive.google.com/file/d/1OM0nIJCOhlPT97PkvM4aBXkVlunsR2Xi/view?usp=sharing","site_ref_link":"https://drive.google.com/drive/u/0/folders/1hz1Jv-yK1BDkP6n2odZtH_YDts61FDO8","state_ref_link":"https://drive.google.com/drive/u/0/folders/1lGp9mNF1VW52zcJOUD9x-wZO9oAb_opR","ObjectId":2426}},{"type":"Feature","id":2611,"geometry":{"type":"Point","coordinates":[-72.653324,43.903073]},"properties":{"site_name":"Randolph Landfill","other_site_names":null,"state":"Vermont","industry":"Landfill","matrix_type":"Other Water","matrix":"Leachate","year":2018,"pfoa":"2110","pfos":"278","total_pfas":null,"pfas_level":2388,"notes":null,"regulation_gvt_link":null,"resources_link":"https://dec.vermont.gov/pfas","suspected_source_link":"https://dec.vermont.gov/sites/dec/files/documents/PFAS%20Sampling%20Report%207.10.18%20FINAL.pdf","pfas_testing_link":"https://dec.vermont.gov/sites/dec/files/documents/PFAS%20Sampling%20Report%207.10.18%20FINAL.pdf","site_ref_link":null,"state_ref_link":"https://drive.google.com/drive/u/0/folders/1lGp9mNF1VW52zcJOUD9x-wZO9oAb_opR","ObjectId":2611}},{"type":"Feature","id":2902,"geometry":{"type":"Point","coordinates":[-73.1956,42.92066]},"properties":{"site_name":"Bennington Municipal Sanitary Landfill","other_site_names":null,"state":"Vermont","industry":"Landfill","matrix_type":"Groundwater","matrix":"Groundwater","year":2017,"pfoa":"5800","pfos":"28","total_pfas":null,"pfas_level":5800,"notes":"Identified by the Environmental Protection Agency (EPA) as having PFAS contamination. Provided to the Senate Committee on Environment and Public Works.","regulation_gvt_link":null,"resources_link":"https://cumulis.epa.gov/supercpad/cursites/csitinfo.cfm?id=0101493","suspected_source_link":"https://www.epw.senate.gov/public/index.cfm/superfund-sites-identified-by-epa-to-have-pfas-contamination","pfas_testing_link":"https://semspub.epa.gov/work/01/639139.pdf","site_ref_link":null,"state_ref_link":null,"ObjectId":2902}},{"type":"Feature","id":2903,"geometry":{"type":"Point","coordinates":[-72.44041,43.2264]},"properties":{"site_name":"BFI Sanitary Landfill (Rockingham)","other_site_names":null,"state":"Vermont","industry":"Landfill","matrix_type":"Groundwater","matrix":"Groundwater","year":2023,"pfoa":"150","pfos":"43","total_pfas":null,"pfas_level":154,"notes":"Identified by the Environmental Protection Agency (EPA) as having PFAS contamination. Provided to the Senate Committee on Environment and Public Works.","regulation_gvt_link":null,"resources_link":"https://cumulis.epa.gov/supercpad/cursites/csitinfo.cfm?id=0101475","suspected_source_link":"https://www.epw.senate.gov/public/index.cfm/superfund-sites-identified-by-epa-to-have-pfas-contamination","pfas_testing_link":"https://semspub.epa.gov/work/01/100031869.pdf","site_ref_link":"https://drive.google.com/drive/folders/10A5hgfHNCORbwBL6lBBWz27pSmY4rkYc?usp=drive_link","state_ref_link":"https://drive.google.com/drive/folders/18E9JwkJ_4ZasRBJduV1elykOb739mgF5?usp=drive_link","ObjectId":2903}},{"type":"Feature","id":2904,"geometry":{"type":"Point","coordinates":[-72.46733,43.27479]},"properties":{"site_name":"Old Springfield Landfill","other_site_names":null,"state":"Vermont","industry":"Landfill","matrix_type":"Groundwater","matrix":"Groundwater","year":2019,"pfoa":null,"pfos":"6","total_pfas":null,"pfas_level":6,"notes":"Identified by the Environmental Protection Agency (EPA) as having PFAS contamination. Provided to the Senate Committee on Environment and Public Works.","regulation_gvt_link":null,"resources_link":"https://cumulis.epa.gov/supercpad/SiteProfiles/index.cfm?fuseaction=second.cleanup&id=0101437","suspected_source_link":"https://www.epw.senate.gov/public/index.cfm/superfund-sites-identified-by-epa-to-have-pfas-contamination","pfas_testing_link":"https://semspub.epa.gov/work/01/100026135.pdf","site_ref_link":null,"state_ref_link":null,"ObjectId":2904}},{"type":"Feature","id":2905,"geometry":{"type":"Point","coordinates":[-73.26567,42.79718]},"properties":{"site_name":"Pownal Tannery","other_site_names":null,"state":"Vermont","industry":"Industry","matrix_type":"Groundwater","matrix":"Groundwater","year":2016,"pfoa":"200","pfos":"47","total_pfas":null,"pfas_level":200,"notes":"Identified by the Environmental Protection Agency (EPA) as having PFAS contamination. Provided to the Senate Committee on Environment and Public Works.","regulation_gvt_link":null,"resources_link":"https://cumulis.epa.gov/supercpad/cursites/csitinfo.cfm?id=0101463","suspected_source_link":"https://www.epw.senate.gov/public/index.cfm/superfund-sites-identified-by-epa-to-have-pfas-contamination","pfas_testing_link":"https://anrweb.vt.gov/PubDocs/DEC/Hazsites/870129.PFAS.Summary.pdf","site_ref_link":null,"state_ref_link":null,"ObjectId":2905}},{"type":"Feature","id":2994,"geometry":{"type":"Point","coordinates":[-72.63596,43.755714]},"properties":{"site_name":"Barnard Landfill","other_site_names":null,"state":"Vermont","industry":"Landfill","matrix_type":"Groundwater","matrix":"Groundwater","year":2018,"pfoa":null,"pfos":null,"total_pfas":55,"pfas_level":55,"notes":null,"regulation_gvt_link":null,"resources_link":null,"suspected_source_link":"https://www.datawrapper.de/_/pmQX8/","pfas_testing_link":"https://drive.google.com/file/d/1JhhV5mZ6zw_VMwGJ3SWPF1_cUHAeanAg/view?usp=sharing","site_ref_link":null,"state_ref_link":"https://drive.google.com/drive/u/0/folders/1lGp9mNF1VW52zcJOUD9x-wZO9oAb_opR","ObjectId":2994}},{"type":"Feature","id":2995,"geometry":{"type":"Point","coordinates":[-73.258015,42.915359]},"properties":{"site_name":"Bennington Wastewater Treatment Facility","other_site_names":null,"state":"Vermont","industry":"WWTP","matrix_type":"Solid","matrix":"Sludge","year":null,"pfoa":"7000","pfos":"8000","total_pfas":null,"pfas_level":8000,"notes":null,"regulation_gvt_link":null,"resources_link":null,"suspected_source_link":"https://dec.vermont.gov/sites/dec/files/documents/PFAS%20Sampling%20Report%207.10.18%20FINAL.pdf","pfas_testing_link":null,"site_ref_link":null,"state_ref_link":null,"ObjectId":2995}},{"type":"Feature","id":2996,"geometry":{"type":"Point","coordinates":[-72.57644,43.829046]},"properties":{"site_name":"Bethel/Royalton Landfill","other_site_names":null,"state":"Vermont","industry":"Landfill","matrix_type":"Groundwater","matrix":"Groundwater","year":2020,"pfoa":null,"pfos":null,"total_pfas":131,"pfas_level":131,"notes":null,"regulation_gvt_link":null,"resources_link":null,"suspected_source_link":"https://www.datawrapper.de/_/pmQX8/","pfas_testing_link":"https://drive.google.com/file/d/1JhhV5mZ6zw_VMwGJ3SWPF1_cUHAeanAg/view?usp=sharing","site_ref_link":null,"state_ref_link":"https://drive.google.com/drive/u/0/folders/1lGp9mNF1VW52zcJOUD9x-wZO9oAb_opR","ObjectId":2996}},{"type":"Feature","id":2997,"geometry":{"type":"Point","coordinates":[-72.652892,43.585915]},"properties":{"site_name":"Bridgewater Landfill","other_site_names":null,"state":"Vermont","industry":"Landfill","matrix_type":"Groundwater","matrix":"Groundwater","year":2019,"pfoa":null,"pfos":null,"total_pfas":138,"pfas_level":138,"notes":null,"regulation_gvt_link":null,"resources_link":null,"suspected_source_link":"https://www.datawrapper.de/_/pmQX8/","pfas_testing_link":"https://drive.google.com/file/d/1JhhV5mZ6zw_VMwGJ3SWPF1_cUHAeanAg/view?usp=sharing","site_ref_link":null,"state_ref_link":"https://drive.google.com/drive/u/0/folders/1lGp9mNF1VW52zcJOUD9x-wZO9oAb_opR","ObjectId":2997}},{"type":"Feature","id":2998,"geometry":{"type":"Point","coordinates":[-73.098557,44.132545]},"properties":{"site_name":"Bristol Waste Management, Inc. Landfill","other_site_names":null,"state":"Vermont","industry":"Landfill","matrix_type":"Groundwater","matrix":"Groundwater","year":2018,"pfoa":null,"pfos":null,"total_pfas":85,"pfas_level":85,"notes":null,"regulation_gvt_link":null,"resources_link":null,"suspected_source_link":"https://www.datawrapper.de/_/pmQX8/","pfas_testing_link":"https://drive.google.com/file/d/1JhhV5mZ6zw_VMwGJ3SWPF1_cUHAeanAg/view?usp=sharing","site_ref_link":null,"state_ref_link":"https://drive.google.com/drive/u/0/folders/1lGp9mNF1VW52zcJOUD9x-wZO9oAb_opR","ObjectId":2998}},{"type":"Feature","id":2999,"geometry":{"type":"Point","coordinates":[-73.195891,42.919424]},"properties":{"site_name":"Burgess Bro Landfill","other_site_names":null,"state":"Vermont","industry":"Landfill","matrix_type":"Groundwater","matrix":"Groundwater","year":2016,"pfoa":null,"pfos":null,"total_pfas":1420,"pfas_level":1420,"notes":null,"regulation_gvt_link":null,"resources_link":null,"suspected_source_link":"https://www.datawrapper.de/_/pmQX8/","pfas_testing_link":"https://drive.google.com/file/d/1JhhV5mZ6zw_VMwGJ3SWPF1_cUHAeanAg/view?usp=sharing","site_ref_link":null,"state_ref_link":"https://drive.google.com/drive/u/0/folders/1lGp9mNF1VW52zcJOUD9x-wZO9oAb_opR","ObjectId":2999}},{"type":"Feature","id":3000,"geometry":{"type":"Point","coordinates":[-73.219899,44.472019]},"properties":{"site_name":"Burlington-Main Wastewater Treatment Plant","other_site_names":null,"state":"Vermont","industry":"WWTP","matrix_type":"Other Water","matrix":"Leachate","year":null,"pfoa":"4","pfos":"3","total_pfas":null,"pfas_level":4,"notes":"Received leachate from landfills","regulation_gvt_link":null,"resources_link":null,"suspected_source_link":"https://dec.vermont.gov/sites/dec/files/documents/PFAS%20Sampling%20Report%207.10.18%20FINAL.pdf","pfas_testing_link":null,"site_ref_link":null,"state_ref_link":null,"ObjectId":3000}},{"type":"Feature","id":3001,"geometry":{"type":"Point","coordinates":[-72.905887,44.643583]},"properties":{"site_name":"Cambridge Landfill","other_site_names":null,"state":"Vermont","industry":"Landfill","matrix_type":"Groundwater","matrix":"Groundwater","year":2018,"pfoa":null,"pfos":null,"total_pfas":28,"pfas_level":28,"notes":null,"regulation_gvt_link":null,"resources_link":null,"suspected_source_link":"https://www.datawrapper.de/_/pmQX8/","pfas_testing_link":"https://drive.google.com/file/d/1JhhV5mZ6zw_VMwGJ3SWPF1_cUHAeanAg/view?usp=sharing","site_ref_link":null,"state_ref_link":"https://drive.google.com/drive/u/0/folders/1lGp9mNF1VW52zcJOUD9x-wZO9oAb_opR","ObjectId":3001}},{"type":"Feature","id":3002,"geometry":{"type":"Point","coordinates":[-73.174498,44.512189]},"properties":{"site_name":"Champlain Cable","other_site_names":"Hercules Inc.","state":"Vermont","industry":"Industry","matrix_type":"Groundwater","matrix":"Groundwater","year":2016,"pfoa":"7200","pfos":null,"total_pfas":null,"pfas_level":7200,"notes":"Wirecoating operations","regulation_gvt_link":null,"resources_link":null,"suspected_source_link":"https://dec.vermont.gov/sites/dec/files/documents/PFAS%20Sampling%20Report%207.10.18%20FINAL.pdf","pfas_testing_link":"https://vtdigger.org/2016/07/14/pfoa-found-in-groundwater-at-globalfoundries-champlain-cable-plants/","site_ref_link":null,"state_ref_link":null,"ObjectId":3002}},{"type":"Feature","id":3003,"geometry":{"type":"Point","coordinates":[-73.185466,44.345405]},"properties":{"site_name":"Charlotte Landfill","other_site_names":null,"state":"Vermont","industry":"Landfill","matrix_type":"Groundwater","matrix":"Groundwater","year":2020,"pfoa":null,"pfos":null,"total_pfas":303,"pfas_level":303,"notes":null,"regulation_gvt_link":null,"resources_link":null,"suspected_source_link":"https://www.datawrapper.de/_/pmQX8/","pfas_testing_link":"https://drive.google.com/file/d/1JhhV5mZ6zw_VMwGJ3SWPF1_cUHAeanAg/view?usp=sharing","site_ref_link":null,"state_ref_link":"https://drive.google.com/drive/u/0/folders/1lGp9mNF1VW52zcJOUD9x-wZO9oAb_opR","ObjectId":3003}},{"type":"Feature","id":3004,"geometry":{"type":"Point","coordinates":[-73.082493,44.474532]},"properties":{"site_name":"CSWD Williston Lined Landfill","other_site_names":null,"state":"Vermont","industry":"Landfill","matrix_type":"Groundwater","matrix":"Groundwater","year":2016,"pfoa":null,"pfos":null,"total_pfas":33,"pfas_level":33,"notes":null,"regulation_gvt_link":null,"resources_link":null,"suspected_source_link":"https://www.datawrapper.de/_/pmQX8/","pfas_testing_link":"https://drive.google.com/file/d/1JhhV5mZ6zw_VMwGJ3SWPF1_cUHAeanAg/view?usp=sharing","site_ref_link":null,"state_ref_link":"https://drive.google.com/drive/u/0/folders/1lGp9mNF1VW52zcJOUD9x-wZO9oAb_opR","ObjectId":3004}},{"type":"Feature","id":3005,"geometry":{"type":"Point","coordinates":[-72.506701,44.240443]},"properties":{"site_name":"CV Landfill Landfill","other_site_names":null,"state":"Vermont","industry":"Landfill","matrix_type":"Groundwater","matrix":"Groundwater","year":2020,"pfoa":null,"pfos":null,"total_pfas":623,"pfas_level":623,"notes":null,"regulation_gvt_link":null,"resources_link":null,"suspected_source_link":"https://www.datawrapper.de/_/pmQX8/","pfas_testing_link":"https://drive.google.com/file/d/1JhhV5mZ6zw_VMwGJ3SWPF1_cUHAeanAg/view?usp=sharing","site_ref_link":null,"state_ref_link":"https://drive.google.com/drive/u/0/folders/1lGp9mNF1VW52zcJOUD9x-wZO9oAb_opR","ObjectId":3005}},{"type":"Feature","id":3006,"geometry":{"type":"Point","coordinates":[-72.82005,42.930348]},"properties":{"site_name":"Dover Landfill","other_site_names":null,"state":"Vermont","industry":"Landfill","matrix_type":"Groundwater","matrix":"Groundwater","year":2020,"pfoa":null,"pfos":null,"total_pfas":34,"pfas_level":34,"notes":null,"regulation_gvt_link":null,"resources_link":null,"suspected_source_link":"https://www.datawrapper.de/_/pmQX8/","pfas_testing_link":"https://drive.google.com/file/d/1JhhV5mZ6zw_VMwGJ3SWPF1_cUHAeanAg/view?usp=sharing","site_ref_link":null,"state_ref_link":"https://drive.google.com/drive/u/0/folders/1lGp9mNF1VW52zcJOUD9x-wZO9oAb_opR","ObjectId":3006}},{"type":"Feature","id":3007,"geometry":{"type":"Point","coordinates":[-73.190918,42.880791]},"properties":{"site_name":"Eveready Bennington","other_site_names":null,"state":"Vermont","industry":"Industry","matrix_type":"Groundwater","matrix":"Groundwater","year":null,"pfoa":"20","pfos":null,"total_pfas":null,"pfas_level":20,"notes":"Battery manufacturing","regulation_gvt_link":null,"resources_link":null,"suspected_source_link":"https://dec.vermont.gov/sites/dec/files/documents/PFAS%20Sampling%20Report%207.10.18%20FINAL.pdf","pfas_testing_link":null,"site_ref_link":null,"state_ref_link":null,"ObjectId":3007}},{"type":"Feature","id":3008,"geometry":{"type":"Point","coordinates":[-73.076128,44.834304]},"properties":{"site_name":"Eveready St. Albans","other_site_names":null,"state":"Vermont","industry":"Industry","matrix_type":"Unknown","matrix":null,"year":2016,"pfoa":null,"pfos":"20","total_pfas":null,"pfas_level":20,"notes":"Battery manufacturing","regulation_gvt_link":null,"resources_link":null,"suspected_source_link":"https://dec.vermont.gov/sites/dec/files/documents/PFAS%20Sampling%20Report%207.10.18%20FINAL.pdf","pfas_testing_link":null,"site_ref_link":null,"state_ref_link":null,"ObjectId":3008}},{"type":"Feature","id":3009,"geometry":{"type":"Point","coordinates":[-73.245411,42.791744]},"properties":{"site_name":"Former Dodge Farm Dump Site","other_site_names":null,"state":"Vermont","industry":"Landfill","matrix_type":"Groundwater","matrix":"Groundwater","year":null,"pfoa":"8","pfos":null,"total_pfas":null,"pfas_level":8,"notes":"The current owners indicate that they have found several dumping areas around the farm that contain “melted” wire bundles and other debris from the former wire manufacturing facility. PFAS are likely present in this debris and may be leaching into soils and groundwater","regulation_gvt_link":null,"resources_link":null,"suspected_source_link":"https://anrweb.vt.gov/PubDocs/DEC/Hazsites/870129.PFAS.Summary.pdf","pfas_testing_link":"https://anrweb.vt.gov/PubDocs/DEC/Hazsites/870129.PFAS.Summary.pdf","site_ref_link":null,"state_ref_link":null,"ObjectId":3009}},{"type":"Feature","id":3010,"geometry":{"type":"Point","coordinates":[-73.241943,42.774681]},"properties":{"site_name":"Former General Cable Facility","other_site_names":null,"state":"Vermont","industry":"Industry","matrix_type":"Groundwater","matrix":"Groundwater","year":2016,"pfoa":"400","pfos":null,"total_pfas":null,"pfas_level":400,"notes":"Wirecoating operations","regulation_gvt_link":null,"resources_link":null,"suspected_source_link":"https://anrweb.vt.gov/PubDocs/DEC/Hazsites/870129.PFAS.Summary.pdf","pfas_testing_link":"https://anrweb.vt.gov/PubDocs/DEC/Hazsites/870129.PFAS.Summary.pdf","site_ref_link":null,"state_ref_link":null,"ObjectId":3010}},{"type":"Feature","id":3011,"geometry":{"type":"Point","coordinates":[-73.222429,42.796759]},"properties":{"site_name":"Former Plant No. 3","other_site_names":null,"state":"Vermont","industry":"Industry","matrix_type":"Solid","matrix":"Soil","year":2016,"pfoa":"320","pfos":null,"total_pfas":null,"pfas_level":320,"notes":null,"regulation_gvt_link":null,"resources_link":null,"suspected_source_link":"https://anrweb.vt.gov/PubDocs/DEC/Hazsites/870129.PFAS.Summary.pdf","pfas_testing_link":"https://anrweb.vt.gov/PubDocs/DEC/Hazsites/870129.PFAS.Summary.pdf","site_ref_link":null,"state_ref_link":null,"ObjectId":3011}},{"type":"Feature","id":3012,"geometry":{"type":"Point","coordinates":[-73.111737,44.484264]},"properties":{"site_name":"Global Foundries","other_site_names":"IBM SYSTEMS & TECHNOLOGY SEMICONDUCTOR FACILITY","state":"Vermont","industry":"Industry","matrix_type":"Groundwater","matrix":"Groundwater","year":2016,"pfoa":"7200","pfos":null,"total_pfas":null,"pfas_level":7200,"notes":"Semiconductor manufacturing","regulation_gvt_link":null,"resources_link":null,"suspected_source_link":"https://dec.vermont.gov/sites/dec/files/documents/PFAS%20Sampling%20Report%207.10.18%20FINAL.pdf","pfas_testing_link":"http://www.mynbc5.com/article/water-contamination-found-at-two-chittenden-county-sites/3327693","site_ref_link":null,"state_ref_link":null,"ObjectId":3012}},{"type":"Feature","id":3013,"geometry":{"type":"Point","coordinates":[-72.763324,44.390051]},"properties":{"site_name":"Halifax Landfill","other_site_names":null,"state":"Vermont","industry":"Landfill","matrix_type":"Groundwater","matrix":"Groundwater","year":2020,"pfoa":null,"pfos":null,"total_pfas":94,"pfas_level":94,"notes":null,"regulation_gvt_link":null,"resources_link":null,"suspected_source_link":"https://www.datawrapper.de/_/pmQX8/","pfas_testing_link":"https://drive.google.com/file/d/1JhhV5mZ6zw_VMwGJ3SWPF1_cUHAeanAg/view?usp=sharing","site_ref_link":null,"state_ref_link":"https://drive.google.com/drive/u/0/folders/1lGp9mNF1VW52zcJOUD9x-wZO9oAb_opR","ObjectId":3013}},{"type":"Feature","id":3014,"geometry":{"type":"Point","coordinates":[-73.224639,44.390051]},"properties":{"site_name":"Harbour Industry","other_site_names":null,"state":"Vermont","industry":"Industry","matrix_type":"Groundwater","matrix":"Groundwater","year":2023,"pfoa":"438","pfos":"1030","total_pfas":1224,"pfas_level":1224,"notes":"Wirecoating operations","regulation_gvt_link":null,"resources_link":null,"suspected_source_link":"https://dec.vermont.gov/sites/dec/files/documents/PFAS%20Sampling%20Report%207.10.18%20FINAL.pdf","pfas_testing_link":"https://drive.google.com/file/d/1dV3Apk_B10L4NLF-Wk92PJRjV0lzY7yn/view?usp=drive_link","site_ref_link":"https://drive.google.com/drive/folders/12tstMbKSiyOx1uJPb8FvOQS9Kjstuc97?usp=drive_link","state_ref_link":"https://drive.google.com/drive/folders/1o9EXiyyAVB_spCy1okhaLex7ovjeJgdN?usp=drive_link","ObjectId":3014}},{"type":"Feature","id":3015,"geometry":{"type":"Point","coordinates":[-73.23609,42.765026]},"properties":{"site_name":"Pownal Fire Department #2","other_site_names":null,"state":"Vermont","industry":"Fire Department/Training Facility","matrix_type":"Groundwater","matrix":"Groundwater","year":2016,"pfoa":"43","pfos":null,"total_pfas":null,"pfas_level":43,"notes":null,"regulation_gvt_link":null,"resources_link":null,"suspected_source_link":"https://anrweb.vt.gov/PubDocs/DEC/Hazsites/870129.PFAS.Summary.pdf","pfas_testing_link":"https://anrweb.vt.gov/PubDocs/DEC/Hazsites/870129.PFAS.Summary.pdf","site_ref_link":null,"state_ref_link":null,"ObjectId":3015}},{"type":"Feature","id":3016,"geometry":{"type":"Point","coordinates":[-73.183203,42.818202]},"properties":{"site_name":"Pownal Landfill","other_site_names":null,"state":"Vermont","industry":"Landfill","matrix_type":"Groundwater","matrix":"Groundwater","year":2016,"pfoa":null,"pfos":null,"total_pfas":20,"pfas_level":20,"notes":null,"regulation_gvt_link":null,"resources_link":null,"suspected_source_link":"https://www.datawrapper.de/_/pmQX8/","pfas_testing_link":"https://drive.google.com/file/d/1JhhV5mZ6zw_VMwGJ3SWPF1_cUHAeanAg/view?usp=sharing","site_ref_link":null,"state_ref_link":"https://drive.google.com/drive/u/0/folders/1lGp9mNF1VW52zcJOUD9x-wZO9oAb_opR","ObjectId":3016}},{"type":"Feature","id":3017,"geometry":{"type":"Point","coordinates":[-72.520436,42.975645]},"properties":{"site_name":"Putney Paper Landfill","other_site_names":null,"state":"Vermont","industry":"Landfill","matrix_type":"Groundwater","matrix":"Groundwater","year":2018,"pfoa":null,"pfos":null,"total_pfas":30,"pfas_level":30,"notes":null,"regulation_gvt_link":null,"resources_link":null,"suspected_source_link":"https://www.datawrapper.de/_/pmQX8/","pfas_testing_link":"https://drive.google.com/file/d/1JhhV5mZ6zw_VMwGJ3SWPF1_cUHAeanAg/view?usp=sharing","site_ref_link":null,"state_ref_link":"https://drive.google.com/drive/u/0/folders/1lGp9mNF1VW52zcJOUD9x-wZO9oAb_opR","ObjectId":3017}},{"type":"Feature","id":3018,"geometry":{"type":"Point","coordinates":[-72.657253,43.926121]},"properties":{"site_name":"Randolph Wastewater Treatment Plant","other_site_names":null,"state":"Vermont","industry":"WWTP","matrix_type":"Solid","matrix":"Sludge","year":null,"pfoa":"13000","pfos":null,"total_pfas":null,"pfas_level":13000,"notes":"Received leachate from landfills","regulation_gvt_link":null,"resources_link":null,"suspected_source_link":"https://dec.vermont.gov/sites/dec/files/documents/PFAS%20Sampling%20Report%207.10.18%20FINAL.pdf","pfas_testing_link":null,"site_ref_link":null,"state_ref_link":null,"ObjectId":3018}},{"type":"Feature","id":3019,"geometry":{"type":"Point","coordinates":[-72.951414,43.620865]},"properties":{"site_name":"Rutland City Landfill","other_site_names":null,"state":"Vermont","industry":"Landfill","matrix_type":"Groundwater","matrix":"Groundwater","year":2018,"pfoa":null,"pfos":null,"total_pfas":104,"pfas_level":104,"notes":null,"regulation_gvt_link":null,"resources_link":null,"suspected_source_link":"https://www.datawrapper.de/_/pmQX8/","pfas_testing_link":"https://drive.google.com/file/d/1JhhV5mZ6zw_VMwGJ3SWPF1_cUHAeanAg/view?usp=sharing","site_ref_link":null,"state_ref_link":"https://drive.google.com/drive/u/0/folders/1lGp9mNF1VW52zcJOUD9x-wZO9oAb_opR","ObjectId":3019}},{"type":"Feature","id":3020,"geometry":{"type":"Point","coordinates":[-73.198777,42.964863]},"properties":{"site_name":"Shaftsbury Landfill","other_site_names":null,"state":"Vermont","industry":"Landfill","matrix_type":"Groundwater","matrix":"Groundwater","year":2020,"pfoa":null,"pfos":null,"total_pfas":34,"pfas_level":34,"notes":null,"regulation_gvt_link":null,"resources_link":null,"suspected_source_link":"https://www.datawrapper.de/_/pmQX8/","pfas_testing_link":"https://drive.google.com/file/d/1JhhV5mZ6zw_VMwGJ3SWPF1_cUHAeanAg/view?usp=sharing","site_ref_link":null,"state_ref_link":"https://drive.google.com/drive/u/0/folders/1lGp9mNF1VW52zcJOUD9x-wZO9oAb_opR","ObjectId":3020}},{"type":"Feature","id":3021,"geometry":{"type":"Point","coordinates":[-73.170653,44.481887]},"properties":{"site_name":"South Burlington Wastewater Treatment Plant","other_site_names":null,"state":"Vermont","industry":"WWTP","matrix_type":"Other Water","matrix":"Leachate","year":null,"pfoa":"5","pfos":"23","total_pfas":null,"pfas_level":23,"notes":"Received leachate from landfills, located on Aiport Pkwy","regulation_gvt_link":null,"resources_link":null,"suspected_source_link":"https://dec.vermont.gov/sites/dec/files/documents/PFAS%20Sampling%20Report%207.10.18%20FINAL.pdf","pfas_testing_link":null,"site_ref_link":null,"state_ref_link":null,"ObjectId":3021}},{"type":"Feature","id":3022,"geometry":{"type":"Point","coordinates":[-73.289346,44.63361]},"properties":{"site_name":"South Hero Landfill","other_site_names":null,"state":"Vermont","industry":"Landfill","matrix_type":"Groundwater","matrix":"Groundwater","year":2020,"pfoa":null,"pfos":null,"total_pfas":3573,"pfas_level":3573,"notes":null,"regulation_gvt_link":null,"resources_link":null,"suspected_source_link":"https://www.datawrapper.de/_/pmQX8/","pfas_testing_link":"https://drive.google.com/file/d/1JhhV5mZ6zw_VMwGJ3SWPF1_cUHAeanAg/view?usp=sharing","site_ref_link":null,"state_ref_link":"https://drive.google.com/drive/u/0/folders/1lGp9mNF1VW52zcJOUD9x-wZO9oAb_opR","ObjectId":3022}},{"type":"Feature","id":3023,"geometry":{"type":"Point","coordinates":[-73.052339,44.208497]},"properties":{"site_name":"Starksboro Landfill","other_site_names":null,"state":"Vermont","industry":"Landfill","matrix_type":"Groundwater","matrix":"Groundwater","year":2020,"pfoa":null,"pfos":null,"total_pfas":296,"pfas_level":296,"notes":null,"regulation_gvt_link":null,"resources_link":null,"suspected_source_link":"https://www.datawrapper.de/_/pmQX8/","pfas_testing_link":"https://drive.google.com/file/d/1JhhV5mZ6zw_VMwGJ3SWPF1_cUHAeanAg/view?usp=sharing","site_ref_link":null,"state_ref_link":"https://drive.google.com/drive/u/0/folders/1lGp9mNF1VW52zcJOUD9x-wZO9oAb_opR","ObjectId":3023}},{"type":"Feature","id":3024,"geometry":{"type":"Point","coordinates":[-72.242247,43.826406]},"properties":{"site_name":"Upper Valley Landfill","other_site_names":null,"state":"Vermont","industry":"Landfill","matrix_type":"Groundwater","matrix":"Groundwater","year":2019,"pfoa":null,"pfos":null,"total_pfas":21,"pfas_level":21,"notes":null,"regulation_gvt_link":null,"resources_link":null,"suspected_source_link":"https://www.datawrapper.de/_/pmQX8/","pfas_testing_link":"https://drive.google.com/file/d/1JhhV5mZ6zw_VMwGJ3SWPF1_cUHAeanAg/view?usp=sharing","site_ref_link":null,"state_ref_link":"https://drive.google.com/drive/u/0/folders/1lGp9mNF1VW52zcJOUD9x-wZO9oAb_opR","ObjectId":3024}},{"type":"Feature","id":3025,"geometry":{"type":"Point","coordinates":[-73.242553,42.77567]},"properties":{"site_name":"Warren Wire Facility","other_site_names":null,"state":"Vermont","industry":"Industry","matrix_type":"Groundwater","matrix":"Groundwater","year":2022,"pfoa":"960","pfos":null,"total_pfas":null,"pfas_level":960,"notes":"A public water supply well (Fire District 2) which supplied water to 400 people and several private drinking water wells were contaminated with PFAS above the standard, associated from the Warren Wire facility. The site is now owned by Mack Molding.","regulation_gvt_link":null,"resources_link":null,"suspected_source_link":"https://dec.vermont.gov/sites/dec/files/documents/PFAS%20Sampling%20Report%207.10.18%20FINAL.pdf","pfas_testing_link":"https://drive.google.com/file/d/1It3Ey2_-jJDxF82W4kqR-qKMuXPb6h00/view?usp=drive_link","site_ref_link":"https://drive.google.com/drive/folders/1Yqc3YjOoVWv9IB-bNb_PU_h4TBv6kp0_?usp=drive_link","state_ref_link":"https://drive.google.com/drive/folders/1o9EXiyyAVB_spCy1okhaLex7ovjeJgdN?usp=drive_link","ObjectId":3025}},{"type":"Feature","id":3026,"geometry":{"type":"Point","coordinates":[-72.540355,42.89427]},"properties":{"site_name":"WSWMD Landfill Landfill","other_site_names":null,"state":"Vermont","industry":"Landfill","matrix_type":"Groundwater","matrix":"Groundwater","year":2020,"pfoa":null,"pfos":null,"total_pfas":33,"pfas_level":33,"notes":null,"regulation_gvt_link":null,"resources_link":null,"suspected_source_link":"https://www.datawrapper.de/_/pmQX8/","pfas_testing_link":"https://drive.google.com/file/d/1JhhV5mZ6zw_VMwGJ3SWPF1_cUHAeanAg/view?usp=sharing","site_ref_link":null,"state_ref_link":"https://drive.google.com/drive/u/0/folders/1lGp9mNF1VW52zcJOUD9x-wZO9oAb_opR","ObjectId":3026}},{"type":"Feature","id":3061,"geometry":{"type":"Point","coordinates":[-72.52113,44.21044]},"properties":{"site_name":"Barre City Wastewater Treatment Facility","other_site_names":null,"state":"Vermont","industry":"WWTP","matrix_type":"Other Water","matrix":"Wastewater","year":2021,"pfoa":"3","pfos":"1","total_pfas":37,"pfas_level":37,"notes":null,"regulation_gvt_link":null,"resources_link":null,"suspected_source_link":"PFAS in Surface Waters | Department of Environmental Conservation (vermont.gov)","pfas_testing_link":"2021-PFAS-Surface-Water-Fish-Tissue-and-WWTF-Effluent-Monitoring-Report.pdf (vermont.gov)","site_ref_link":null,"state_ref_link":null,"ObjectId":3061}},{"type":"Feature","id":3062,"geometry":{"type":"Point","coordinates":[-72.600744,44.25474]},"properties":{"site_name":"Montpelier Wastewater Treatment Facility","other_site_names":null,"state":"Vermont","industry":"WWTP","matrix_type":"Other Water","matrix":"Wastewater","year":2021,"pfoa":"33","pfos":"5","total_pfas":378,"pfas_level":378,"notes":"Has received landfill leaechate","regulation_gvt_link":null,"resources_link":null,"suspected_source_link":"PFAS in Surface Waters | Department of Environmental Conservation (vermont.gov)","pfas_testing_link":"2021-PFAS-Surface-Water-Fish-Tissue-and-WWTF-Effluent-Monitoring-Report.pdf (vermont.gov)","site_ref_link":null,"state_ref_link":null,"ObjectId":3062}},{"type":"Feature","id":3063,"geometry":{"type":"Point","coordinates":[-72.19927,44.93999]},"properties":{"site_name":"Newport City Wastewater Treatment Facility","other_site_names":null,"state":"Vermont","industry":"WWTP","matrix_type":"Other Water","matrix":"Wastewater","year":2021,"pfoa":"13","pfos":"7","total_pfas":138,"pfas_level":138,"notes":"Previously received landfill leachate","regulation_gvt_link":null,"resources_link":null,"suspected_source_link":"PFAS in Surface Waters | Department of Environmental Conservation (vermont.gov)","pfas_testing_link":"2021-PFAS-Surface-Water-Fish-Tissue-and-WWTF-Effluent-Monitoring-Report.pdf (vermont.gov)","site_ref_link":null,"state_ref_link":null,"ObjectId":3063}},{"type":"Feature","id":3341,"geometry":{"type":"Point","coordinates":[-73.15363,42.872574]},"properties":{"site_name":"Burgess Brothers C&D Landfill","other_site_names":"Burgess Superfund Site, Burgess Brothers Landfill","state":"Vermont","industry":"Landfill","matrix_type":"Groundwater","matrix":"Groundwater","year":2016,"pfoa":"900","pfos":"140","total_pfas":null,"pfas_level":1040,"notes":null,"regulation_gvt_link":null,"resources_link":"https://dec.vermont.gov/pfas","suspected_source_link":"https://dec.vermont.gov/sites/dec/files/documents/PFAS%20Sampling%20Report%207.10.18%20FINAL.pdf","pfas_testing_link":"https://dec.vermont.gov/sites/dec/files/documents/PFAS%20Sampling%20Report%207.10.18%20FINAL.pdf","site_ref_link":null,"state_ref_link":"https://drive.google.com/drive/u/0/folders/1lGp9mNF1VW52zcJOUD9x-wZO9oAb_opR","ObjectId":3341}},{"type":"Feature","id":3342,"geometry":{"type":"Point","coordinates":[-72.950178,44.480783]},"properties":{"site_name":"Camp Ethan Allen Training Site","other_site_names":null,"state":"Vermont","industry":"Military","matrix_type":"Other Water","matrix":"Drinking Water","year":2018,"pfoa":"32","pfos":"2","total_pfas":118,"pfas_level":118,"notes":"AFFF","regulation_gvt_link":null,"resources_link":"https://dec.vermont.gov/pfas","suspected_source_link":"https://dec.vermont.gov/sites/dec/files/documents/PFAS%20Sampling%20Report%207.10.18%20FINAL.pdf","pfas_testing_link":"https://drive.google.com/file/d/1g1t60FsMLcfluvkLqorqlbsHnkF_rNZw/view?usp=sharing","site_ref_link":null,"state_ref_link":"https://drive.google.com/drive/u/0/folders/1lGp9mNF1VW52zcJOUD9x-wZO9oAb_opR","ObjectId":3342}},{"type":"Feature","id":3343,"geometry":{"type":"Point","coordinates":[-73.215556,44.469903]},"properties":{"site_name":"Chittenden Solid Waste District Landfill","other_site_names":null,"state":"Vermont","industry":"Landfill","matrix_type":"Other Water","matrix":"Leachate","year":2018,"pfoa":"418","pfos":"23","total_pfas":441,"pfas_level":441,"notes":null,"regulation_gvt_link":null,"resources_link":"https://dec.vermont.gov/pfas","suspected_source_link":"https://dec.vermont.gov/sites/dec/files/documents/PFAS%20Sampling%20Report%207.10.18%20FINAL.pdf","pfas_testing_link":"https://dec.vermont.gov/sites/dec/files/documents/PFAS%20Sampling%20Report%207.10.18%20FINAL.pdf","site_ref_link":null,"state_ref_link":"https://drive.google.com/drive/u/0/folders/1lGp9mNF1VW52zcJOUD9x-wZO9oAb_opR","ObjectId":3343}},{"type":"Feature","id":3344,"geometry":{"type":"Point","coordinates":[-72.819886,42.930306]},"properties":{"site_name":"Dover Municipal Landfill","other_site_names":null,"state":"Vermont","industry":"Landfill","matrix_type":"Groundwater","matrix":"Groundwater","year":2016,"pfoa":"8","pfos":"5","total_pfas":null,"pfas_level":13,"notes":null,"regulation_gvt_link":null,"resources_link":"https://dec.vermont.gov/pfas","suspected_source_link":"https://dec.vermont.gov/sites/dec/files/documents/PFAS%20Sampling%20Report%207.10.18%20FINAL.pdf","pfas_testing_link":"https://dec.vermont.gov/sites/dec/files/documents/PFAS%20Sampling%20Report%207.10.18%20FINAL.pdf","site_ref_link":null,"state_ref_link":"https://drive.google.com/drive/u/0/folders/1lGp9mNF1VW52zcJOUD9x-wZO9oAb_opR","ObjectId":3344}},{"type":"Feature","id":3345,"geometry":{"type":"Point","coordinates":[-72.762369,42.760312]},"properties":{"site_name":"Halifax Municipal Landfill","other_site_names":null,"state":"Vermont","industry":"Landfill","matrix_type":"Groundwater","matrix":"Groundwater","year":2017,"pfoa":"45","pfos":"37","total_pfas":null,"pfas_level":82,"notes":null,"regulation_gvt_link":null,"resources_link":"https://dec.vermont.gov/pfas","suspected_source_link":"https://dec.vermont.gov/sites/dec/files/documents/PFAS%20Sampling%20Report%207.10.18%20FINAL.pdf","pfas_testing_link":"https://dec.vermont.gov/sites/dec/files/documents/PFAS%20Sampling%20Report%207.10.18%20FINAL.pdf","site_ref_link":null,"state_ref_link":"https://drive.google.com/drive/u/0/folders/1lGp9mNF1VW52zcJOUD9x-wZO9oAb_opR","ObjectId":3345}},{"type":"Feature","id":3346,"geometry":{"type":"Point","coordinates":[-72.711257,44.312244]},"properties":{"site_name":"Moretown Landfill","other_site_names":null,"state":"Vermont","industry":"Landfill","matrix_type":"Other Water","matrix":"Leachate","year":2018,"pfoa":"2800","pfos":"300","total_pfas":null,"pfas_level":3100,"notes":null,"regulation_gvt_link":null,"resources_link":"https://dec.vermont.gov/pfas","suspected_source_link":"https://dec.vermont.gov/sites/dec/files/documents/PFAS%20Sampling%20Report%207.10.18%20FINAL.pdf","pfas_testing_link":"https://dec.vermont.gov/sites/dec/files/documents/PFAS%20Sampling%20Report%207.10.18%20FINAL.pdf","site_ref_link":null,"state_ref_link":"https://drive.google.com/drive/u/0/folders/1lGp9mNF1VW52zcJOUD9x-wZO9oAb_opR","ObjectId":3346}},{"type":"Feature","id":3347,"geometry":{"type":"Point","coordinates":[-72.223486,44.910938]},"properties":{"site_name":"Coventry Landfill (NEWSVT)","other_site_names":null,"state":"Vermont","industry":"Landfill","matrix_type":"Other Water","matrix":"Leachate","year":2018,"pfoa":"1850","pfos":"244","total_pfas":null,"pfas_level":2094,"notes":null,"regulation_gvt_link":null,"resources_link":"https://dec.vermont.gov/pfas","suspected_source_link":"https://dec.vermont.gov/sites/dec/files/documents/PFAS%20Sampling%20Report%207.10.18%20FINAL.pdf","pfas_testing_link":"https://dec.vermont.gov/sites/dec/files/documents/PFAS%20Sampling%20Report%207.10.18%20FINAL.pdf","site_ref_link":null,"state_ref_link":"https://drive.google.com/drive/u/0/folders/1lGp9mNF1VW52zcJOUD9x-wZO9oAb_opR","ObjectId":3347}},{"type":"Feature","id":3348,"geometry":{"type":"Point","coordinates":[-72.594632,44.680357]},"properties":{"site_name":"North Hyde Park Training Site","other_site_names":null,"state":"Vermont","industry":"Military","matrix_type":"Other Water","matrix":"Drinking Water","year":2017,"pfoa":"2","pfos":null,"total_pfas":6,"pfas_level":6,"notes":null,"regulation_gvt_link":null,"resources_link":"https://dec.vermont.gov/pfas","suspected_source_link":"https://www.militarypoisons.org/vermont.html","pfas_testing_link":"https://cdn3.ewg.org/sites/default/files/u352/EWG_PFASTable-Army_C01.pdf?_ga=2.27118269.1802277307.1589039917-836179027.1562707229","site_ref_link":null,"state_ref_link":"https://drive.google.com/drive/u/0/folders/1lGp9mNF1VW52zcJOUD9x-wZO9oAb_opR","ObjectId":3348}},{"type":"Feature","id":3349,"geometry":{"type":"Point","coordinates":[-72.5205,42.975494]},"properties":{"site_name":"Putney Paper Sludge Landfill","other_site_names":null,"state":"Vermont","industry":"Landfill","matrix_type":"Groundwater","matrix":"Groundwater","year":2016,"pfoa":"18","pfos":"11","total_pfas":null,"pfas_level":29,"notes":null,"regulation_gvt_link":null,"resources_link":"https://dec.vermont.gov/pfas","suspected_source_link":"https://dec.vermont.gov/sites/dec/files/documents/PFAS%20Sampling%20Report%207.10.18%20FINAL.pdf","pfas_testing_link":"https://dec.vermont.gov/sites/dec/files/documents/PFAS%20Sampling%20Report%207.10.18%20FINAL.pdf","site_ref_link":null,"state_ref_link":"https://drive.google.com/drive/folders/1o9EXiyyAVB_spCy1okhaLex7ovjeJgdN","ObjectId":3349}},{"type":"Feature","id":3350,"geometry":{"type":"Point","coordinates":[-73.188494,44.516423]},"properties":{"site_name":"Rathe Landfill","other_site_names":null,"state":"Vermont","industry":"Landfill","matrix_type":"Other Water","matrix":"Leachate","year":2018,"pfoa":"110","pfos":"99","total_pfas":null,"pfas_level":209,"notes":null,"regulation_gvt_link":null,"resources_link":"https://dec.vermont.gov/pfas","suspected_source_link":"https://dec.vermont.gov/sites/dec/files/documents/PFAS%20Sampling%20Report%207.10.18%20FINAL.pdf","pfas_testing_link":"https://dec.vermont.gov/sites/dec/files/documents/PFAS%20Sampling%20Report%207.10.18%20FINAL.pdf","site_ref_link":null,"state_ref_link":"https://drive.google.com/drive/u/0/folders/1lGp9mNF1VW52zcJOUD9x-wZO9oAb_opR","ObjectId":3350}},{"type":"Feature","id":3351,"geometry":{"type":"Point","coordinates":[-73.17443,44.478107]},"properties":{"site_name":"South Burlington Landfill","other_site_names":null,"state":"Vermont","industry":"Landfill","matrix_type":"Other Water","matrix":"Leachate","year":2018,"pfoa":"80","pfos":"30","total_pfas":null,"pfas_level":109,"notes":null,"regulation_gvt_link":null,"resources_link":"https://dec.vermont.gov/pfas","suspected_source_link":"https://dec.vermont.gov/sites/dec/files/documents/PFAS%20Sampling%20Report%207.10.18%20FINAL.pdf","pfas_testing_link":"https://dec.vermont.gov/sites/dec/files/documents/PFAS%20Sampling%20Report%207.10.18%20FINAL.pdf","site_ref_link":null,"state_ref_link":"https://drive.google.com/drive/u/0/folders/1lGp9mNF1VW52zcJOUD9x-wZO9oAb_opR","ObjectId":3351}},{"type":"Feature","id":3352,"geometry":{"type":"Point","coordinates":[-73.202949,43.09114]},"properties":{"site_name":"Stunderland Municipal Landfill","other_site_names":null,"state":"Vermont","industry":"Landfill","matrix_type":"Groundwater","matrix":"Groundwater","year":2016,"pfoa":"2","pfos":null,"total_pfas":null,"pfas_level":2,"notes":null,"regulation_gvt_link":null,"resources_link":"https://dec.vermont.gov/pfas","suspected_source_link":"https://dec.vermont.gov/sites/dec/files/documents/PFAS%20Sampling%20Report%207.10.18%20FINAL.pdf","pfas_testing_link":"https://dec.vermont.gov/sites/dec/files/documents/PFAS%20Sampling%20Report%207.10.18%20FINAL.pdf","site_ref_link":null,"state_ref_link":"https://drive.google.com/drive/u/0/folders/1lGp9mNF1VW52zcJOUD9x-wZO9oAb_opR","ObjectId":3352}},{"type":"Feature","id":3353,"geometry":{"type":"Point","coordinates":[-73.016774,43.718939]},"properties":{"site_name":"Vermont Fire Academy","other_site_names":null,"state":"Vermont","industry":"Military","matrix_type":"Groundwater","matrix":"Groundwater","year":2016,"pfoa":null,"pfos":null,"total_pfas":80,"pfas_level":80,"notes":"AFFF used during training exercises from the 1970s to 2011.","regulation_gvt_link":null,"resources_link":"https://dec.vermont.gov/pfas","suspected_source_link":"https://www.stone-env.com/assets/resources/443aa16247/16-061-PFAS-and-Water-Treatment-at-VT-Fire-Academy.pdf","pfas_testing_link":"https://www.stone-env.com/assets/resources/443aa16247/16-061-PFAS-and-Water-Treatment-at-VT-Fire-Academy.pdf","site_ref_link":"https://drive.google.com/drive/u/0/folders/1rLpujWTQ8faXtu_cyAhxNLk1NstR5wzl","state_ref_link":"https://drive.google.com/drive/u/0/folders/1lGp9mNF1VW52zcJOUD9x-wZO9oAb_opR","ObjectId":3353}},{"type":"Feature","id":3354,"geometry":{"type":"Point","coordinates":[-72.455584,43.086448]},"properties":{"site_name":"Westminster Training Site","other_site_names":null,"state":"Vermont","industry":"Military","matrix_type":"Other Water","matrix":"Drinking Water","year":2018,"pfoa":"1","pfos":null,"total_pfas":6,"pfas_level":6,"notes":null,"regulation_gvt_link":null,"resources_link":"https://dec.vermont.gov/pfas","suspected_source_link":"https://www.militarypoisons.org/vermont.html","pfas_testing_link":"https://drive.google.com/file/d/1g1t60FsMLcfluvkLqorqlbsHnkF_rNZw/view?usp=sharing","site_ref_link":null,"state_ref_link":"https://drive.google.com/drive/u/0/folders/1lGp9mNF1VW52zcJOUD9x-wZO9oAb_opR","ObjectId":3354}},{"type":"Feature","id":3355,"geometry":{"type":"Point","coordinates":[-72.540338,42.894219]},"properties":{"site_name":"Windham Solid Waste Management District Regional Landfill","other_site_names":null,"state":"Vermont","industry":"Landfill","matrix_type":"Groundwater","matrix":"Groundwater","year":2016,"pfoa":"9","pfos":null,"total_pfas":null,"pfas_level":9,"notes":null,"regulation_gvt_link":null,"resources_link":"https://dec.vermont.gov/pfas","suspected_source_link":"https://dec.vermont.gov/sites/dec/files/documents/PFAS%20Sampling%20Report%207.10.18%20FINAL.pdf","pfas_testing_link":"https://dec.vermont.gov/sites/dec/files/documents/PFAS%20Sampling%20Report%207.10.18%20FINAL.pdf","site_ref_link":null,"state_ref_link":"https://drive.google.com/drive/u/0/folders/1lGp9mNF1VW52zcJOUD9x-wZO9oAb_opR","ObjectId":3355}},{"type":"Feature","id":3356,"geometry":{"type":"Point","coordinates":[-73.26189,42.790516]},"properties":{"site_name":"Old Pownal Landfill (West Landfill)","other_site_names":null,"state":"Vermont","industry":"Industry","matrix_type":"Groundwater","matrix":"Groundwater","year":2016,"pfoa":"14","pfos":"5","total_pfas":null,"pfas_level":19,"notes":"Use of Teflon-containing PFOA at the former Warren Wire/General Cable Co. factory. ","regulation_gvt_link":"N/A","resources_link":"https://dec.vermont.gov/pfas","suspected_source_link":"https://www.benningtonbanner.com/stories/pfas-in-old-landfill-prompts-more-testing,607655","pfas_testing_link":"https://dec.vermont.gov/sites/dec/files/documents/PFAS%20Sampling%20Report%207.10.18%20FINAL.pdf","site_ref_link":"https://drive.google.com/drive/folders/11cbVmBaqGGaLIY7WiFdLU8yDU0dzYw_P","state_ref_link":"https://drive.google.com/drive/u/0/folders/1lGp9mNF1VW52zcJOUD9x-wZO9oAb_opR","ObjectId":3356}},{"type":"Feature","id":4247,"geometry":{"type":"Point","coordinates":[-71.989439,44.518611]},"properties":{"site_name":"Parker Sanitary Landfill","other_site_names":null,"state":"Vermont","industry":"Industry","matrix_type":"Groundwater","matrix":"Groundwater","year":2023,"pfoa":"60","pfos":"8","total_pfas":72,"pfas_level":72,"notes":null,"regulation_gvt_link":null,"resources_link":null,"suspected_source_link":"https://cumulis.epa.gov/supercpad/SiteProfiles/index.cfm?fuseaction=second.Cleanup&id=0101491#bkground","pfas_testing_link":"https://semspub.epa.gov/work/01/100030946.pdf","site_ref_link":"https://drive.google.com/drive/folders/1lqalpLLeBF1CFsGdtLNLKFXhasDtb34N?usp=drive_link","state_ref_link":"https://drive.google.com/drive/folders/1o9EXiyyAVB_spCy1okhaLex7ovjeJgdN?usp=drive_link","ObjectId":4247}}]}