{"type":"FeatureCollection","crs":{"type":"name","properties":{"name":"EPSG:4326"}},"features":[{"type":"Feature","id":96,"geometry":{"type":"Point","coordinates":[-90.263021,43.926918]},"properties":{"site_name":"Volk Field Air National Guard Base","other_site_names":null,"state":"Wisconsin","industry":"Military","matrix_type":"Groundwater","matrix":"Groundwater","year":2016,"pfoa":"5,700","pfos":"23,000","total_pfas":43971,"pfas_level":43971,"notes":"AFFF used at Volk Field ANGB","regulation_gvt_link":"N/A","resources_link":"https://www.wehnonline.org/pfas\nhttps://dnr.wi.gov/topic/Contaminants/PFAS.html \ncswab.org","suspected_source_link":"https://cswab.org/wp-content/uploads/2018/12/Wisconsin-Map-PFAS-Statewide-Truax-Madison-WSJ-Dec-2018.pdf","pfas_testing_link":"https://drive.google.com/file/d/19mPmPXavCe4-FYUUDLdEY3V-TK8IrqIK/view?usp=sharing","site_ref_link":"https://drive.google.com/drive/folders/1G1GcJpNHrf5-ri4SYS6Kd29Sv84-oml1","state_ref_link":"https://drive.google.com/drive/folders/1jJQ9yj0v4F-uS3q-WO91RAcoKlPt6Y1z","ObjectId":96}},{"type":"Feature","id":220,"geometry":{"type":"Point","coordinates":[-89.333324,43.128409]},"properties":{"site_name":"Truax Air National Guard Base","other_site_names":"Dane County Regional Airport","state":"Wisconsin","industry":"Military","matrix_type":"Groundwater","matrix":"Groundwater","year":2017,"pfoa":"841","pfos":"39,000","total_pfas":49818,"pfas_level":49818,"notes":"AFFF used at Truax Field ANGB and Dane County Regional Airport","regulation_gvt_link":"https://www.publichealthmdc.com/environmental-health/environmental-hazards/per-and-polyfluoroalkyl-substances-pfas-1#:~:text=Dane%20County%20Regional%20Airport%20Stormwater,and%20cleanup%20of%20the%20site.","resources_link":"https://www.wehnonline.org/pfas\nhttps://dnr.wi.gov/topic/Contaminants/PFAS.html \ncswab.org","suspected_source_link":"https://www.msnairport.com/about/ecomentality/PFAS-Information","pfas_testing_link":"https://drive.google.com/file/d/1BYUpR4z36c8nMdWICOwTfVtgCog4947c/view?usp=sharing","site_ref_link":"https://drive.google.com/drive/folders/1JhXpayJUhHRgqu5yWCXvORyyWQxVd5kx","state_ref_link":"https://drive.google.com/drive/folders/1jJQ9yj0v4F-uS3q-WO91RAcoKlPt6Y1z","ObjectId":220}},{"type":"Feature","id":229,"geometry":{"type":"Point","coordinates":[-90.677633,44.00895]},"properties":{"site_name":"US Army Reserve Fort McCoy","other_site_names":null,"state":"Wisconsin","industry":"Military","matrix_type":"Groundwater","matrix":"Groundwater","year":2017,"pfoa":"3,400","pfos":"120,000","total_pfas":128730,"pfas_level":128730,"notes":"AFFF used at Fort McCoy","regulation_gvt_link":"N/A","resources_link":"https://www.wehnonline.org/pfas\nhttps://dnr.wi.gov/topic/Contaminants/PFAS.html \ncswab.org","suspected_source_link":"https://cswab.org/toxic-compound-highest-in-groundwater-at-fort-mccoy/","pfas_testing_link":"https://drive.google.com/file/d/1SvEmZyCL8T3UY6tHgZJ3EU-DQ9lR70xF/view?usp=sharing","site_ref_link":"https://drive.google.com/drive/u/0/folders/1mUBAaAIQKs5_eqEaP_Ga58PeAVh9lLVJ","state_ref_link":"https://drive.google.com/drive/folders/1jJQ9yj0v4F-uS3q-WO91RAcoKlPt6Y1z","ObjectId":229}},{"type":"Feature","id":274,"geometry":{"type":"Point","coordinates":[-91.483524,46.013461]},"properties":{"site_name":"Hayward TNG Site","other_site_names":null,"state":"Wisconsin","industry":"Military","matrix_type":"Other Water","matrix":"Drinking Water","year":2018,"pfoa":null,"pfos":null,"total_pfas":1,"pfas_level":1,"notes":null,"regulation_gvt_link":null,"resources_link":null,"suspected_source_link":"https://drive.google.com/file/d/1g1t60FsMLcfluvkLqorqlbsHnkF_rNZw/view?usp=sharing","pfas_testing_link":"https://drive.google.com/file/d/1g1t60FsMLcfluvkLqorqlbsHnkF_rNZw/view?usp=sharing","site_ref_link":"https://drive.google.com/drive/u/0/folders/17vc5JX3Gvo92Bih-kg-GABnBbExIJhXg","state_ref_link":"https://drive.google.com/drive/u/0/folders/1McBSeX2VTKGuIpe-IdaFYayBBQsc8_kn","ObjectId":274}},{"type":"Feature","id":503,"geometry":{"type":"Point","coordinates":[-88.153526,44.034294]},"properties":{"site_name":"Mirro CO PLT #20 (FORMER)","other_site_names":null,"state":"Wisconsin","industry":"Industry","matrix_type":"Groundwater","matrix":"Groundwater","year":2018,"pfoa":"1","pfos":"4","total_pfas":null,"pfas_level":4,"notes":null,"regulation_gvt_link":null,"resources_link":null,"suspected_source_link":"https://dnr.wi.gov/botw/GetActivityDetail.do?dsn=520157&siteId=581900&crumb=1","pfas_testing_link":"https://drive.google.com/file/d/1ff0Z9jFBol5wOSPdrbGtC4KLNbbdu8K-/view?usp=sharing","site_ref_link":null,"state_ref_link":null,"ObjectId":503}},{"type":"Feature","id":654,"geometry":{"type":"Point","coordinates":[-87.615515,45.098288]},"properties":{"site_name":"JCI/Tyco Stanton","other_site_names":null,"state":"Wisconsin","industry":"Industry","matrix_type":"Groundwater","matrix":"Groundwater","year":2018,"pfoa":"9,100","pfos":"650","total_pfas":37866,"pfas_level":37866,"notes":null,"regulation_gvt_link":null,"resources_link":null,"suspected_source_link":"https://dnr.wi.gov/botw/GetActivityDetail.do?dsn=581955&siteId=643000&crumb=1","pfas_testing_link":"https://drive.google.com/file/d/1BuzCAjjIB_HbC_nwJVG4qesFdgWypLTZ/view?usp=sharing","site_ref_link":null,"state_ref_link":null,"ObjectId":654}},{"type":"Feature","id":685,"geometry":{"type":"Point","coordinates":[-87.896646,42.947553]},"properties":{"site_name":"General Mitchell Air National Guard Base","other_site_names":"General Mitchell International Airport, Wisconsin Air National Guard 128th Air Refueling Wing","state":"Wisconsin","industry":"Military","matrix_type":"Groundwater","matrix":"Groundwater","year":2018,"pfoa":"4,840","pfos":"21,000","total_pfas":169467,"pfas_level":169467,"notes":"AFFF used at General Mitchell Air Reserve Station","regulation_gvt_link":"N/A","resources_link":"https://www.wehnonline.org/pfas\nhttps://dnr.wi.gov/topic/Contaminants/PFAS.html \ncswab.org","suspected_source_link":"https://drive.google.com/file/d/1EUMAiROzk8OxvPAWubv0xGGH9zI6mw4d/view?usp=drive_link ","pfas_testing_link":"https://drive.google.com/file/d/1gd7EUjgXMqVqnDgp6NpisOnuYoWaTRnF/view?usp=sharing","site_ref_link":"https://drive.google.com/drive/folders/1d38_OedFdTuaKD4t-zes1wt0da5wkdKZ","state_ref_link":"https://drive.google.com/drive/folders/1jJQ9yj0v4F-uS3q-WO91RAcoKlPt6Y1z","ObjectId":685}},{"type":"Feature","id":771,"geometry":{"type":"Point","coordinates":[-87.721146,44.060431]},"properties":{"site_name":"Former Town of Newton Gravel Pit","other_site_names":"Manitowoc City","state":"Wisconsin","industry":"Superfund Site","matrix_type":"Groundwater","matrix":"Groundwater","year":2018,"pfoa":"380","pfos":"39","total_pfas":583,"pfas_level":583,"notes":null,"regulation_gvt_link":null,"resources_link":null,"suspected_source_link":"https://dnr.wi.gov/botw/GetActivityDetail.do?dsn=33760&siteId=2693600&crumb=1","pfas_testing_link":"https://drive.google.com/file/d/1MEUFDAEEMIUbrLUvYpHTzTbiv4Zf9R26/view?usp=sharing","site_ref_link":"https://drive.google.com/drive/u/0/folders/1AfPYfk5iY-_ef0IXy3T6CaYpgjwwhZ3L","state_ref_link":null,"ObjectId":771}},{"type":"Feature","id":779,"geometry":{"type":"Point","coordinates":[-92.070344,46.690025]},"properties":{"site_name":"Superior Refining Company LLC","other_site_names":null,"state":"Wisconsin","industry":"Industry","matrix_type":"Groundwater","matrix":"Groundwater","year":2018,"pfoa":"670","pfos":"740","total_pfas":null,"pfas_level":740,"notes":null,"regulation_gvt_link":null,"resources_link":null,"suspected_source_link":"https://dnr.wi.gov/botw/GetActivityDetail.do?dsn=581317&siteId=666100&crumb=1","pfas_testing_link":"https://drive.google.com/file/d/1JSx4z7Q2qgdFbCgkNNiuhwp0bN8yibe5/view?usp=sharing","site_ref_link":"https://drive.google.com/drive/folders/174nXpGwHgKqbhw6PlVvGczAljJ79X0em?usp=sharing","state_ref_link":null,"ObjectId":779}},{"type":"Feature","id":888,"geometry":{"type":"Point","coordinates":[-89.35187,43.113756]},"properties":{"site_name":"Burke Wastewater Treatment PLT (FMR)","other_site_names":null,"state":"Wisconsin","industry":"WWTP","matrix_type":"Groundwater","matrix":"Groundwater","year":2019,"pfoa":"25","pfos":"23","total_pfas":null,"pfas_level":25,"notes":null,"regulation_gvt_link":null,"resources_link":null,"suspected_source_link":"https://dnr.wi.gov/botw/GetActivityDetail.do?dsn=315773&siteId=8744100&crumb=1","pfas_testing_link":"https://drive.google.com/file/d/17B0S3Hpva_5nmC66LPwJkat2l_EnCAhH/view?usp=sharing","site_ref_link":"https://drive.google.com/drive/folders/1rZuhwoK57gWGvcMxGSW_QjE28ymDSN5o?usp=sharing","state_ref_link":null,"ObjectId":888}},{"type":"Feature","id":989,"geometry":{"type":"Point","coordinates":[-89.579299,43.098022]},"properties":{"site_name":"Refuse Hideaway (SF NL) SL","other_site_names":null,"state":"Wisconsin","industry":"Landfill","matrix_type":"Groundwater","matrix":"Groundwater","year":2019,"pfoa":"4","pfos":"4","total_pfas":103,"pfas_level":103,"notes":"Presence of PFAS substances is indicated on site website, but no testing data available. ","regulation_gvt_link":"https://cumulis.epa.gov/supercpad/cursites/csitinfo.cfm?id=0505114","resources_link":"https://cumulis.epa.gov/supercpad/cursites/csitinfo.cfm?id=0505114","suspected_source_link":"https://dnr.wi.gov/botw/GetActivityDetail.do?dsn=35361&siteId=1710200&crumb=1","pfas_testing_link":"https://drive.google.com/file/d/1Bvp4hzMC86-KNgi5ZIixxmHlYjhm6Zeu/view?usp=drive_link","site_ref_link":"https://drive.google.com/drive/folders/1x1zfzTdR-yJwPiUzHvaNVkZmb_J04b7c?usp=drive_link","state_ref_link":"https://drive.google.com/drive/folders/16cPCO907bUFpX-CKzAj1EGj8_TD142PQ?usp=drive_link","ObjectId":989}},{"type":"Feature","id":1023,"geometry":{"type":"Point","coordinates":[-90.265611,44.689689]},"properties":{"site_name":"Spickler Landfill","other_site_names":null,"state":"Wisconsin","industry":"Waste","matrix_type":"Groundwater","matrix":"Groundwater","year":2022,"pfoa":"385","pfos":"3,300","total_pfas":null,"pfas_level":3300,"notes":null,"regulation_gvt_link":null,"resources_link":null,"suspected_source_link":"https://cumulis.epa.gov/supercpad/cursites/csitinfo.cfm?id=0505181","pfas_testing_link":"https://semspub.epa.gov/work/05/701550.pdf","site_ref_link":"https://drive.google.com/drive/folders/1R44jreJ4oGs9mn-vFk0Ix4_Fbg0NUD6c?usp=drive_link","state_ref_link":"https://drive.google.com/drive/folders/16cPCO907bUFpX-CKzAj1EGj8_TD142PQ?usp=drive_link","ObjectId":1023}},{"type":"Feature","id":1040,"geometry":{"type":"Point","coordinates":[-88.5221,43.2141]},"properties":{"site_name":"Oconomowoc Electroplating Co., Inc.","other_site_names":null,"state":"Wisconsin","industry":"Industry","matrix_type":"Groundwater","matrix":"Groundwater","year":2023,"pfoa":null,"pfos":null,"total_pfas":14,"pfas_level":14,"notes":null,"regulation_gvt_link":null,"resources_link":null,"suspected_source_link":"https://cumulis.epa.gov/supercpad/SiteProfiles/index.cfm?fuseaction=second.Cleanup&id=0504986#bkground","pfas_testing_link":"https://apps.dnr.wi.gov/botw/DownloadBlobFile.do?docSeqNo=259778&docName=20230509_43_PFAS_Private_Well_Sampling_Results.pdf&docDsn=35470","site_ref_link":"https://drive.google.com/drive/folders/191eNnrUUGGRmKqJqa8ZQLNQzMTQ7WEd-?usp=drive_link","state_ref_link":"https://drive.google.com/drive/folders/16cPCO907bUFpX-CKzAj1EGj8_TD142PQ?usp=drive_link","ObjectId":1040}},{"type":"Feature","id":1041,"geometry":{"type":"Point","coordinates":[-89.6292,44.9773]},"properties":{"site_name":"Wausau Ground Water Contamination","other_site_names":null,"state":"Wisconsin","industry":"Industry; Waste","matrix_type":"Other Water","matrix":"Drinking Water","year":2023,"pfoa":"6","pfos":"1","total_pfas":17,"pfas_level":17,"notes":null,"regulation_gvt_link":null,"resources_link":null,"suspected_source_link":"https://cumulis.epa.gov/supercpad/SiteProfiles/index.cfm?fuseaction=second.Cleanup&id=0505186#bkground","pfas_testing_link":"https://semspub.epa.gov/work/05/700000.pdf","site_ref_link":"https://drive.google.com/drive/folders/1u7sA0K0vvuDw0nSaT97jXvmh59MB_4PH?usp=drive_link","state_ref_link":"https://drive.google.com/drive/folders/16cPCO907bUFpX-CKzAj1EGj8_TD142PQ?usp=drive_link","ObjectId":1041}},{"type":"Feature","id":1046,"geometry":{"type":"Point","coordinates":[-88.43,44.25555]},"properties":{"site_name":"N.W. Mauthe Co., Inc.","other_site_names":null,"state":"Wisconsin","industry":"Industry","matrix_type":"Groundwater","matrix":"Groundwater","year":2023,"pfoa":"7","pfos":"10","total_pfas":32,"pfas_level":32,"notes":null,"regulation_gvt_link":null,"resources_link":null,"suspected_source_link":"https://cumulis.epa.gov/supercpad/cursites/csitinfo.cfm?id=0505061","pfas_testing_link":"https://apps.dnr.wi.gov/botw/DownloadBlobFile.do?docSeqNo=315872&docName=20250226_43_Groundwater_Report.pdf&docDsn=33249","site_ref_link":"https://drive.google.com/drive/folders/1yig2nyUsCzPuG7yxW-4UsFQm85FYAM3S?usp=drive_link","state_ref_link":"https://drive.google.com/drive/folders/16cPCO907bUFpX-CKzAj1EGj8_TD142PQ?usp=drive_link","ObjectId":1046}},{"type":"Feature","id":1069,"geometry":{"type":"Point","coordinates":[-88.0755,44.438061]},"properties":{"site_name":"Better Brite Plating Co. Chrome and Zinc Shops","other_site_names":"Better Brite Chrome","state":"Wisconsin","industry":"Industry","matrix_type":"Groundwater","matrix":"Groundwater","year":2023,"pfoa":"31","pfos":"54","total_pfas":215,"pfas_level":215,"notes":null,"regulation_gvt_link":null,"resources_link":null,"suspected_source_link":"https://cumulis.epa.gov/supercpad/SiteProfiles/index.cfm?fuseaction=second.Cleanup&id=0505257#bkground","pfas_testing_link":"https://semspub.epa.gov/work/05/997103.pdf","site_ref_link":"https://drive.google.com/drive/folders/1etXWiSmUbZkutxJxYMw7Sst0R-V4-uy6?usp=drive_link","state_ref_link":"https://drive.google.com/drive/folders/16cPCO907bUFpX-CKzAj1EGj8_TD142PQ?usp=drive_link","ObjectId":1069}},{"type":"Feature","id":1095,"geometry":{"type":"Point","coordinates":[-90.04,44.848331]},"properties":{"site_name":"Mid-State Disposal, Inc. Landfill","other_site_names":null,"state":"Wisconsin","industry":"Waste","matrix_type":"Groundwater","matrix":"Groundwater","year":2024,"pfoa":"3","pfos":"7","total_pfas":29,"pfas_level":29,"notes":null,"regulation_gvt_link":null,"resources_link":null,"suspected_source_link":"https://cumulis.epa.gov/supercpad/cursites/csitinfo.cfm?id=0505170","pfas_testing_link":"https://drive.google.com/file/d/1-m4AI1RwDImQ60W9Rt-hWagqUVnDi8zk/view?usp=drive_link","site_ref_link":"https://apps.dnr.wi.gov/botw/GetActivityDetail.do?crumb=2&siteId=1738700&dsn=210252","state_ref_link":null,"ObjectId":1095}},{"type":"Feature","id":1117,"geometry":{"type":"Point","coordinates":[-89.375306,43.079761]},"properties":{"site_name":"MG&E Substation ATC Transformer Fire","other_site_names":null,"state":"Wisconsin","industry":"AFFF","matrix_type":"Other Water","matrix":"Surface Water","year":2019,"pfoa":"97","pfos":"135","total_pfas":null,"pfas_level":135,"notes":null,"regulation_gvt_link":null,"resources_link":null,"suspected_source_link":"https://dnr.wi.gov/botw/GetActivityDetail.do?dsn=584085&siteId=7889500&crumb=1","pfas_testing_link":"https://drive.google.com/file/d/1ldmlxUIgKLNpeVg7uKTvMwIoN8o5EvcY/view?usp=sharing","site_ref_link":"https://drive.google.com/drive/folders/1afbIe2FNPgGiTCInSvOW3j83WKHbeHfA?usp=sharing","state_ref_link":null,"ObjectId":1117}},{"type":"Feature","id":1229,"geometry":{"type":"Point","coordinates":[-87.841669,44.173331]},"properties":{"site_name":"Lemberger Landfill, Inc. ","other_site_names":"Lemberger Transport & Recycling","state":"Wisconsin","industry":"Waste","matrix_type":"Groundwater","matrix":"Groundwater","year":2021,"pfoa":"5","pfos":"0","total_pfas":11,"pfas_level":11,"notes":null,"regulation_gvt_link":null,"resources_link":null,"suspected_source_link":"https://cumulis.epa.gov/supercpad/SiteProfiles/index.cfm?fuseaction=second.Cleanup&id=0505180#bkground","pfas_testing_link":"https://drive.google.com/file/d/1R_f-LhgmK4s0n_x5k-oZy2UAbzmlYods/view?usp=drive_link","site_ref_link":"https://apps.dnr.wi.gov/botw/GetActivityDetail.do?dsn=35431&siteId=931100&crumb=1","state_ref_link":null,"ObjectId":1229}},{"type":"Feature","id":1236,"geometry":{"type":"Point","coordinates":[-88.072659,44.489463]},"properties":{"site_name":"Ashview Terrace Apartments","other_site_names":null,"state":"Wisconsin","industry":"Unknown","matrix_type":"Groundwater","matrix":"Groundwater","year":2021,"pfoa":"23","pfos":"3","total_pfas":null,"pfas_level":23,"notes":null,"regulation_gvt_link":null,"resources_link":null,"suspected_source_link":"https://dnr.wi.gov/botw/GetActivityDetail.do?dsn=564043&siteId=28154000&crumb=1","pfas_testing_link":"https://drive.google.com/file/d/1PTSrdqAMdvOALO_GFF715iXUBsJJfRWH/view?usp=sharing","site_ref_link":"https://drive.google.com/drive/u/0/folders/1xMpNarNNyf9phg3BgtHmNj3CEDvMmef5","state_ref_link":"https://drive.google.com/drive/u/0/folders/16cPCO907bUFpX-CKzAj1EGj8_TD142PQ","ObjectId":1236}},{"type":"Feature","id":1244,"geometry":{"type":"Point","coordinates":[-89.334485,43.133216]},"properties":{"site_name":"Wang-115 Fighter Wing","other_site_names":null,"state":"Wisconsin","industry":"Military","matrix_type":"Groundwater","matrix":"Groundwater","year":2021,"pfoa":"7","pfos":"22","total_pfas":null,"pfas_level":29,"notes":null,"regulation_gvt_link":null,"resources_link":null,"suspected_source_link":"https://dnr.wi.gov/botw/GetActivityDetail.do?dsn=581254&siteId=5311900&crumb=1","pfas_testing_link":"https://drive.google.com/file/d/1oi-U3eyyVdwQbDdUm_Qv9QmKhjW8pSDu/view?usp=sharing","site_ref_link":"https://drive.google.com/drive/u/0/folders/1fnNRTbiN6qe6l3aHuIwXthn9QZeeLBCq","state_ref_link":null,"ObjectId":1244}},{"type":"Feature","id":1247,"geometry":{"type":"Point","coordinates":[-91.502312,44.858571]},"properties":{"site_name":"EAU Claire Well Field","other_site_names":"National Presto Industries Superfund site","state":"Wisconsin","industry":"Industry","matrix_type":"Groundwater","matrix":"Groundwater","year":2021,"pfoa":"2","pfos":"8","total_pfas":36,"pfas_level":36,"notes":null,"regulation_gvt_link":"https://cumulis.epa.gov/supercpad/cursites/csitinfo.cfm?id=0505164","resources_link":"https://cumulis.epa.gov/supercpad/cursites/csitinfo.cfm?id=0505164","suspected_source_link":"https://dnr.wi.gov/botw/GetActivityDetail.do?dsn=588061&siteId=1095700&crumb=1","pfas_testing_link":"https://drive.google.com/file/d/1dDpuJ9eY7enbGF7tEg2f2kp-aZz7h2Z7/view?usp=drive_link","site_ref_link":"https://drive.google.com/drive/folders/1TCgrutDie24AJSrHd4pm3Ukblf3lZrib?usp=sharing","state_ref_link":"https://drive.google.com/drive/folders/16cPCO907bUFpX-CKzAj1EGj8_TD142PQ?usp=drive_link","ObjectId":1247}},{"type":"Feature","id":1257,"geometry":{"type":"Point","coordinates":[-88.712492,43.17714]},"properties":{"site_name":"Eaton Corporation Watertown","other_site_names":null,"state":"Wisconsin","industry":"Industry","matrix_type":"Groundwater","matrix":"Groundwater","year":2021,"pfoa":"14","pfos":"5","total_pfas":53,"pfas_level":53,"notes":null,"regulation_gvt_link":null,"resources_link":null,"suspected_source_link":"https://dnr.wi.gov/botw/GetActivityDetail.do?dsn=587520&siteId=33927900&crumb=1","pfas_testing_link":"https://drive.google.com/file/d/1yCi11pFuFGEDTLmWBHRp7odW0rLpZmZJ/view?usp=sharing","site_ref_link":"https://drive.google.com/drive/u/0/folders/1qbHC9znu6SVSe8V6NiTIWz8xTeIkfZc9","state_ref_link":null,"ObjectId":1257}},{"type":"Feature","id":1296,"geometry":{"type":"Point","coordinates":[-89.183072,45.02948]},"properties":{"site_name":"Wagner Oil Spill STH 45","other_site_names":null,"state":"Wisconsin","industry":"Other","matrix_type":"Groundwater","matrix":"Groundwater","year":2021,"pfoa":"580","pfos":"5","total_pfas":null,"pfas_level":580,"notes":null,"regulation_gvt_link":null,"resources_link":null,"suspected_source_link":"https://dnr.wi.gov/botw/GetActivityDetail.do?dsn=577387&siteId=28907900&crumb=1","pfas_testing_link":"https://drive.google.com/file/d/1Toj8Pxg9XrjhmfcDHpdiT54MgkVA2Im6/view?usp=sharing","site_ref_link":"https://drive.google.com/drive/folders/1F7Uqaguouos6QFkUagBldH2SqqPUhhQn?usp=sharing","state_ref_link":null,"ObjectId":1296}},{"type":"Feature","id":1315,"geometry":{"type":"Point","coordinates":[-87.616592,45.097759]},"properties":{"site_name":"JCI/Tyco Fire Technology Center","other_site_names":"Tyco-Ansul Fire Technology Center","state":"Wisconsin","industry":"Fire Department/Training Facility","matrix_type":"Groundwater","matrix":"Groundwater","year":2019,"pfoa":"43,000","pfos":"10,000","total_pfas":60736,"pfas_level":60736,"notes":"Tyco Fire Products is being held responsible for the contamination","regulation_gvt_link":"https://dnr.wi.gov/news/releases/article/?id=5234\nhttps://dnr.wi.gov/topic/contaminants/marinette.html","resources_link":"https://www.wehnonline.org/pfas\nhttps://dnr.wi.gov/topic/Contaminants/PFAS.html \ncswab.org","suspected_source_link":"https://dnr.wi.gov/botw/GetActivityDetail.do?dsn=580694&siteId=1552500&crumb=1","pfas_testing_link":"https://drive.google.com/file/d/1Zb83L110PHNhXAPCl5RqzYQxTLe9Sv8a/view?usp=sharing","site_ref_link":"https://drive.google.com/drive/u/0/folders/1l02EBhBrjx9WicYFkwfp6rsw1rtPpMuW","state_ref_link":"https://drive.google.com/drive/folders/1jJQ9yj0v4F-uS3q-WO91RAcoKlPt6Y1z","ObjectId":1315}},{"type":"Feature","id":1373,"geometry":{"type":"Point","coordinates":[-91.263737,43.875541]},"properties":{"site_name":"La Crosse Regional Airport","other_site_names":null,"state":"Wisconsin","industry":"Airport","matrix_type":"Groundwater","matrix":"Groundwater","year":2020,"pfoa":null,"pfos":null,"total_pfas":15,"pfas_level":15,"notes":"Jet plane crash, jet fuel spill, AFFF used at testing site and former airport fire station","regulation_gvt_link":"https://www.cityoflacrosse.org/city-services/private-potable-well-sampling-for-pfas","resources_link":"https://www.cityoflacrosse.org/city-services/private-potable-well-sampling-for-pfas","suspected_source_link":"https://www.cityoflacrosse.org/city-services/private-potable-well-sampling-for-pfas","pfas_testing_link":"https://dnr.wi.gov/botw/GetActivityDetail.do?detailSeqNo=32998","site_ref_link":"https://drive.google.com/drive/folders/1H-CDSCq5qi1888hwhfKuH3NWeOJgbcKS","state_ref_link":"https://drive.google.com/drive/folders/1jJQ9yj0v4F-uS3q-WO91RAcoKlPt6Y1z","ObjectId":1373}},{"type":"Feature","id":1451,"geometry":{"type":"Point","coordinates":[-88.056302,44.583637]},"properties":{"site_name":"The Solberg Company","other_site_names":null,"state":"Wisconsin","industry":"Industry","matrix_type":"Groundwater","matrix":"Groundwater","year":2020,"pfoa":"133","pfos":null,"total_pfas":null,"pfas_level":133,"notes":null,"regulation_gvt_link":null,"resources_link":null,"suspected_source_link":"https://dnr.wi.gov/botw/GetActivityDetail.do?dsn=587486&siteId=24676500&crumb=1","pfas_testing_link":"https://drive.google.com/file/d/1gg4BVfSkkc7bOfJeDy7ns42fR3tfTksE/view?usp=sharing","site_ref_link":"https://drive.google.com/drive/folders/12Av4TV_B0kTf1ScSvUwF2PuOQN5eHmtF?usp=sharing","state_ref_link":null,"ObjectId":1451}},{"type":"Feature","id":1466,"geometry":{"type":"Point","coordinates":[-87.900761,43.024971]},"properties":{"site_name":"Milwaukee Estuary","other_site_names":null,"state":"Wisconsin","industry":"Unknown","matrix_type":"Other Water","matrix":"Surface Water","year":2020,"pfoa":"7","pfos":"33","total_pfas":185,"pfas_level":185,"notes":"News Article: https://dnr.wi.gov/news/releases/article/?id=5122 ","regulation_gvt_link":null,"resources_link":"https://dnr.wi.gov/botw/GetActivityDetail.do?adn=0241585337&siteId=32821900&crumb=1&search=b","suspected_source_link":"https://dnr.wi.gov/botw/SetUpBasicSearchForm.do","pfas_testing_link":"https://dnr.wi.gov/botw/DownloadBlobFile.do?docSeqNo=155101&docName=20200309_99_Surface_Water_PFAS_Concentrations.xlsx","site_ref_link":"https://drive.google.com/drive/u/0/folders/1iPu5rLq6ZhuGYnBNsPmCXIVFxsG2TrTe","state_ref_link":"https://drive.google.com/drive/folders/1jJQ9yj0v4F-uS3q-WO91RAcoKlPt6Y1z","ObjectId":1466}},{"type":"Feature","id":1476,"geometry":{"type":"Point","coordinates":[-89.333407,43.131877]},"properties":{"site_name":"Wang F35 Building Constructions","other_site_names":null,"state":"Wisconsin","industry":"Other","matrix_type":"Groundwater","matrix":"Groundwater","year":2020,"pfoa":"103","pfos":"235","total_pfas":null,"pfas_level":235,"notes":null,"regulation_gvt_link":null,"resources_link":null,"suspected_source_link":"https://dnr.wi.gov/botw/GetActivityDetail.do?dsn=585319&siteId=32817900&crumb=1","pfas_testing_link":"https://drive.google.com/file/d/1acbboc5GYkuKDgXvPrXVxrwWkX1l0EuV/view?usp=sharing","site_ref_link":"https://drive.google.com/drive/folders/1GatAKU0_BrFHcFJ6-Xr1CoOceZKSh2D1?usp=sharing","state_ref_link":null,"ObjectId":1476}},{"type":"Feature","id":1510,"geometry":{"type":"Point","coordinates":[-89.558337,45.642145]},"properties":{"site_name":"Rhinelander Landfill","other_site_names":null,"state":"Wisconsin","industry":"Landfill","matrix_type":"Other Water","matrix":"Leachate","year":2020,"pfoa":"99","pfos":"6","total_pfas":518,"pfas_level":518,"notes":null,"regulation_gvt_link":"N/A","resources_link":"https://dnr.wisconsin.gov/topic/PFAS","suspected_source_link":"https://starjournalnow.com/2020/12/23/testing-shows-only-trace-amounts-of-pfas-discharging-from-old-rhinelander-landfill/","pfas_testing_link":"http://www.rhinelandercityhall.org/uploads/Other%20Departments/Landfill%20PFAS%20Results%20and%20News%20Release.pdf","site_ref_link":"https://drive.google.com/drive/folders/1FxONfiPuBBDtcSVnXmLwfV9viPrqPT99?usp=sharing","state_ref_link":"https://drive.google.com/drive/folders/1jJQ9yj0v4F-uS3q-WO91RAcoKlPt6Y1z","ObjectId":1510}},{"type":"Feature","id":1540,"geometry":{"type":"Point","coordinates":[-88.086155,43.952656]},"properties":{"site_name":"Tecumseh Products","other_site_names":null,"state":"Wisconsin","industry":"Industry","matrix_type":"Groundwater","matrix":"Groundwater","year":2020,"pfoa":"14","pfos":"940","total_pfas":1201,"pfas_level":1201,"notes":"Source of contamination was chromium plating line. ","regulation_gvt_link":null,"resources_link":"https://dnr.wi.gov/botw/GetActivityDetail.do?adn=0208585623&siteId=636100&crumb=1&search=b","suspected_source_link":"https://dnr.wi.gov/botw/SetUpBasicSearchForm.do","pfas_testing_link":"https://dnr.wi.gov/botw/GetActivityDetail.do?adn=0208585623&siteId=636100&crumb=1&search=b","site_ref_link":"https://drive.google.com/drive/folders/1ttR6e_cjruCwjc7bd3g3pzkwODkoMXZa?usp=sharing","state_ref_link":"https://drive.google.com/drive/folders/1jJQ9yj0v4F-uS3q-WO91RAcoKlPt6Y1z","ObjectId":1540}},{"type":"Feature","id":1567,"geometry":{"type":"Point","coordinates":[-87.614036,45.097946]},"properties":{"site_name":"ChemDesign Products Inc.","other_site_names":null,"state":"Wisconsin","industry":"Industry","matrix_type":"Wastewater","matrix":"Wastewater","year":2020,"pfoa":"2,900","pfos":"640","total_pfas":3540,"pfas_level":3540,"notes":"PFAS detected in groundwater","regulation_gvt_link":null,"resources_link":null,"suspected_source_link":"https://dnr.wi.gov/botw/GetActivityDetail.do?dsn=583852&siteId=1099500&crumb=1","pfas_testing_link":"https://www.wispolitics.com/wp-content/uploads/2024/09/240918ChemDesignNOVs.pdf","site_ref_link":"https://drive.google.com/drive/folders/1HXsnN_Rj0idMMp3aBK8HVxkxbVudHqKc?usp=drive_link","state_ref_link":"https://drive.google.com/drive/folders/16cPCO907bUFpX-CKzAj1EGj8_TD142PQ?usp=drive_link","ObjectId":1567}},{"type":"Feature","id":1805,"geometry":{"type":"Point","coordinates":[-89.049089,42.976007]},"properties":{"site_name":"Rockgen Energy Center","other_site_names":null,"state":"Wisconsin","industry":"Other","matrix_type":"Groundwater","matrix":"Groundwater","year":2021,"pfoa":"900","pfos":"17","total_pfas":null,"pfas_level":900,"notes":null,"regulation_gvt_link":null,"resources_link":null,"suspected_source_link":"https://dnr.wi.gov/botw/GetActivityDetail.do?dsn=587341&siteId=7890100&crumb=1","pfas_testing_link":"https://drive.google.com/file/d/1_BcvOAy8vxkYGZjpdFe-fwtspWY68GD5/view?usp=sharing","site_ref_link":"https://drive.google.com/drive/folders/16ZY7_V5AWmxWOCSn8mjbsKa-s2McdJHV?usp=sharing","state_ref_link":null,"ObjectId":1805}},{"type":"Feature","id":1821,"geometry":{"type":"Point","coordinates":[-88.032069,44.490372]},"properties":{"site_name":"Georgia-Pacific","other_site_names":null,"state":"Wisconsin","industry":"Industry","matrix_type":"Groundwater","matrix":"Groundwater","year":2021,"pfoa":"644","pfos":"2,220","total_pfas":3490,"pfas_level":3490,"notes":"Source of contamination was paper manufacturing. ","regulation_gvt_link":null,"resources_link":"https://dnr.wi.gov/botw/GetActivityDetail.do?adn=0205586429&siteId=1898800&crumb=1&search=b","suspected_source_link":"https://dnr.wi.gov/botw/SetUpBasicSearchForm.do","pfas_testing_link":"https://drive.google.com/file/d/1iTslDnK-ZmEwQuBAvow_yxhzcBag_xLc/view?usp=sharing","site_ref_link":"https://drive.google.com/drive/u/0/folders/1dMaecNegzLL0yXKhRZu8xlwXLJcGWiy-","state_ref_link":"https://drive.google.com/drive/folders/1jJQ9yj0v4F-uS3q-WO91RAcoKlPt6Y1z","ObjectId":1821}},{"type":"Feature","id":1832,"geometry":{"type":"Point","coordinates":[-91.457943,44.757089]},"properties":{"site_name":"WRR Environmental ERVCS","other_site_names":null,"state":"Wisconsin","industry":"AFFF","matrix_type":"Groundwater","matrix":"Groundwater","year":2021,"pfoa":"3,800","pfos":"2,300","total_pfas":20905,"pfas_level":20905,"notes":"AFFF used to suppress fires at the WRR facility on Ryder Road\nin 2007 and 2010.","regulation_gvt_link":null,"resources_link":null,"suspected_source_link":"https://dnr.wi.gov/botw/GetActivityDetail.do?dsn=587957&siteId=1529200&crumb=1","pfas_testing_link":"https://drive.google.com/file/d/1R8A9lSZMLY4IIokxY1i6BPClrSGpiMFs/view?usp=sharing","site_ref_link":"https://drive.google.com/drive/u/0/folders/1bGhl3Tn8T1ZbYLCL2oc4ca8OU42ZJKmv","state_ref_link":null,"ObjectId":1832}},{"type":"Feature","id":1839,"geometry":{"type":"Point","coordinates":[-89.334609,43.133637]},"properties":{"site_name":"Truax Field Air National Guard Base","other_site_names":"Starkweather Creek Truax Field","state":"Wisconsin","industry":"Military","matrix_type":"Groundwater","matrix":"Groundwater","year":2021,"pfoa":"39000","pfos":"841","total_pfas":null,"pfas_level":39000,"notes":null,"regulation_gvt_link":null,"resources_link":null,"suspected_source_link":"https://dnr.wi.gov/botw/GetActivityDetail.do?dsn=584369&siteId=32315900&crumb=1","pfas_testing_link":"https://drive.google.com/file/d/1lkEXk3IT2BGcH0vj9zUuWEjRx9vRFPAD/view?usp=drive_link","site_ref_link":"https://drive.google.com/drive/folders/1bAUHdwsAlhDvJL2d2TABXvTfY399X4gT?usp=sharing","state_ref_link":null,"ObjectId":1839}},{"type":"Feature","id":1869,"geometry":{"type":"Point","coordinates":[-87.4912,44.597]},"properties":{"site_name":"Algoma Municipal Landfill","other_site_names":null,"state":"Wisconsin","industry":"Waste","matrix_type":"Groundwater","matrix":"Groundwater","year":2022,"pfoa":"30","pfos":"5","total_pfas":36,"pfas_level":36,"notes":null,"regulation_gvt_link":null,"resources_link":null,"suspected_source_link":"https://cumulis.epa.gov/supercpad/SiteProfiles/index.cfm?fuseaction=second.Cleanup&id=0505095#bkground","pfas_testing_link":"https://semspub.epa.gov/work/05/989629.pdf","site_ref_link":"https://drive.google.com/drive/folders/1cjemo0AqVXBXKaalyV4WTOhXN4Jfbrky?usp=drive_link","state_ref_link":"https://drive.google.com/drive/folders/16cPCO907bUFpX-CKzAj1EGj8_TD142PQ?usp=drive_link","ObjectId":1869}},{"type":"Feature","id":1882,"geometry":{"type":"Point","coordinates":[-91.482916,44.862478]},"properties":{"site_name":"Chippewa Valley Airport","other_site_names":null,"state":"Wisconsin","industry":"Airport","matrix_type":"Groundwater","matrix":"Groundwater","year":2022,"pfoa":"2","pfos":"6","total_pfas":81,"pfas_level":81,"notes":"The DNR believes the Chippewa Valley Regional Airport is responsible in part, for the discharge of a hazardous substance or other environmental pollution (hereafter referred to as “contamination”) at the site. ","regulation_gvt_link":null,"resources_link":"https://apps.dnr.wi.gov/rrbotw/botw-activity-detail?dsn=588115","suspected_source_link":"https://apps.dnr.wi.gov/rrbotw/botw-activity-detail?dsn=588115","pfas_testing_link":"https://drive.google.com/file/d/17e1dcRbvkKnU2eymtAPoNqglWkhyE7fX/view?usp=drive_link","site_ref_link":"https://drive.google.com/drive/u/0/folders/1hDQWED0hGaOLc-5_v2HAs035Db8aUwQ_","state_ref_link":"https://drive.google.com/drive/folders/16cPCO907bUFpX-CKzAj1EGj8_TD142PQ?usp=drive_link","ObjectId":1882}},{"type":"Feature","id":1909,"geometry":{"type":"Point","coordinates":[-89.461845,45.62627]},"properties":{"site_name":"Rhinelander-Oneida County Airport","other_site_names":null,"state":"Wisconsin","industry":"Airport","matrix_type":"Groundwater","matrix":"Groundwater","year":2019,"pfoa":null,"pfos":null,"total_pfas":590,"pfas_level":590,"notes":"Spread of sewage sludge contaminated with PFAS by the City of Rhinelander from the city's wastewater treatment plant over the airport property as well as firefighting foam used at the airport and stored near the airport's main terminal (Meyer, 2020).","regulation_gvt_link":"N/A","resources_link":"https://dnr.wi.gov/botw/ViewNR700.do;jsessionid=TM8ZRB562nZCYH_IMYUQTym8zN6orkzeOduPIlt3D1fvtP33IvoC!1225810264?saprRespSN=24728","suspected_source_link":"https://www.wxpr.org/post/rhinelander-spread-tons-sludge-near-site-contaminated-wells-wxpr-investigation-finds#stream/0","pfas_testing_link":"https://www.wpr.org/researchers-look-ways-stop-flow-pfas-rhinelanders-water-supply","site_ref_link":"https://drive.google.com/drive/folders/1FxONfiPuBBDtcSVnXmLwfV9viPrqPT99?usp=sharing","state_ref_link":"https://drive.google.com/drive/folders/1jJQ9yj0v4F-uS3q-WO91RAcoKlPt6Y1z","ObjectId":1909}},{"type":"Feature","id":2004,"geometry":{"type":"Point","coordinates":[-89.387258,42.61436]},"properties":{"site_name":"Woodbridge Foam Corp Former","other_site_names":null,"state":"Wisconsin","industry":"AFFF","matrix_type":"Groundwater","matrix":"Groundwater","year":null,"pfoa":"50","pfos":"31","total_pfas":null,"pfas_level":50,"notes":null,"regulation_gvt_link":null,"resources_link":null,"suspected_source_link":"https://dnr.wi.gov/botw/GetActivityDetail.do?dsn=560101&siteId=982500&crumb=1","pfas_testing_link":"https://drive.google.com/file/d/1-Tc1NCDThHOZeYO6icSfYsosag6633dY/view?usp=sharing","site_ref_link":null,"state_ref_link":null,"ObjectId":2004}},{"type":"Feature","id":2440,"geometry":{"type":"Point","coordinates":[-90.677633,44.00895]},"properties":{"site_name":"US Army Reserve Fort McCoy","other_site_names":null,"state":"Wisconsin","industry":"Military","matrix_type":"Groundwater","matrix":"Groundwater","year":2017,"pfoa":"3400","pfos":"120000","total_pfas":128730,"pfas_level":128730,"notes":"AFFF used at Fort McCoy","regulation_gvt_link":"N/A","resources_link":"https://www.wehnonline.org/pfas\nhttps://dnr.wi.gov/topic/Contaminants/PFAS.html \ncswab.org","suspected_source_link":"https://cswab.org/toxic-compound-highest-in-groundwater-at-fort-mccoy/","pfas_testing_link":"https://drive.google.com/file/d/1SvEmZyCL8T3UY6tHgZJ3EU-DQ9lR70xF/view?usp=sharing","site_ref_link":"https://drive.google.com/drive/u/0/folders/1mUBAaAIQKs5_eqEaP_Ga58PeAVh9lLVJ","state_ref_link":"https://drive.google.com/drive/folders/1jJQ9yj0v4F-uS3q-WO91RAcoKlPt6Y1z","ObjectId":2440}},{"type":"Feature","id":2441,"geometry":{"type":"Point","coordinates":[-87.616592,45.097759]},"properties":{"site_name":"JCI/Tyco Fire Technology Center","other_site_names":"Tyco-Ansul Fire Technology Center","state":"Wisconsin","industry":"Fire Department/Training Facility","matrix_type":"Groundwater","matrix":"Groundwater","year":2019,"pfoa":"43000","pfos":"10000","total_pfas":60736,"pfas_level":60736,"notes":"Tyco Fire Products is being held responsible for the contamination","regulation_gvt_link":"https://dnr.wi.gov/news/releases/article/?id=5234\nhttps://dnr.wi.gov/topic/contaminants/marinette.html","resources_link":"https://www.wehnonline.org/pfas\nhttps://dnr.wi.gov/topic/Contaminants/PFAS.html \ncswab.org","suspected_source_link":"https://dnr.wi.gov/botw/GetActivityDetail.do?dsn=580694&siteId=1552500&crumb=1","pfas_testing_link":"https://drive.google.com/file/d/1Zb83L110PHNhXAPCl5RqzYQxTLe9Sv8a/view?usp=sharing","site_ref_link":"https://drive.google.com/drive/u/0/folders/1l02EBhBrjx9WicYFkwfp6rsw1rtPpMuW","state_ref_link":"https://drive.google.com/drive/folders/1jJQ9yj0v4F-uS3q-WO91RAcoKlPt6Y1z","ObjectId":2441}},{"type":"Feature","id":2442,"geometry":{"type":"Point","coordinates":[-87.896646,42.947553]},"properties":{"site_name":"General Mitchell Air National Guard Base","other_site_names":"General Mitchell International Airport, Wisconsin Air National Guard 128th Air Refueling Wing","state":"Wisconsin","industry":"Military","matrix_type":"Groundwater","matrix":"Groundwater","year":2018,"pfoa":"4840","pfos":"21000","total_pfas":169467,"pfas_level":169467,"notes":"AFFF used at General Mitchell Air Reserve Station","regulation_gvt_link":"N/A","resources_link":"https://www.wehnonline.org/pfas\nhttps://dnr.wi.gov/topic/Contaminants/PFAS.html \ncswab.org","suspected_source_link":"https://drive.google.com/file/d/1EUMAiROzk8OxvPAWubv0xGGH9zI6mw4d/view?usp=drive_link ","pfas_testing_link":"https://drive.google.com/file/d/1gd7EUjgXMqVqnDgp6NpisOnuYoWaTRnF/view?usp=sharing","site_ref_link":"https://drive.google.com/drive/folders/1d38_OedFdTuaKD4t-zes1wt0da5wkdKZ","state_ref_link":"https://drive.google.com/drive/folders/1jJQ9yj0v4F-uS3q-WO91RAcoKlPt6Y1z","ObjectId":2442}},{"type":"Feature","id":2443,"geometry":{"type":"Point","coordinates":[-90.263021,43.926918]},"properties":{"site_name":"Volk Field Air National Guard Base","other_site_names":null,"state":"Wisconsin","industry":"Military","matrix_type":"Groundwater","matrix":"Groundwater","year":2016,"pfoa":"5700","pfos":"23000","total_pfas":43971,"pfas_level":43971,"notes":"AFFF used at Volk Field ANGB","regulation_gvt_link":"N/A","resources_link":"https://www.wehnonline.org/pfas\nhttps://dnr.wi.gov/topic/Contaminants/PFAS.html \ncswab.org","suspected_source_link":"https://cswab.org/wp-content/uploads/2018/12/Wisconsin-Map-PFAS-Statewide-Truax-Madison-WSJ-Dec-2018.pdf","pfas_testing_link":"https://drive.google.com/file/d/19mPmPXavCe4-FYUUDLdEY3V-TK8IrqIK/view?usp=sharing","site_ref_link":"https://drive.google.com/drive/folders/1G1GcJpNHrf5-ri4SYS6Kd29Sv84-oml1","state_ref_link":"https://drive.google.com/drive/folders/1jJQ9yj0v4F-uS3q-WO91RAcoKlPt6Y1z","ObjectId":2443}},{"type":"Feature","id":2444,"geometry":{"type":"Point","coordinates":[-89.333324,43.128409]},"properties":{"site_name":"Truax Air National Guard Base","other_site_names":"Dane County Regional Airport","state":"Wisconsin","industry":"Military","matrix_type":"Groundwater","matrix":"Groundwater","year":2017,"pfoa":"841","pfos":"39000","total_pfas":49818,"pfas_level":49818,"notes":"AFFF used at Truax Field ANGB and Dane County Regional Airport","regulation_gvt_link":"https://www.publichealthmdc.com/environmental-health/environmental-hazards/per-and-polyfluoroalkyl-substances-pfas-1#:~:text=Dane%20County%20Regional%20Airport%20Stormwater,and%20cleanup%20of%20the%20site.","resources_link":"https://www.wehnonline.org/pfas\nhttps://dnr.wi.gov/topic/Contaminants/PFAS.html \ncswab.org","suspected_source_link":"https://www.msnairport.com/about/ecomentality/PFAS-Information","pfas_testing_link":"https://drive.google.com/file/d/1BYUpR4z36c8nMdWICOwTfVtgCog4947c/view?usp=sharing","site_ref_link":"https://drive.google.com/drive/folders/1JhXpayJUhHRgqu5yWCXvORyyWQxVd5kx","state_ref_link":"https://drive.google.com/drive/folders/1jJQ9yj0v4F-uS3q-WO91RAcoKlPt6Y1z","ObjectId":2444}},{"type":"Feature","id":2617,"geometry":{"type":"Point","coordinates":[-88.032069,44.490372]},"properties":{"site_name":"Georgia-Pacific","other_site_names":null,"state":"Wisconsin","industry":"Industry","matrix_type":"Groundwater","matrix":"Groundwater","year":2021,"pfoa":"644","pfos":"2220","total_pfas":3490,"pfas_level":3490,"notes":"Source of contamination was paper manufacturing. ","regulation_gvt_link":null,"resources_link":"https://dnr.wi.gov/botw/GetActivityDetail.do?adn=0205586429&siteId=1898800&crumb=1&search=b","suspected_source_link":"https://dnr.wi.gov/botw/SetUpBasicSearchForm.do","pfas_testing_link":"https://drive.google.com/file/d/1iTslDnK-ZmEwQuBAvow_yxhzcBag_xLc/view?usp=sharing","site_ref_link":"https://drive.google.com/drive/u/0/folders/1dMaecNegzLL0yXKhRZu8xlwXLJcGWiy-","state_ref_link":"https://drive.google.com/drive/folders/1jJQ9yj0v4F-uS3q-WO91RAcoKlPt6Y1z","ObjectId":2617}},{"type":"Feature","id":2618,"geometry":{"type":"Point","coordinates":[-88.086155,43.952656]},"properties":{"site_name":"Tecumseh Products","other_site_names":null,"state":"Wisconsin","industry":"Industry","matrix_type":"Groundwater","matrix":"Groundwater","year":2020,"pfoa":"14","pfos":"940","total_pfas":1201,"pfas_level":1201,"notes":"Source of contamination was chromium plating line. ","regulation_gvt_link":null,"resources_link":"https://dnr.wi.gov/botw/GetActivityDetail.do?adn=0208585623&siteId=636100&crumb=1&search=b","suspected_source_link":"https://dnr.wi.gov/botw/SetUpBasicSearchForm.do","pfas_testing_link":"https://dnr.wi.gov/botw/GetActivityDetail.do?adn=0208585623&siteId=636100&crumb=1&search=b","site_ref_link":"https://drive.google.com/drive/folders/1ttR6e_cjruCwjc7bd3g3pzkwODkoMXZa?usp=sharing","state_ref_link":"https://drive.google.com/drive/folders/1jJQ9yj0v4F-uS3q-WO91RAcoKlPt6Y1z","ObjectId":2618}},{"type":"Feature","id":2619,"geometry":{"type":"Point","coordinates":[-91.483524,46.013461]},"properties":{"site_name":"Hayward TNG Site","other_site_names":null,"state":"Wisconsin","industry":"Military","matrix_type":"Other Water","matrix":"Drinking Water","year":2018,"pfoa":null,"pfos":null,"total_pfas":1,"pfas_level":1,"notes":null,"regulation_gvt_link":null,"resources_link":null,"suspected_source_link":"https://drive.google.com/file/d/1g1t60FsMLcfluvkLqorqlbsHnkF_rNZw/view?usp=sharing","pfas_testing_link":"https://drive.google.com/file/d/1g1t60FsMLcfluvkLqorqlbsHnkF_rNZw/view?usp=sharing","site_ref_link":"https://drive.google.com/drive/u/0/folders/17vc5JX3Gvo92Bih-kg-GABnBbExIJhXg","state_ref_link":"https://drive.google.com/drive/u/0/folders/1McBSeX2VTKGuIpe-IdaFYayBBQsc8_kn","ObjectId":2619}},{"type":"Feature","id":2620,"geometry":{"type":"Point","coordinates":[-87.900761,43.024971]},"properties":{"site_name":"Milwaukee Estuary","other_site_names":null,"state":"Wisconsin","industry":"Unknown","matrix_type":"Other Water","matrix":"Surface Water","year":2020,"pfoa":"7","pfos":"33","total_pfas":185,"pfas_level":185,"notes":"News Article: https://dnr.wi.gov/news/releases/article/?id=5122 ","regulation_gvt_link":null,"resources_link":"https://dnr.wi.gov/botw/GetActivityDetail.do?adn=0241585337&siteId=32821900&crumb=1&search=b","suspected_source_link":"https://dnr.wi.gov/botw/SetUpBasicSearchForm.do","pfas_testing_link":"https://dnr.wi.gov/botw/DownloadBlobFile.do?docSeqNo=155101&docName=20200309_99_Surface_Water_PFAS_Concentrations.xlsx","site_ref_link":"https://drive.google.com/drive/u/0/folders/1iPu5rLq6ZhuGYnBNsPmCXIVFxsG2TrTe","state_ref_link":"https://drive.google.com/drive/folders/1jJQ9yj0v4F-uS3q-WO91RAcoKlPt6Y1z","ObjectId":2620}},{"type":"Feature","id":3031,"geometry":{"type":"Point","coordinates":[-88.072659,44.489463]},"properties":{"site_name":"Ashview Terrace Apartments","other_site_names":null,"state":"Wisconsin","industry":"Unknown","matrix_type":"Groundwater","matrix":"Groundwater","year":2021,"pfoa":"23","pfos":"3","total_pfas":null,"pfas_level":23,"notes":null,"regulation_gvt_link":null,"resources_link":null,"suspected_source_link":"https://dnr.wi.gov/botw/GetActivityDetail.do?dsn=564043&siteId=28154000&crumb=1","pfas_testing_link":"https://drive.google.com/file/d/1PTSrdqAMdvOALO_GFF715iXUBsJJfRWH/view?usp=sharing","site_ref_link":"https://drive.google.com/drive/u/0/folders/1xMpNarNNyf9phg3BgtHmNj3CEDvMmef5","state_ref_link":"https://drive.google.com/drive/u/0/folders/16cPCO907bUFpX-CKzAj1EGj8_TD142PQ","ObjectId":3031}},{"type":"Feature","id":3032,"geometry":{"type":"Point","coordinates":[-89.35187,43.113756]},"properties":{"site_name":"Burke Wastewater Treatment PLT (FMR)","other_site_names":null,"state":"Wisconsin","industry":"WWTP","matrix_type":"Groundwater","matrix":"Groundwater","year":2019,"pfoa":"25","pfos":"23","total_pfas":null,"pfas_level":25,"notes":null,"regulation_gvt_link":null,"resources_link":null,"suspected_source_link":"https://dnr.wi.gov/botw/GetActivityDetail.do?dsn=315773&siteId=8744100&crumb=1","pfas_testing_link":"https://drive.google.com/file/d/17B0S3Hpva_5nmC66LPwJkat2l_EnCAhH/view?usp=sharing","site_ref_link":"https://drive.google.com/drive/folders/1rZuhwoK57gWGvcMxGSW_QjE28ymDSN5o?usp=sharing","state_ref_link":null,"ObjectId":3032}},{"type":"Feature","id":3033,"geometry":{"type":"Point","coordinates":[-91.482916,44.862478]},"properties":{"site_name":"Chippewa Valley Airport","other_site_names":null,"state":"Wisconsin","industry":"Airport","matrix_type":"Groundwater","matrix":"Groundwater","year":2022,"pfoa":"2","pfos":"6","total_pfas":81,"pfas_level":81,"notes":"The DNR believes the Chippewa Valley Regional Airport is responsible in part, for the discharge of a hazardous substance or other environmental pollution (hereafter referred to as “contamination”) at the site. ","regulation_gvt_link":null,"resources_link":"https://apps.dnr.wi.gov/rrbotw/botw-activity-detail?dsn=588115","suspected_source_link":"https://apps.dnr.wi.gov/rrbotw/botw-activity-detail?dsn=588115","pfas_testing_link":"https://drive.google.com/file/d/17e1dcRbvkKnU2eymtAPoNqglWkhyE7fX/view?usp=drive_link","site_ref_link":"https://drive.google.com/drive/u/0/folders/1hDQWED0hGaOLc-5_v2HAs035Db8aUwQ_","state_ref_link":"https://drive.google.com/drive/folders/16cPCO907bUFpX-CKzAj1EGj8_TD142PQ?usp=drive_link","ObjectId":3033}},{"type":"Feature","id":3034,"geometry":{"type":"Point","coordinates":[-88.712492,43.17714]},"properties":{"site_name":"Eaton Corporation Watertown","other_site_names":null,"state":"Wisconsin","industry":"Industry","matrix_type":"Groundwater","matrix":"Groundwater","year":2021,"pfoa":"14","pfos":"5","total_pfas":53,"pfas_level":53,"notes":null,"regulation_gvt_link":null,"resources_link":null,"suspected_source_link":"https://dnr.wi.gov/botw/GetActivityDetail.do?dsn=587520&siteId=33927900&crumb=1","pfas_testing_link":"https://drive.google.com/file/d/1yCi11pFuFGEDTLmWBHRp7odW0rLpZmZJ/view?usp=sharing","site_ref_link":"https://drive.google.com/drive/u/0/folders/1qbHC9znu6SVSe8V6NiTIWz8xTeIkfZc9","state_ref_link":null,"ObjectId":3034}},{"type":"Feature","id":3035,"geometry":{"type":"Point","coordinates":[-91.502312,44.858571]},"properties":{"site_name":"EAU Claire Well Field","other_site_names":"National Presto Industries Superfund site","state":"Wisconsin","industry":"Industry","matrix_type":"Groundwater","matrix":"Groundwater","year":2021,"pfoa":"2","pfos":"8","total_pfas":36,"pfas_level":36,"notes":null,"regulation_gvt_link":"https://cumulis.epa.gov/supercpad/cursites/csitinfo.cfm?id=0505164","resources_link":"https://cumulis.epa.gov/supercpad/cursites/csitinfo.cfm?id=0505164","suspected_source_link":"https://dnr.wi.gov/botw/GetActivityDetail.do?dsn=588061&siteId=1095700&crumb=1","pfas_testing_link":"https://drive.google.com/file/d/1dDpuJ9eY7enbGF7tEg2f2kp-aZz7h2Z7/view?usp=drive_link","site_ref_link":"https://drive.google.com/drive/folders/1TCgrutDie24AJSrHd4pm3Ukblf3lZrib?usp=sharing","state_ref_link":"https://drive.google.com/drive/folders/16cPCO907bUFpX-CKzAj1EGj8_TD142PQ?usp=drive_link","ObjectId":3035}},{"type":"Feature","id":3036,"geometry":{"type":"Point","coordinates":[-87.721146,44.060431]},"properties":{"site_name":"Former Town of Newton Gravel Pit","other_site_names":"Manitowoc City","state":"Wisconsin","industry":"Superfund Site","matrix_type":"Groundwater","matrix":"Groundwater","year":2018,"pfoa":"380","pfos":"39","total_pfas":583,"pfas_level":583,"notes":null,"regulation_gvt_link":null,"resources_link":null,"suspected_source_link":"https://dnr.wi.gov/botw/GetActivityDetail.do?dsn=33760&siteId=2693600&crumb=1","pfas_testing_link":"https://drive.google.com/file/d/1MEUFDAEEMIUbrLUvYpHTzTbiv4Zf9R26/view?usp=sharing","site_ref_link":"https://drive.google.com/drive/u/0/folders/1AfPYfk5iY-_ef0IXy3T6CaYpgjwwhZ3L","state_ref_link":null,"ObjectId":3036}},{"type":"Feature","id":3037,"geometry":{"type":"Point","coordinates":[-89.375306,43.079761]},"properties":{"site_name":"MG&E Substation ATC Transformer Fire","other_site_names":null,"state":"Wisconsin","industry":"AFFF","matrix_type":"Other Water","matrix":"Surface Water","year":2019,"pfoa":"97","pfos":"135","total_pfas":null,"pfas_level":135,"notes":null,"regulation_gvt_link":null,"resources_link":null,"suspected_source_link":"https://dnr.wi.gov/botw/GetActivityDetail.do?dsn=584085&siteId=7889500&crumb=1","pfas_testing_link":"https://drive.google.com/file/d/1ldmlxUIgKLNpeVg7uKTvMwIoN8o5EvcY/view?usp=sharing","site_ref_link":"https://drive.google.com/drive/folders/1afbIe2FNPgGiTCInSvOW3j83WKHbeHfA?usp=sharing","state_ref_link":null,"ObjectId":3037}},{"type":"Feature","id":3038,"geometry":{"type":"Point","coordinates":[-88.153526,44.034294]},"properties":{"site_name":"Mirro CO PLT #20 (FORMER)","other_site_names":null,"state":"Wisconsin","industry":"Industry","matrix_type":"Groundwater","matrix":"Groundwater","year":2018,"pfoa":"1","pfos":"4","total_pfas":null,"pfas_level":4,"notes":null,"regulation_gvt_link":null,"resources_link":null,"suspected_source_link":"https://dnr.wi.gov/botw/GetActivityDetail.do?dsn=520157&siteId=581900&crumb=1","pfas_testing_link":"https://drive.google.com/file/d/1ff0Z9jFBol5wOSPdrbGtC4KLNbbdu8K-/view?usp=sharing","site_ref_link":null,"state_ref_link":null,"ObjectId":3038}},{"type":"Feature","id":3039,"geometry":{"type":"Point","coordinates":[-89.049089,42.976007]},"properties":{"site_name":"Rockgen Energy Center","other_site_names":null,"state":"Wisconsin","industry":"Other","matrix_type":"Groundwater","matrix":"Groundwater","year":2021,"pfoa":"900","pfos":"17","total_pfas":null,"pfas_level":900,"notes":null,"regulation_gvt_link":null,"resources_link":null,"suspected_source_link":"https://dnr.wi.gov/botw/GetActivityDetail.do?dsn=587341&siteId=7890100&crumb=1","pfas_testing_link":"https://drive.google.com/file/d/1_BcvOAy8vxkYGZjpdFe-fwtspWY68GD5/view?usp=sharing","site_ref_link":"https://drive.google.com/drive/folders/16ZY7_V5AWmxWOCSn8mjbsKa-s2McdJHV?usp=sharing","state_ref_link":null,"ObjectId":3039}},{"type":"Feature","id":3040,"geometry":{"type":"Point","coordinates":[-89.334609,43.133637]},"properties":{"site_name":"Truax Field Air National Guard Base","other_site_names":"Starkweather Creek Truax Field","state":"Wisconsin","industry":"Military","matrix_type":"Groundwater","matrix":"Groundwater","year":2021,"pfoa":"39000","pfos":"841","total_pfas":null,"pfas_level":39000,"notes":null,"regulation_gvt_link":null,"resources_link":null,"suspected_source_link":"https://dnr.wi.gov/botw/GetActivityDetail.do?dsn=584369&siteId=32315900&crumb=1","pfas_testing_link":"https://drive.google.com/file/d/1lkEXk3IT2BGcH0vj9zUuWEjRx9vRFPAD/view?usp=drive_link","site_ref_link":"https://drive.google.com/drive/folders/1bAUHdwsAlhDvJL2d2TABXvTfY399X4gT?usp=sharing","state_ref_link":null,"ObjectId":3040}},{"type":"Feature","id":3041,"geometry":{"type":"Point","coordinates":[-92.070344,46.690025]},"properties":{"site_name":"Superior Refining Company LLC","other_site_names":null,"state":"Wisconsin","industry":"Industry","matrix_type":"Groundwater","matrix":"Groundwater","year":2018,"pfoa":"670","pfos":"740","total_pfas":null,"pfas_level":740,"notes":null,"regulation_gvt_link":null,"resources_link":null,"suspected_source_link":"https://dnr.wi.gov/botw/GetActivityDetail.do?dsn=581317&siteId=666100&crumb=1","pfas_testing_link":"https://drive.google.com/file/d/1JSx4z7Q2qgdFbCgkNNiuhwp0bN8yibe5/view?usp=sharing","site_ref_link":"https://drive.google.com/drive/folders/174nXpGwHgKqbhw6PlVvGczAljJ79X0em?usp=sharing","state_ref_link":null,"ObjectId":3041}},{"type":"Feature","id":3042,"geometry":{"type":"Point","coordinates":[-88.056302,44.583637]},"properties":{"site_name":"The Solberg Company","other_site_names":null,"state":"Wisconsin","industry":"Industry","matrix_type":"Groundwater","matrix":"Groundwater","year":2020,"pfoa":"133","pfos":null,"total_pfas":null,"pfas_level":133,"notes":null,"regulation_gvt_link":null,"resources_link":null,"suspected_source_link":"https://dnr.wi.gov/botw/GetActivityDetail.do?dsn=587486&siteId=24676500&crumb=1","pfas_testing_link":"https://drive.google.com/file/d/1gg4BVfSkkc7bOfJeDy7ns42fR3tfTksE/view?usp=sharing","site_ref_link":"https://drive.google.com/drive/folders/12Av4TV_B0kTf1ScSvUwF2PuOQN5eHmtF?usp=sharing","state_ref_link":null,"ObjectId":3042}},{"type":"Feature","id":3043,"geometry":{"type":"Point","coordinates":[-89.183072,45.02948]},"properties":{"site_name":"Wagner Oil Spill STH 45","other_site_names":null,"state":"Wisconsin","industry":"Other","matrix_type":"Groundwater","matrix":"Groundwater","year":2021,"pfoa":"580","pfos":"5","total_pfas":null,"pfas_level":580,"notes":null,"regulation_gvt_link":null,"resources_link":null,"suspected_source_link":"https://dnr.wi.gov/botw/GetActivityDetail.do?dsn=577387&siteId=28907900&crumb=1","pfas_testing_link":"https://drive.google.com/file/d/1Toj8Pxg9XrjhmfcDHpdiT54MgkVA2Im6/view?usp=sharing","site_ref_link":"https://drive.google.com/drive/folders/1F7Uqaguouos6QFkUagBldH2SqqPUhhQn?usp=sharing","state_ref_link":null,"ObjectId":3043}},{"type":"Feature","id":3044,"geometry":{"type":"Point","coordinates":[-89.333407,43.131877]},"properties":{"site_name":"Wang F35 Building Constructions","other_site_names":null,"state":"Wisconsin","industry":"Other","matrix_type":"Groundwater","matrix":"Groundwater","year":2020,"pfoa":"103","pfos":"235","total_pfas":null,"pfas_level":235,"notes":null,"regulation_gvt_link":null,"resources_link":null,"suspected_source_link":"https://dnr.wi.gov/botw/GetActivityDetail.do?dsn=585319&siteId=32817900&crumb=1","pfas_testing_link":"https://drive.google.com/file/d/1acbboc5GYkuKDgXvPrXVxrwWkX1l0EuV/view?usp=sharing","site_ref_link":"https://drive.google.com/drive/folders/1GatAKU0_BrFHcFJ6-Xr1CoOceZKSh2D1?usp=sharing","state_ref_link":null,"ObjectId":3044}},{"type":"Feature","id":3045,"geometry":{"type":"Point","coordinates":[-89.334485,43.133216]},"properties":{"site_name":"Wang-115 Fighter Wing","other_site_names":null,"state":"Wisconsin","industry":"Military","matrix_type":"Groundwater","matrix":"Groundwater","year":2021,"pfoa":"7","pfos":"22","total_pfas":null,"pfas_level":29,"notes":null,"regulation_gvt_link":null,"resources_link":null,"suspected_source_link":"https://dnr.wi.gov/botw/GetActivityDetail.do?dsn=581254&siteId=5311900&crumb=1","pfas_testing_link":"https://drive.google.com/file/d/1oi-U3eyyVdwQbDdUm_Qv9QmKhjW8pSDu/view?usp=sharing","site_ref_link":"https://drive.google.com/drive/u/0/folders/1fnNRTbiN6qe6l3aHuIwXthn9QZeeLBCq","state_ref_link":null,"ObjectId":3045}},{"type":"Feature","id":3046,"geometry":{"type":"Point","coordinates":[-89.387258,42.61436]},"properties":{"site_name":"Woodbridge Foam Corp Former","other_site_names":null,"state":"Wisconsin","industry":"AFFF","matrix_type":"Groundwater","matrix":"Groundwater","year":null,"pfoa":"50","pfos":"31","total_pfas":null,"pfas_level":50,"notes":null,"regulation_gvt_link":null,"resources_link":null,"suspected_source_link":"https://dnr.wi.gov/botw/GetActivityDetail.do?dsn=560101&siteId=982500&crumb=1","pfas_testing_link":"https://drive.google.com/file/d/1-Tc1NCDThHOZeYO6icSfYsosag6633dY/view?usp=sharing","site_ref_link":null,"state_ref_link":null,"ObjectId":3046}},{"type":"Feature","id":3047,"geometry":{"type":"Point","coordinates":[-91.457943,44.757089]},"properties":{"site_name":"WRR Environmental ERVCS","other_site_names":null,"state":"Wisconsin","industry":"AFFF","matrix_type":"Groundwater","matrix":"Groundwater","year":2021,"pfoa":"3800","pfos":"2300","total_pfas":20905,"pfas_level":20905,"notes":"AFFF used to suppress fires at the WRR facility on Ryder Road\nin 2007 and 2010.","regulation_gvt_link":null,"resources_link":null,"suspected_source_link":"https://dnr.wi.gov/botw/GetActivityDetail.do?dsn=587957&siteId=1529200&crumb=1","pfas_testing_link":"https://drive.google.com/file/d/1R8A9lSZMLY4IIokxY1i6BPClrSGpiMFs/view?usp=sharing","site_ref_link":"https://drive.google.com/drive/u/0/folders/1bGhl3Tn8T1ZbYLCL2oc4ca8OU42ZJKmv","state_ref_link":null,"ObjectId":3047}},{"type":"Feature","id":3048,"geometry":{"type":"Point","coordinates":[-89.579299,43.098022]},"properties":{"site_name":"Refuse Hideaway (SF NL) SL","other_site_names":null,"state":"Wisconsin","industry":"Landfill","matrix_type":"Groundwater","matrix":"Groundwater","year":2019,"pfoa":"4","pfos":"4","total_pfas":103,"pfas_level":103,"notes":"Presence of PFAS substances is indicated on site website, but no testing data available. ","regulation_gvt_link":"https://cumulis.epa.gov/supercpad/cursites/csitinfo.cfm?id=0505114","resources_link":"https://cumulis.epa.gov/supercpad/cursites/csitinfo.cfm?id=0505114","suspected_source_link":"https://dnr.wi.gov/botw/GetActivityDetail.do?dsn=35361&siteId=1710200&crumb=1","pfas_testing_link":"https://drive.google.com/file/d/1Bvp4hzMC86-KNgi5ZIixxmHlYjhm6Zeu/view?usp=drive_link","site_ref_link":"https://drive.google.com/drive/folders/1x1zfzTdR-yJwPiUzHvaNVkZmb_J04b7c?usp=drive_link","state_ref_link":"https://drive.google.com/drive/folders/16cPCO907bUFpX-CKzAj1EGj8_TD142PQ?usp=drive_link","ObjectId":3048}},{"type":"Feature","id":3051,"geometry":{"type":"Point","coordinates":[-87.614036,45.097946]},"properties":{"site_name":"ChemDesign Products Inc.","other_site_names":null,"state":"Wisconsin","industry":"Industry","matrix_type":"Wastewater","matrix":"Wastewater","year":2020,"pfoa":"2900","pfos":"640","total_pfas":3540,"pfas_level":3540,"notes":"PFAS detected in groundwater","regulation_gvt_link":null,"resources_link":null,"suspected_source_link":"https://dnr.wi.gov/botw/GetActivityDetail.do?dsn=583852&siteId=1099500&crumb=1","pfas_testing_link":"https://www.wispolitics.com/wp-content/uploads/2024/09/240918ChemDesignNOVs.pdf","site_ref_link":"https://drive.google.com/drive/folders/1HXsnN_Rj0idMMp3aBK8HVxkxbVudHqKc?usp=drive_link","state_ref_link":"https://drive.google.com/drive/folders/16cPCO907bUFpX-CKzAj1EGj8_TD142PQ?usp=drive_link","ObjectId":3051}},{"type":"Feature","id":3052,"geometry":{"type":"Point","coordinates":[-87.615515,45.098288]},"properties":{"site_name":"JCI/Tyco Stanton","other_site_names":null,"state":"Wisconsin","industry":"Industry","matrix_type":"Groundwater","matrix":"Groundwater","year":2018,"pfoa":"9100","pfos":"650","total_pfas":37866,"pfas_level":37866,"notes":null,"regulation_gvt_link":null,"resources_link":null,"suspected_source_link":"https://dnr.wi.gov/botw/GetActivityDetail.do?dsn=581955&siteId=643000&crumb=1","pfas_testing_link":"https://drive.google.com/file/d/1BuzCAjjIB_HbC_nwJVG4qesFdgWypLTZ/view?usp=sharing","site_ref_link":null,"state_ref_link":null,"ObjectId":3052}},{"type":"Feature","id":3357,"geometry":{"type":"Point","coordinates":[-91.263737,43.875541]},"properties":{"site_name":"La Crosse Regional Airport","other_site_names":null,"state":"Wisconsin","industry":"Airport","matrix_type":"Groundwater","matrix":"Groundwater","year":2020,"pfoa":null,"pfos":null,"total_pfas":15,"pfas_level":15,"notes":"Jet plane crash, jet fuel spill, AFFF used at testing site and former airport fire station","regulation_gvt_link":"https://www.cityoflacrosse.org/city-services/private-potable-well-sampling-for-pfas","resources_link":"https://www.cityoflacrosse.org/city-services/private-potable-well-sampling-for-pfas","suspected_source_link":"https://www.cityoflacrosse.org/city-services/private-potable-well-sampling-for-pfas","pfas_testing_link":"https://dnr.wi.gov/botw/GetActivityDetail.do?detailSeqNo=32998","site_ref_link":"https://drive.google.com/drive/folders/1H-CDSCq5qi1888hwhfKuH3NWeOJgbcKS","state_ref_link":"https://drive.google.com/drive/folders/1jJQ9yj0v4F-uS3q-WO91RAcoKlPt6Y1z","ObjectId":3357}},{"type":"Feature","id":3358,"geometry":{"type":"Point","coordinates":[-89.558337,45.642145]},"properties":{"site_name":"Rhinelander Landfill","other_site_names":null,"state":"Wisconsin","industry":"Landfill","matrix_type":"Other Water","matrix":"Leachate","year":2020,"pfoa":"99","pfos":"6","total_pfas":518,"pfas_level":518,"notes":null,"regulation_gvt_link":"N/A","resources_link":"https://dnr.wisconsin.gov/topic/PFAS","suspected_source_link":"https://starjournalnow.com/2020/12/23/testing-shows-only-trace-amounts-of-pfas-discharging-from-old-rhinelander-landfill/","pfas_testing_link":"http://www.rhinelandercityhall.org/uploads/Other%20Departments/Landfill%20PFAS%20Results%20and%20News%20Release.pdf","site_ref_link":"https://drive.google.com/drive/folders/1FxONfiPuBBDtcSVnXmLwfV9viPrqPT99?usp=sharing","state_ref_link":"https://drive.google.com/drive/folders/1jJQ9yj0v4F-uS3q-WO91RAcoKlPt6Y1z","ObjectId":3358}},{"type":"Feature","id":3359,"geometry":{"type":"Point","coordinates":[-89.461845,45.62627]},"properties":{"site_name":"Rhinelander-Oneida County Airport","other_site_names":null,"state":"Wisconsin","industry":"Airport","matrix_type":"Groundwater","matrix":"Groundwater","year":2019,"pfoa":null,"pfos":null,"total_pfas":590,"pfas_level":590,"notes":"Spread of sewage sludge contaminated with PFAS by the City of Rhinelander from the city's wastewater treatment plant over the airport property as well as firefighting foam used at the airport and stored near the airport's main terminal (Meyer, 2020).","regulation_gvt_link":"N/A","resources_link":"https://dnr.wi.gov/botw/ViewNR700.do;jsessionid=TM8ZRB562nZCYH_IMYUQTym8zN6orkzeOduPIlt3D1fvtP33IvoC!1225810264?saprRespSN=24728","suspected_source_link":"https://www.wxpr.org/post/rhinelander-spread-tons-sludge-near-site-contaminated-wells-wxpr-investigation-finds#stream/0","pfas_testing_link":"https://www.wpr.org/researchers-look-ways-stop-flow-pfas-rhinelanders-water-supply","site_ref_link":"https://drive.google.com/drive/folders/1FxONfiPuBBDtcSVnXmLwfV9viPrqPT99?usp=sharing","state_ref_link":"https://drive.google.com/drive/folders/1jJQ9yj0v4F-uS3q-WO91RAcoKlPt6Y1z","ObjectId":3359}},{"type":"Feature","id":4249,"geometry":{"type":"Point","coordinates":[-87.4912,44.597]},"properties":{"site_name":"Algoma Municipal Landfill","other_site_names":null,"state":"Wisconsin","industry":"Waste","matrix_type":"Groundwater","matrix":"Groundwater","year":2022,"pfoa":"30","pfos":"5","total_pfas":36,"pfas_level":36,"notes":null,"regulation_gvt_link":null,"resources_link":null,"suspected_source_link":"https://cumulis.epa.gov/supercpad/SiteProfiles/index.cfm?fuseaction=second.Cleanup&id=0505095#bkground","pfas_testing_link":"https://semspub.epa.gov/work/05/989629.pdf","site_ref_link":"https://drive.google.com/drive/folders/1cjemo0AqVXBXKaalyV4WTOhXN4Jfbrky?usp=drive_link","state_ref_link":"https://drive.google.com/drive/folders/16cPCO907bUFpX-CKzAj1EGj8_TD142PQ?usp=drive_link","ObjectId":4249}},{"type":"Feature","id":4250,"geometry":{"type":"Point","coordinates":[-88.0755,44.438061]},"properties":{"site_name":"Better Brite Plating Co. Chrome and Zinc Shops","other_site_names":"Better Brite Chrome","state":"Wisconsin","industry":"Industry","matrix_type":"Groundwater","matrix":"Groundwater","year":2023,"pfoa":"31","pfos":"54","total_pfas":215,"pfas_level":215,"notes":null,"regulation_gvt_link":null,"resources_link":null,"suspected_source_link":"https://cumulis.epa.gov/supercpad/SiteProfiles/index.cfm?fuseaction=second.Cleanup&id=0505257#bkground","pfas_testing_link":"https://semspub.epa.gov/work/05/997103.pdf","site_ref_link":"https://drive.google.com/drive/folders/1etXWiSmUbZkutxJxYMw7Sst0R-V4-uy6?usp=drive_link","state_ref_link":"https://drive.google.com/drive/folders/16cPCO907bUFpX-CKzAj1EGj8_TD142PQ?usp=drive_link","ObjectId":4250}},{"type":"Feature","id":4251,"geometry":{"type":"Point","coordinates":[-87.841669,44.173331]},"properties":{"site_name":"Lemberger Landfill, Inc. ","other_site_names":"Lemberger Transport & Recycling","state":"Wisconsin","industry":"Waste","matrix_type":"Groundwater","matrix":"Groundwater","year":2021,"pfoa":"5","pfos":"0","total_pfas":11,"pfas_level":11,"notes":null,"regulation_gvt_link":null,"resources_link":null,"suspected_source_link":"https://cumulis.epa.gov/supercpad/SiteProfiles/index.cfm?fuseaction=second.Cleanup&id=0505180#bkground","pfas_testing_link":"https://drive.google.com/file/d/1R_f-LhgmK4s0n_x5k-oZy2UAbzmlYods/view?usp=drive_link","site_ref_link":"https://apps.dnr.wi.gov/botw/GetActivityDetail.do?dsn=35431&siteId=931100&crumb=1","state_ref_link":null,"ObjectId":4251}},{"type":"Feature","id":4252,"geometry":{"type":"Point","coordinates":[-90.04,44.848331]},"properties":{"site_name":"Mid-State Disposal, Inc. Landfill","other_site_names":null,"state":"Wisconsin","industry":"Waste","matrix_type":"Groundwater","matrix":"Groundwater","year":2024,"pfoa":"3","pfos":"7","total_pfas":29,"pfas_level":29,"notes":null,"regulation_gvt_link":null,"resources_link":null,"suspected_source_link":"https://cumulis.epa.gov/supercpad/cursites/csitinfo.cfm?id=0505170","pfas_testing_link":"https://drive.google.com/file/d/1-m4AI1RwDImQ60W9Rt-hWagqUVnDi8zk/view?usp=drive_link","site_ref_link":"https://apps.dnr.wi.gov/botw/GetActivityDetail.do?crumb=2&siteId=1738700&dsn=210252","state_ref_link":null,"ObjectId":4252}},{"type":"Feature","id":4253,"geometry":{"type":"Point","coordinates":[-88.43,44.25555]},"properties":{"site_name":"N.W. Mauthe Co., Inc.","other_site_names":null,"state":"Wisconsin","industry":"Industry","matrix_type":"Groundwater","matrix":"Groundwater","year":2023,"pfoa":"7","pfos":"10","total_pfas":32,"pfas_level":32,"notes":null,"regulation_gvt_link":null,"resources_link":null,"suspected_source_link":"https://cumulis.epa.gov/supercpad/cursites/csitinfo.cfm?id=0505061","pfas_testing_link":"https://apps.dnr.wi.gov/botw/DownloadBlobFile.do?docSeqNo=315872&docName=20250226_43_Groundwater_Report.pdf&docDsn=33249","site_ref_link":"https://drive.google.com/drive/folders/1yig2nyUsCzPuG7yxW-4UsFQm85FYAM3S?usp=drive_link","state_ref_link":"https://drive.google.com/drive/folders/16cPCO907bUFpX-CKzAj1EGj8_TD142PQ?usp=drive_link","ObjectId":4253}},{"type":"Feature","id":4254,"geometry":{"type":"Point","coordinates":[-88.5221,43.2141]},"properties":{"site_name":"Oconomowoc Electroplating Co., Inc.","other_site_names":null,"state":"Wisconsin","industry":"Industry","matrix_type":"Groundwater","matrix":"Groundwater","year":2023,"pfoa":null,"pfos":null,"total_pfas":14,"pfas_level":14,"notes":null,"regulation_gvt_link":null,"resources_link":null,"suspected_source_link":"https://cumulis.epa.gov/supercpad/SiteProfiles/index.cfm?fuseaction=second.Cleanup&id=0504986#bkground","pfas_testing_link":"https://apps.dnr.wi.gov/botw/DownloadBlobFile.do?docSeqNo=259778&docName=20230509_43_PFAS_Private_Well_Sampling_Results.pdf&docDsn=35470","site_ref_link":"https://drive.google.com/drive/folders/191eNnrUUGGRmKqJqa8ZQLNQzMTQ7WEd-?usp=drive_link","state_ref_link":"https://drive.google.com/drive/folders/16cPCO907bUFpX-CKzAj1EGj8_TD142PQ?usp=drive_link","ObjectId":4254}},{"type":"Feature","id":4255,"geometry":{"type":"Point","coordinates":[-90.265611,44.689689]},"properties":{"site_name":"Spickler Landfill","other_site_names":null,"state":"Wisconsin","industry":"Waste","matrix_type":"Groundwater","matrix":"Groundwater","year":2022,"pfoa":"385","pfos":"3300","total_pfas":null,"pfas_level":3300,"notes":null,"regulation_gvt_link":null,"resources_link":null,"suspected_source_link":"https://cumulis.epa.gov/supercpad/cursites/csitinfo.cfm?id=0505181","pfas_testing_link":"https://semspub.epa.gov/work/05/701550.pdf","site_ref_link":"https://drive.google.com/drive/folders/1R44jreJ4oGs9mn-vFk0Ix4_Fbg0NUD6c?usp=drive_link","state_ref_link":"https://drive.google.com/drive/folders/16cPCO907bUFpX-CKzAj1EGj8_TD142PQ?usp=drive_link","ObjectId":4255}},{"type":"Feature","id":4256,"geometry":{"type":"Point","coordinates":[-89.6292,44.9773]},"properties":{"site_name":"Wausau Ground Water Contamination","other_site_names":null,"state":"Wisconsin","industry":"Industry; Waste","matrix_type":"Other Water","matrix":"Drinking Water","year":2023,"pfoa":"6","pfos":"1","total_pfas":17,"pfas_level":17,"notes":null,"regulation_gvt_link":null,"resources_link":null,"suspected_source_link":"https://cumulis.epa.gov/supercpad/SiteProfiles/index.cfm?fuseaction=second.Cleanup&id=0505186#bkground","pfas_testing_link":"https://semspub.epa.gov/work/05/700000.pdf","site_ref_link":"https://drive.google.com/drive/folders/1u7sA0K0vvuDw0nSaT97jXvmh59MB_4PH?usp=drive_link","state_ref_link":"https://drive.google.com/drive/folders/16cPCO907bUFpX-CKzAj1EGj8_TD142PQ?usp=drive_link","ObjectId":4256}}]}