{"type":"FeatureCollection","crs":{"type":"name","properties":{"name":"EPSG:4326"}},"features":[{"type":"Feature","id":1,"geometry":{"type":"Point","coordinates":[-90.24309,42.18918]},"properties":{"site_name":"US Savanna Army Depot Activity","other_site_names":"Savanna Army Depot Activity","state":"Illinois","industry":"Military","matrix_type":"Groundwater","matrix":"Groundwater","year":2021,"pfoa":"530","pfos":null,"total_pfas":null,"pfas_level":530,"notes":"Identified by the Environmental Protection Agency (EPA) as having PFAS contamination. ","regulation_gvt_link":null,"resources_link":"https://cumulis.epa.gov/supercpad/SiteProfiles/index.cfm?fuseaction=second.docdata&id=0501174","suspected_source_link":"https://www.epw.senate.gov/public/index.cfm/superfund-sites-identified-by-epa-to-have-pfas-contamination","pfas_testing_link":"https://www.denix.osd.mil/derp/denix-files/sites/26/2021/10/PFOS-and.PFOA-at-BRAC-Locationspdf.pdf","site_ref_link":null,"state_ref_link":null,"ObjectId":1}},{"type":"Feature","id":24,"geometry":{"type":"Point","coordinates":[-88.143849,40.288906]},"properties":{"site_name":"Former Chanute Air Force Base","other_site_names":null,"state":"Illinois","industry":"Military","matrix_type":"Groundwater","matrix":"Groundwater","year":2014,"pfoa":"151,000","pfos":"1,960,000","total_pfas":2920500,"pfas_level":2920500,"notes":"AFFF used at Former Chanute Air Force Base","regulation_gvt_link":"N/A","resources_link":"https://cumulis.epa.gov/supercpad/SiteProfiles/index.cfm?fuseaction=second.Cleanup&id=0501172#bkground","suspected_source_link":"http://www.rantoulpress.com/news/environment/2015-05-26/high-levels-pfcs-found-former-base.html","pfas_testing_link":"https://drive.google.com/file/d/1n77UkzJ8ZiFqMDRZpRTFSswlbPPXrXiO/view?usp=sharing","site_ref_link":"https://drive.google.com/drive/u/1/folders/12ali3treWkAwgRlENw0BVynf6CRgY62R","state_ref_link":"https://drive.google.com/drive/u/1/folders/1k-XmunFYrMBlz0H2URbS95g7YAAdSO5e","ObjectId":24}},{"type":"Feature","id":210,"geometry":{"type":"Point","coordinates":[-89.678395,39.843917]},"properties":{"site_name":"Capital Air National Guard Base","other_site_names":"Abraham Lincoln Capital Airport","state":"Illinois","industry":"Military","matrix_type":"Groundwater","matrix":"Groundwater","year":2017,"pfoa":"1,620","pfos":"13,100","total_pfas":18707,"pfas_level":18707,"notes":"AFFF used at Abraham Lincoln Capital Airport","regulation_gvt_link":"N/A","resources_link":"https://www2.illinois.gov/epa/topics/water-quality/pfas/Pages/default.aspx","suspected_source_link":"https://drive.google.com/a/husky.neu.edu/file/d/1K1lLSPdBN0fnZGhdOfkFCwMMc2icRGXo/view?usp=sharing","pfas_testing_link":"https://drive.google.com/file/d/1K1lLSPdBN0fnZGhdOfkFCwMMc2icRGXo/view?usp=sharing","site_ref_link":"https://drive.google.com/drive/u/0/folders/1vOPgHcCHVQNaXEOocvPTzyPsuJIJtSf9","state_ref_link":"https://drive.google.com/drive/u/1/folders/1k-XmunFYrMBlz0H2URbS95g7YAAdSO5e","ObjectId":210}},{"type":"Feature","id":304,"geometry":{"type":"Point","coordinates":[-90.547209,41.51778]},"properties":{"site_name":"Rock Island Arsenal","other_site_names":null,"state":"Illinois","industry":"Military","matrix_type":"Other Water","matrix":"Drinking Water","year":2018,"pfoa":null,"pfos":null,"total_pfas":34,"pfas_level":34,"notes":null,"regulation_gvt_link":null,"resources_link":"https://www.sierraclub.org/sites/www.sierraclub.org/files/sce-authors/u32032/PFAS%20factsheet%202021%20v3%20%282%29%20%281%29.pdf","suspected_source_link":null,"pfas_testing_link":"https://cdn3.ewg.org/sites/default/files/u352/EWG_PFASTable-Army_C01.pdf","site_ref_link":"https://drive.google.com/drive/u/0/folders/17vc5JX3Gvo92Bih-kg-GABnBbExIJhXg","state_ref_link":"https://drive.google.com/drive/u/1/folders/1k-XmunFYrMBlz0H2URbS95g7YAAdSO5e","ObjectId":304}},{"type":"Feature","id":657,"geometry":{"type":"Point","coordinates":[-87.908998,41.98028]},"properties":{"site_name":"O'Hare International Airport","other_site_names":"O'Hare Air Reserve Station","state":"Illinois","industry":"Military","matrix_type":"Groundwater","matrix":"Groundwater","year":2018,"pfoa":"13,600","pfos":"1,520","total_pfas":39790,"pfas_level":39790,"notes":null,"regulation_gvt_link":null,"resources_link":null,"suspected_source_link":"https://ar.afcec-cloud.af.mil/Search.aspx","pfas_testing_link":null,"site_ref_link":null,"state_ref_link":null,"ObjectId":657}},{"type":"Feature","id":686,"geometry":{"type":"Point","coordinates":[-89.699308,40.659009]},"properties":{"site_name":"Peoria Air National Guard Base","other_site_names":"Peoria International Airport","state":"Illinois","industry":"Military","matrix_type":"Groundwater","matrix":"Groundwater","year":2018,"pfoa":"4,480","pfos":"152,000","total_pfas":171000,"pfas_level":171000,"notes":"AFFF used at Peoria International Airport / Air National Guard Base","regulation_gvt_link":"N/A","resources_link":"http://afcec.publicadmin-record.us.af.mil/","suspected_source_link":null,"pfas_testing_link":"https://drive.google.com/file/d/1g7ZLZRZcq6fNOicWNoTK3W9tNf0dj3zH/view?usp=sharing","site_ref_link":"https://drive.google.com/drive/u/0/folders/1BzY2RSn_pssRFOlIbYW0JAfrGmTSlpGL","state_ref_link":"https://drive.google.com/drive/u/1/folders/1k-XmunFYrMBlz0H2URbS95g7YAAdSO5e","ObjectId":686}},{"type":"Feature","id":1230,"geometry":{"type":"Point","coordinates":[-89.06555,42.468611]},"properties":{"site_name":"BELOIT CORP.","other_site_names":null,"state":"Illinois","industry":"Industry","matrix_type":"Other Water","matrix":"Drinking Water","year":2021,"pfoa":null,"pfos":null,"total_pfas":13,"pfas_level":13,"notes":null,"regulation_gvt_link":"https://cumulis.epa.gov/supercpad/cursites/csitinfo.cfm?id=0500272","resources_link":"https://epa.illinois.gov/topics/community-relations/sites/chemtool.html#PFAS","suspected_source_link":"https://epa.illinois.gov/topics/community-relations/sites/chemtool.html#PFAS","pfas_testing_link":"2021 - PFAS Lab Testing Results From Site Samples.pdf","site_ref_link":"Winnebago County, IL - Beloit Corp. - Superfund Site","state_ref_link":"IL","ObjectId":1230}},{"type":"Feature","id":1298,"geometry":{"type":"Point","coordinates":[-91.268472,39.929444]},"properties":{"site_name":"ADAMS COUNTY QUINCY LANDFILLS 2&3","other_site_names":null,"state":"Illinois","industry":"Waste","matrix_type":"Other Water","matrix":"Leachate","year":2021,"pfoa":"160","pfos":"47","total_pfas":760,"pfas_level":760,"notes":null,"regulation_gvt_link":"https://cumulis.epa.gov/supercpad/cursites/csitinfo.cfm?id=0500656","resources_link":"https://cumulis.epa.gov/supercpad/cursites/csitinfo.cfm?id=0500656","suspected_source_link":"https://semspub.epa.gov/work/05/980258.pdf","pfas_testing_link":"2023 - FIFTH FIVE-YEAR REVIEW REPORT FOR ADAMS COUNTY QUINCY LANDFILLS #2 AND #3 SUPERFUND SITE ADAMS COUNTY, ILLINOIS.pdf","site_ref_link":"Adams County, IL - Adams County Quincy Landfills 2 & 3 - Superfund Site","state_ref_link":"IL","ObjectId":1298}},{"type":"Feature","id":1843,"geometry":{"type":"Point","coordinates":[-89.85501,38.541591]},"properties":{"site_name":"Scott Air Force Base","other_site_names":null,"state":"Illinois","industry":"Military","matrix_type":"Groundwater","matrix":"Groundwater","year":2021,"pfoa":"62,000","pfos":"81,000","total_pfas":null,"pfas_level":81000,"notes":null,"regulation_gvt_link":null,"resources_link":null,"suspected_source_link":"https://ar.afcec-cloud.af.mil/Search.aspx","pfas_testing_link":"https://drive.google.com/file/d/15qgnYezG_l4pAcbyJHBjIa0v0BLYiy8s/view?usp=sharing","site_ref_link":null,"state_ref_link":null,"ObjectId":1843}},{"type":"Feature","id":2214,"geometry":{"type":"Point","coordinates":[-88.143849,40.288906]},"properties":{"site_name":"Former Chanute Air Force Base","other_site_names":null,"state":"Illinois","industry":"Military","matrix_type":"Groundwater","matrix":"Groundwater","year":2014,"pfoa":"151000","pfos":"1960000","total_pfas":2920500,"pfas_level":2920500,"notes":"AFFF used at Former Chanute Air Force Base","regulation_gvt_link":"N/A","resources_link":"https://cumulis.epa.gov/supercpad/SiteProfiles/index.cfm?fuseaction=second.Cleanup&id=0501172#bkground","suspected_source_link":"http://www.rantoulpress.com/news/environment/2015-05-26/high-levels-pfcs-found-former-base.html","pfas_testing_link":"https://drive.google.com/file/d/1n77UkzJ8ZiFqMDRZpRTFSswlbPPXrXiO/view?usp=sharing","site_ref_link":"https://drive.google.com/drive/u/1/folders/12ali3treWkAwgRlENw0BVynf6CRgY62R","state_ref_link":"https://drive.google.com/drive/u/1/folders/1k-XmunFYrMBlz0H2URbS95g7YAAdSO5e","ObjectId":2214}},{"type":"Feature","id":2215,"geometry":{"type":"Point","coordinates":[-89.678395,39.843917]},"properties":{"site_name":"Capital Air National Guard Base","other_site_names":"Abraham Lincoln Capital Airport","state":"Illinois","industry":"Military","matrix_type":"Groundwater","matrix":"Groundwater","year":2017,"pfoa":"1620","pfos":"13100","total_pfas":18707,"pfas_level":18707,"notes":"AFFF used at Abraham Lincoln Capital Airport","regulation_gvt_link":"N/A","resources_link":"https://www2.illinois.gov/epa/topics/water-quality/pfas/Pages/default.aspx","suspected_source_link":"https://drive.google.com/a/husky.neu.edu/file/d/1K1lLSPdBN0fnZGhdOfkFCwMMc2icRGXo/view?usp=sharing","pfas_testing_link":"https://drive.google.com/file/d/1K1lLSPdBN0fnZGhdOfkFCwMMc2icRGXo/view?usp=sharing","site_ref_link":"https://drive.google.com/drive/u/0/folders/1vOPgHcCHVQNaXEOocvPTzyPsuJIJtSf9","state_ref_link":"https://drive.google.com/drive/u/1/folders/1k-XmunFYrMBlz0H2URbS95g7YAAdSO5e","ObjectId":2215}},{"type":"Feature","id":2216,"geometry":{"type":"Point","coordinates":[-89.699308,40.659009]},"properties":{"site_name":"Peoria Air National Guard Base","other_site_names":"Peoria International Airport","state":"Illinois","industry":"Military","matrix_type":"Groundwater","matrix":"Groundwater","year":2018,"pfoa":"4480","pfos":"152000","total_pfas":171000,"pfas_level":171000,"notes":"AFFF used at Peoria International Airport / Air National Guard Base","regulation_gvt_link":"N/A","resources_link":"http://afcec.publicadmin-record.us.af.mil/","suspected_source_link":null,"pfas_testing_link":"https://drive.google.com/file/d/1g7ZLZRZcq6fNOicWNoTK3W9tNf0dj3zH/view?usp=sharing","site_ref_link":"https://drive.google.com/drive/u/0/folders/1BzY2RSn_pssRFOlIbYW0JAfrGmTSlpGL","state_ref_link":"https://drive.google.com/drive/u/1/folders/1k-XmunFYrMBlz0H2URbS95g7YAAdSO5e","ObjectId":2216}},{"type":"Feature","id":2547,"geometry":{"type":"Point","coordinates":[-90.547209,41.51778]},"properties":{"site_name":"Rock Island Arsenal","other_site_names":null,"state":"Illinois","industry":"Military","matrix_type":"Other Water","matrix":"Drinking Water","year":2018,"pfoa":null,"pfos":null,"total_pfas":34,"pfas_level":34,"notes":null,"regulation_gvt_link":null,"resources_link":"https://www.sierraclub.org/sites/www.sierraclub.org/files/sce-authors/u32032/PFAS%20factsheet%202021%20v3%20%282%29%20%281%29.pdf","suspected_source_link":null,"pfas_testing_link":"https://cdn3.ewg.org/sites/default/files/u352/EWG_PFASTable-Army_C01.pdf","site_ref_link":"https://drive.google.com/drive/u/0/folders/17vc5JX3Gvo92Bih-kg-GABnBbExIJhXg","state_ref_link":"https://drive.google.com/drive/u/1/folders/1k-XmunFYrMBlz0H2URbS95g7YAAdSO5e","ObjectId":2547}},{"type":"Feature","id":2809,"geometry":{"type":"Point","coordinates":[-90.24309,42.18918]},"properties":{"site_name":"US Savanna Army Depot Activity","other_site_names":"Savanna Army Depot Activity","state":"Illinois","industry":"Military","matrix_type":"Groundwater","matrix":"Groundwater","year":2021,"pfoa":"530","pfos":null,"total_pfas":null,"pfas_level":530,"notes":"Identified by the Environmental Protection Agency (EPA) as having PFAS contamination. ","regulation_gvt_link":null,"resources_link":"https://cumulis.epa.gov/supercpad/SiteProfiles/index.cfm?fuseaction=second.docdata&id=0501174","suspected_source_link":"https://www.epw.senate.gov/public/index.cfm/superfund-sites-identified-by-epa-to-have-pfas-contamination","pfas_testing_link":"https://www.denix.osd.mil/derp/denix-files/sites/26/2021/10/PFOS-and.PFOA-at-BRAC-Locationspdf.pdf","site_ref_link":null,"state_ref_link":null,"ObjectId":2809}},{"type":"Feature","id":2937,"geometry":{"type":"Point","coordinates":[-87.908998,41.98028]},"properties":{"site_name":"O'Hare International Airport","other_site_names":"O'Hare Air Reserve Station","state":"Illinois","industry":"Military","matrix_type":"Groundwater","matrix":"Groundwater","year":2018,"pfoa":"13600","pfos":"1520","total_pfas":39790,"pfas_level":39790,"notes":null,"regulation_gvt_link":null,"resources_link":null,"suspected_source_link":"https://ar.afcec-cloud.af.mil/Search.aspx","pfas_testing_link":null,"site_ref_link":null,"state_ref_link":null,"ObjectId":2937}},{"type":"Feature","id":2938,"geometry":{"type":"Point","coordinates":[-89.85501,38.541591]},"properties":{"site_name":"Scott Air Force Base","other_site_names":null,"state":"Illinois","industry":"Military","matrix_type":"Groundwater","matrix":"Groundwater","year":2021,"pfoa":"62000","pfos":"81000","total_pfas":null,"pfas_level":81000,"notes":null,"regulation_gvt_link":null,"resources_link":null,"suspected_source_link":"https://ar.afcec-cloud.af.mil/Search.aspx","pfas_testing_link":"https://drive.google.com/file/d/15qgnYezG_l4pAcbyJHBjIa0v0BLYiy8s/view?usp=sharing","site_ref_link":null,"state_ref_link":null,"ObjectId":2938}},{"type":"Feature","id":4138,"geometry":{"type":"Point","coordinates":[-91.268472,39.929444]},"properties":{"site_name":"ADAMS COUNTY QUINCY LANDFILLS 2&3","other_site_names":null,"state":"Illinois","industry":"Waste","matrix_type":"Other Water","matrix":"Leachate","year":2021,"pfoa":"160","pfos":"47","total_pfas":760,"pfas_level":760,"notes":null,"regulation_gvt_link":"https://cumulis.epa.gov/supercpad/cursites/csitinfo.cfm?id=0500656","resources_link":"https://cumulis.epa.gov/supercpad/cursites/csitinfo.cfm?id=0500656","suspected_source_link":"https://semspub.epa.gov/work/05/980258.pdf","pfas_testing_link":"2023 - FIFTH FIVE-YEAR REVIEW REPORT FOR ADAMS COUNTY QUINCY LANDFILLS #2 AND #3 SUPERFUND SITE ADAMS COUNTY, ILLINOIS.pdf","site_ref_link":"Adams County, IL - Adams County Quincy Landfills 2 & 3 - Superfund Site","state_ref_link":"IL","ObjectId":4138}},{"type":"Feature","id":4139,"geometry":{"type":"Point","coordinates":[-89.06555,42.468611]},"properties":{"site_name":"BELOIT CORP.","other_site_names":null,"state":"Illinois","industry":"Industry","matrix_type":"Other Water","matrix":"Drinking Water","year":2021,"pfoa":null,"pfos":null,"total_pfas":13,"pfas_level":13,"notes":null,"regulation_gvt_link":"https://cumulis.epa.gov/supercpad/cursites/csitinfo.cfm?id=0500272","resources_link":"https://epa.illinois.gov/topics/community-relations/sites/chemtool.html#PFAS","suspected_source_link":"https://epa.illinois.gov/topics/community-relations/sites/chemtool.html#PFAS","pfas_testing_link":"2021 - PFAS Lab Testing Results From Site Samples.pdf","site_ref_link":"Winnebago County, IL - Beloit Corp. - Superfund Site","state_ref_link":"IL","ObjectId":4139}}]}