{"type":"FeatureCollection","crs":{"type":"name","properties":{"name":"EPSG:4326"}},"features":[{"type":"Feature","id":59,"geometry":{"type":"Point","coordinates":[-114.267397,32.979519]},"properties":{"site_name":"Yuma Proving Ground","other_site_names":null,"state":"Arizona","industry":"Military","matrix_type":"Other Water","matrix":"Drinking Water","year":2016,"pfoa":null,"pfos":null,"total_pfas":67,"pfas_level":67,"notes":null,"regulation_gvt_link":null,"resources_link":"N/A","suspected_source_link":null,"pfas_testing_link":"https://cdn3.ewg.org/sites/default/files/u352/EWG_PFASTable-Army_C01.pdf","site_ref_link":"https://drive.google.com/drive/u/0/folders/17vc5JX3Gvo92Bih-kg-GABnBbExIJhXg","state_ref_link":"https://drive.google.com/drive/u/1/folders/1NDSF5O2zivixjKUEYTRtJ_keJVbx9VmC","ObjectId":59}},{"type":"Feature","id":264,"geometry":{"type":"Point","coordinates":[-112.591767,33.452385]},"properties":{"site_name":"Buckeye Training Site","other_site_names":null,"state":"Arizona","industry":"Military","matrix_type":"Other Water","matrix":"Drinking Water","year":2018,"pfoa":null,"pfos":null,"total_pfas":1,"pfas_level":1,"notes":null,"regulation_gvt_link":null,"resources_link":null,"suspected_source_link":"https://drive.google.com/file/d/1g1t60FsMLcfluvkLqorqlbsHnkF_rNZw/view?usp=sharing","pfas_testing_link":"https://drive.google.com/file/d/1g1t60FsMLcfluvkLqorqlbsHnkF_rNZw/view?usp=sharing","site_ref_link":"https://drive.google.com/drive/u/0/folders/17vc5JX3Gvo92Bih-kg-GABnBbExIJhXg","state_ref_link":"https://drive.google.com/drive/folders/1MtshhDFQy_fTCm-Ne2ycOfDhuw9oZ5VZ?usp=sharing","ObjectId":264}},{"type":"Feature","id":265,"geometry":{"type":"Point","coordinates":[-111.377878,33.066431]},"properties":{"site_name":"Florence Military Reservation","other_site_names":null,"state":"Arizona","industry":"Military","matrix_type":"Other Water","matrix":"Drinking Water","year":2018,"pfoa":null,"pfos":null,"total_pfas":1,"pfas_level":1,"notes":null,"regulation_gvt_link":null,"resources_link":null,"suspected_source_link":"https://drive.google.com/file/d/1g1t60FsMLcfluvkLqorqlbsHnkF_rNZw/view?usp=sharing","pfas_testing_link":"https://drive.google.com/file/d/1g1t60FsMLcfluvkLqorqlbsHnkF_rNZw/view?usp=sharing","site_ref_link":"https://drive.google.com/drive/u/0/folders/17vc5JX3Gvo92Bih-kg-GABnBbExIJhXg","state_ref_link":"https://drive.google.com/drive/folders/1MtshhDFQy_fTCm-Ne2ycOfDhuw9oZ5VZ?usp=sharing","ObjectId":265}},{"type":"Feature","id":266,"geometry":{"type":"Point","coordinates":[-111.487415,32.663135]},"properties":{"site_name":"Picacho Aviation Training Site","other_site_names":null,"state":"Arizona","industry":"Military","matrix_type":"Other Water","matrix":"Drinking Water","year":2018,"pfoa":null,"pfos":null,"total_pfas":1,"pfas_level":1,"notes":null,"regulation_gvt_link":null,"resources_link":null,"suspected_source_link":"https://drive.google.com/file/d/1g1t60FsMLcfluvkLqorqlbsHnkF_rNZw/view?usp=sharing","pfas_testing_link":"https://drive.google.com/file/d/1g1t60FsMLcfluvkLqorqlbsHnkF_rNZw/view?usp=sharing","site_ref_link":"https://drive.google.com/drive/u/0/folders/17vc5JX3Gvo92Bih-kg-GABnBbExIJhXg","state_ref_link":"https://drive.google.com/drive/folders/1MtshhDFQy_fTCm-Ne2ycOfDhuw9oZ5VZ?usp=sharing","ObjectId":266}},{"type":"Feature","id":315,"geometry":{"type":"Point","coordinates":[-111.335336,32.523739]},"properties":{"site_name":"Silver Bell Army Heliport","other_site_names":"Arizona National Guard Western Army Aviation Training Site","state":"Arizona","industry":"Military","matrix_type":"Other Water","matrix":"Drinking Water","year":2018,"pfoa":"2","pfos":"10","total_pfas":44,"pfas_level":44,"notes":null,"regulation_gvt_link":null,"resources_link":"N/A","suspected_source_link":"https://drive.google.com/file/d/1g1t60FsMLcfluvkLqorqlbsHnkF_rNZw/view?usp=sharing","pfas_testing_link":"https://drive.google.com/file/d/1g1t60FsMLcfluvkLqorqlbsHnkF_rNZw/view?usp=sharing","site_ref_link":"https://drive.google.com/drive/u/0/folders/17vc5JX3Gvo92Bih-kg-GABnBbExIJhXg","state_ref_link":"https://drive.google.com/drive/folders/1MtshhDFQy_fTCm-Ne2ycOfDhuw9oZ5VZ?usp=sharing","ObjectId":315}},{"type":"Feature","id":377,"geometry":{"type":"Point","coordinates":[-114.59945,32.66262]},"properties":{"site_name":"Marine Corps Air Station Yuma","other_site_names":"Yuma Marine Corps Air Station","state":"Arizona","industry":"Military","matrix_type":"Groundwater","matrix":"Groundwater","year":2018,"pfoa":null,"pfos":null,"total_pfas":86,"pfas_level":86,"notes":"AFFF used at Marine Corps Air Station Yuma; MCAS Yuma shares airfield facilities with Yuma International Airport; 2016 testing measured PFOA and PFOS combined at 185ppt","regulation_gvt_link":"https://www.azdeq.gov/superfund/YumaMarineCorpsAirStation","resources_link":"https://cumulis.epa.gov/supercpad/SiteProfiles/index.cfm?fuseaction=second.docdata&id=0900885","suspected_source_link":"https://drive.google.com/file/d/1D4oY6-jeyfJdbKPdOhOsvkQpYB-wNMLD/view?usp=drive_link","pfas_testing_link":"https://drive.google.com/file/d/1D4oY6-jeyfJdbKPdOhOsvkQpYB-wNMLD/view?usp=drive_link","site_ref_link":"https://drive.google.com/drive/folders/1k0E7A1O-Ow_twKYRxXeQZ9IyWD2drC9e","state_ref_link":"https://drive.google.com/drive/u/1/folders/1NDSF5O2zivixjKUEYTRtJ_keJVbx9VmC","ObjectId":377}},{"type":"Feature","id":378,"geometry":{"type":"Point","coordinates":[-114.5888,32.654581]},"properties":{"site_name":"YUMA MARINE CORPS AIR STATION","other_site_names":null,"state":"Arizona","industry":"Military","matrix_type":"Groundwater","matrix":"Groundwater","year":2018,"pfoa":null,"pfos":null,"total_pfas":86,"pfas_level":86,"notes":null,"regulation_gvt_link":"https://cumulis.epa.gov/supercpad/SiteProfiles/index.cfm?fuseaction=second.docdata&id=0900885","resources_link":"https://www.azdeq.gov/superfund/YumaMarineCorpsAirStation","suspected_source_link":"https://cumulis.epa.gov/supercpad/SiteProfiles/index.cfm?fuseaction=second.docdata&id=0900885","pfas_testing_link":"https://cumulis.epa.gov/supercpad/SiteProfiles/index.cfm?fuseaction=second.docdata&id=0900885","site_ref_link":null,"state_ref_link":null,"ObjectId":378}},{"type":"Feature","id":418,"geometry":{"type":"Point","coordinates":[-111.9083,33.466669]},"properties":{"site_name":"Indian Bend Wash Area","other_site_names":null,"state":"Arizona","industry":"Industry","matrix_type":"Groundwater","matrix":"Groundwater","year":2017,"pfoa":null,"pfos":null,"total_pfas":null,"pfas_level":8,"notes":null,"regulation_gvt_link":null,"resources_link":null,"suspected_source_link":null,"pfas_testing_link":null,"site_ref_link":"Scotsdale, AZ - North Indian Bend Wash ","state_ref_link":null,"ObjectId":418}},{"type":"Feature","id":419,"geometry":{"type":"Point","coordinates":[-112.146219,33.4988]},"properties":{"site_name":"West Central Phoenix - North Plume","other_site_names":"MW-39, WCP MW-222","state":"Arizona","industry":"Industry","matrix_type":"Groundwater","matrix":"Groundwater","year":2017,"pfoa":"8","pfos":"6","total_pfas":null,"pfas_level":8,"notes":"Former \"metal aircraft and spacecraft parts\" manufacturer","regulation_gvt_link":"https://drive.google.com/file/d/16kt6_sHAE-0PHniiMrwovsa-ir_BT4Sh/view?usp=drive_link","resources_link":"https://echo.epa.gov/trends/pfas-tools","suspected_source_link":"https://drive.google.com/file/d/1Wj50QWnhmtTT54o-UDDyKhXFvUIvoE_V/view?usp=drive_link","pfas_testing_link":"https://docs.google.com/spreadsheets/d/1d62nZIdzdWFNSk_UsoeoZZ6HpUspL1P5/edit?usp=drive_link&ouid=108800455933392071157&rtpof=true&sd=true","site_ref_link":"https://drive.google.com/file/d/1Wj50QWnhmtTT54o-UDDyKhXFvUIvoE_V/view?usp=drive_link","state_ref_link":null,"ObjectId":419}},{"type":"Feature","id":420,"geometry":{"type":"Point","coordinates":[-112.00439,34.723758]},"properties":{"site_name":"Highway 260 and Main Street","other_site_names":"SW-7, SW-8, SW-1, NW-3, NW-4, NW-2, NW-11,","state":"Arizona","industry":"Industry","matrix_type":"Groundwater","matrix":"Groundwater","year":2017,"pfoa":"9","pfos":"5","total_pfas":null,"pfas_level":9,"notes":null,"regulation_gvt_link":"https://drive.google.com/file/d/16kt6_sHAE-0PHniiMrwovsa-ir_BT4Sh/view?usp=drive_link","resources_link":"https://echo.epa.gov/trends/pfas-tools","suspected_source_link":"https://drive.google.com/file/d/10EskFVmIkj0NR-u60QLhPpoQmuqEovJQ/view?usp=drive_link","pfas_testing_link":"https://docs.google.com/spreadsheets/d/1d62nZIdzdWFNSk_UsoeoZZ6HpUspL1P5/edit?usp=drive_link&ouid=108800455933392071157&rtpof=true&sd=true","site_ref_link":"https://drive.google.com/file/d/10EskFVmIkj0NR-u60QLhPpoQmuqEovJQ/view?usp=drive_link","state_ref_link":null,"ObjectId":420}},{"type":"Feature","id":423,"geometry":{"type":"Point","coordinates":[-112.124148,33.488208]},"properties":{"site_name":"West Central Phoenix - East Grand Avenue","other_site_names":"WCP-48","state":"Arizona","industry":"Industry","matrix_type":"Groundwater","matrix":"Groundwater","year":2017,"pfoa":"5","pfos":"14","total_pfas":null,"pfas_level":14,"notes":"Former chemical vendor (including dry cleaning chemicals) flagged by AZDEQ for TCE emissions","regulation_gvt_link":"https://drive.google.com/file/d/16kt6_sHAE-0PHniiMrwovsa-ir_BT4Sh/view?usp=drive_link","resources_link":"https://echo.epa.gov/trends/pfas-tools","suspected_source_link":"https://drive.google.com/file/d/1Wj50QWnhmtTT54o-UDDyKhXFvUIvoE_V/view?usp=drive_link","pfas_testing_link":"https://docs.google.com/spreadsheets/d/1d62nZIdzdWFNSk_UsoeoZZ6HpUspL1P5/edit?usp=drive_link&ouid=108800455933392071157&rtpof=true&sd=true","site_ref_link":"https://drive.google.com/file/d/1Wj50QWnhmtTT54o-UDDyKhXFvUIvoE_V/view?usp=drive_link","state_ref_link":null,"ObjectId":423}},{"type":"Feature","id":436,"geometry":{"type":"Point","coordinates":[-111.82159,35.230735]},"properties":{"site_name":"Camp Navajo","other_site_names":null,"state":"Arizona","industry":"Military","matrix_type":"Other Water","matrix":"Drinking Water","year":2017,"pfoa":null,"pfos":null,"total_pfas":31,"pfas_level":31,"notes":null,"regulation_gvt_link":null,"resources_link":"https://azdeq.gov/DOD/camp-navajo","suspected_source_link":null,"pfas_testing_link":"https://cdn3.ewg.org/sites/default/files/u352/EWG_PFASTable-Army_C01.pdf","site_ref_link":"https://drive.google.com/drive/u/0/folders/17vc5JX3Gvo92Bih-kg-GABnBbExIJhXg","state_ref_link":"https://drive.google.com/drive/u/1/folders/1NDSF5O2zivixjKUEYTRtJ_keJVbx9VmC","ObjectId":436}},{"type":"Feature","id":440,"geometry":{"type":"Point","coordinates":[-109.972331,34.149383]},"properties":{"site_name":"Earl's Laundry and Dry Cleaning","other_site_names":"Earl S Well, Highway 260 and Johnson Lane, MW-2, MW-1","state":"Arizona","industry":"Industry","matrix_type":"Groundwater","matrix":"Groundwater","year":2017,"pfoa":"17","pfos":"42","total_pfas":null,"pfas_level":42,"notes":null,"regulation_gvt_link":"https://drive.google.com/file/d/16kt6_sHAE-0PHniiMrwovsa-ir_BT4Sh/view?usp=drive_link","resources_link":"https://echo.epa.gov/trends/pfas-tools","suspected_source_link":"https://drive.google.com/file/d/1cZH1ig8Hs55J2fW5LQlYIM4NFN6e1yCm/view?usp=drive_link","pfas_testing_link":"https://docs.google.com/spreadsheets/d/1d62nZIdzdWFNSk_UsoeoZZ6HpUspL1P5/edit?usp=drive_link&ouid=108800455933392071157&rtpof=true&sd=true","site_ref_link":"https://drive.google.com/file/d/1cZH1ig8Hs55J2fW5LQlYIM4NFN6e1yCm/view?usp=drive_link","state_ref_link":null,"ObjectId":440}},{"type":"Feature","id":493,"geometry":{"type":"Point","coordinates":[-112.375502,33.541488]},"properties":{"site_name":"Luke Air Force Base","other_site_names":null,"state":"Arizona","industry":"Military","matrix_type":"Groundwater","matrix":"Groundwater","year":2017,"pfoa":"105","pfos":"710","total_pfas":2005,"pfas_level":2005,"notes":"AFFF used at Luke Air Force Base","regulation_gvt_link":"https://azdeq.gov/DOD/Luke-AFB","resources_link":"AFB: https://www.luke.af.mil/PFOS-PFOA-Information/\n","suspected_source_link":"https://www.azcentral.com/story/news/local/glendale/2019/04/10/air-force-test-drinking-water-around-luke-after-finding-toxins-base-water/3415667002/","pfas_testing_link":"https://drive.google.com/file/d/12NIVrysNW74cbbM3JPHUmJ5NRGxLFO3O/view?usp=sharing","site_ref_link":"https://drive.google.com/drive/folders/1LVE77bvI2mdoTAzSwm0qdP7-oD0tOyyR","state_ref_link":"https://drive.google.com/drive/u/1/folders/1NDSF5O2zivixjKUEYTRtJ_keJVbx9VmC","ObjectId":493}},{"type":"Feature","id":591,"geometry":{"type":"Point","coordinates":[-110.327229,31.569598]},"properties":{"site_name":"Fort Huachuca","other_site_names":null,"state":"Arizona","industry":"Military","matrix_type":"Other Water","matrix":"Drinking Water","year":2018,"pfoa":null,"pfos":null,"total_pfas":27,"pfas_level":27,"notes":null,"regulation_gvt_link":null,"resources_link":"https://azdeq.gov/DOD/camp-navajo","suspected_source_link":null,"pfas_testing_link":"https://cdn3.ewg.org/sites/default/files/u352/EWG_PFASTable-Army_C01.pdf","site_ref_link":"https://drive.google.com/drive/u/0/folders/17vc5JX3Gvo92Bih-kg-GABnBbExIJhXg","state_ref_link":"https://drive.google.com/drive/u/1/folders/1NDSF5O2zivixjKUEYTRtJ_keJVbx9VmC","ObjectId":591}},{"type":"Feature","id":634,"geometry":{"type":"Point","coordinates":[-110.949058,32.133553]},"properties":{"site_name":"Tucson Air National Guard Base","other_site_names":"Tucson International Airport Area, Morris Air National Guard Base","state":"Arizona","industry":"Military","matrix_type":"Groundwater","matrix":"Groundwater","year":2018,"pfoa":"4,700","pfos":"260","total_pfas":13251,"pfas_level":13251,"notes":"Firefighting foam used at Tucson International Airport and Air National Guard Base","regulation_gvt_link":"https://www.tucsonaz.gov/water/pfas","resources_link":"http://afcec.publicadmin-record.us.af.mil/","suspected_source_link":null,"pfas_testing_link":"https://drive.google.com/file/d/1RndFavo8dPIEo8ophr206G_-QgUB9wcX/view?usp=sharing","site_ref_link":"https://drive.google.com/drive/u/0/folders/1cRwVLj9t2iU1DCm-nKz8HvurYPAKdTsk","state_ref_link":"https://drive.google.com/drive/u/1/folders/1NDSF5O2zivixjKUEYTRtJ_keJVbx9VmC","ObjectId":634}},{"type":"Feature","id":727,"geometry":{"type":"Point","coordinates":[-112.01094,33.426083]},"properties":{"site_name":"Phoenix Air National Guard Base","other_site_names":"Sky Harbor International Airport","state":"Arizona","industry":"Military","matrix_type":"Groundwater","matrix":"Groundwater","year":2018,"pfoa":"23","pfos":"55","total_pfas":205,"pfas_level":205,"notes":"AFFF used at Phoenix Air National Guard Base / Sky Harbor Int Airport","regulation_gvt_link":"N/A","resources_link":"http://afcec.publicadmin-record.us.af.mil/","suspected_source_link":null,"pfas_testing_link":"https://drive.google.com/file/d/1phSJ339Le6QfPRaV3XBNxSofcdEP-X3h/view?usp=sharing","site_ref_link":"https://drive.google.com/drive/u/0/folders/193WEtHKxAobUbA32qh0yRHF7k-ZnlVd9","state_ref_link":"https://drive.google.com/drive/u/1/folders/1NDSF5O2zivixjKUEYTRtJ_keJVbx9VmC","ObjectId":727}},{"type":"Feature","id":760,"geometry":{"type":"Point","coordinates":[-110.875603,32.167087]},"properties":{"site_name":"Davis-Monthan Air Force Base","other_site_names":null,"state":"Arizona","industry":"Military","matrix_type":"Groundwater","matrix":"Groundwater","year":2018,"pfoa":"39","pfos":null,"total_pfas":436,"pfas_level":436,"notes":"AFFF used at Davis-Monthan Air Force Base","regulation_gvt_link":"https://azdeq.gov/DOD/DavisMonthan","resources_link":"DMAFB: https://azdeq.gov/node/4209","suspected_source_link":"https://azbigmedia.com/3-arizona-military-bases-now-tested-water-contamination/","pfas_testing_link":"https://drive.google.com/file/d/1XdY1Ow8B-M8FSRAvKTb902zdV941joUL/view?usp=sharing","site_ref_link":"https://drive.google.com/drive/folders/1cRwVLj9t2iU1DCm-nKz8HvurYPAKdTsk","state_ref_link":"https://drive.google.com/drive/u/1/folders/1NDSF5O2zivixjKUEYTRtJ_keJVbx9VmC","ObjectId":760}},{"type":"Feature","id":1067,"geometry":{"type":"Point","coordinates":[-111.9708,33.461669]},"properties":{"site_name":"MOTOROLA, INC. (52ND STREET PLANT)","other_site_names":null,"state":"Arizona","industry":"Industry","matrix_type":"Groundwater","matrix":"Groundwater","year":2023,"pfoa":"10","pfos":"70","total_pfas":164,"pfas_level":164,"notes":null,"regulation_gvt_link":null,"resources_link":"https://cumulis.epa.gov/supercpad/cursites/csitinfo.cfm?id=0900517","suspected_source_link":null,"pfas_testing_link":"https://drive.google.com/file/d/1Oj1rON7qGC2_ERmLdsZt3RfUUBBLdYdC/view?usp=drive_link","site_ref_link":"https://drive.google.com/file/d/1Oj1rON7qGC2_ERmLdsZt3RfUUBBLdYdC/view?usp=drive_link","state_ref_link":null,"ObjectId":1067}},{"type":"Feature","id":1094,"geometry":{"type":"Point","coordinates":[-110.966473,32.226269]},"properties":{"site_name":"7th Street and Arizona Avenue","other_site_names":"ADEQ 7AZP-1, ADEQ 7AZR-1, ADEQ 7AZP-6, 7AZP-19,","state":"Arizona","industry":"Industry","matrix_type":"Groundwater","matrix":"Groundwater","year":2024,"pfoa":"15","pfos":"27","total_pfas":null,"pfas_level":27,"notes":"Former drycleaner flagged by AZDEQ for TCE emissions","regulation_gvt_link":"https://drive.google.com/file/d/16kt6_sHAE-0PHniiMrwovsa-ir_BT4Sh/view?usp=drive_link","resources_link":"https://echo.epa.gov/trends/pfas-tools","suspected_source_link":"https://drive.google.com/file/d/1MKWbve_mSgEIBAG3bkfyVZCAIIiob0op/view?usp=drive_link","pfas_testing_link":"https://docs.google.com/spreadsheets/d/1d62nZIdzdWFNSk_UsoeoZZ6HpUspL1P5/edit?usp=drive_link&ouid=108800455933392071157&rtpof=true&sd=true","site_ref_link":"https://drive.google.com/file/d/1MKWbve_mSgEIBAG3bkfyVZCAIIiob0op/view?usp=drive_link","state_ref_link":null,"ObjectId":1094}},{"type":"Feature","id":1096,"geometry":{"type":"Point","coordinates":[-112.04848,33.508713]},"properties":{"site_name":"16 Str. & Camelback","other_site_names":"MW-10R, 16 STR. & CAMELBACK MW-12, ADEQ MW-1455","state":"Arizona","industry":"Industry","matrix_type":"Groundwater","matrix":"Groundwater","year":2024,"pfoa":"24","pfos":"33","total_pfas":null,"pfas_level":33,"notes":"Former drycleaner flagged by AZDEQ for TCE emissions","regulation_gvt_link":"https://drive.google.com/file/d/16kt6_sHAE-0PHniiMrwovsa-ir_BT4Sh/view?usp=drive_link","resources_link":"https://echo.epa.gov/trends/pfas-tools","suspected_source_link":"https://drive.google.com/file/d/1QeBhDRzE6OjtLzBm8W2LXL06sa3IYGUn/view?usp=drive_link","pfas_testing_link":"https://docs.google.com/spreadsheets/d/1d62nZIdzdWFNSk_UsoeoZZ6HpUspL1P5/edit?usp=drive_link&ouid=108800455933392071157&rtpof=true&sd=true","site_ref_link":"https://drive.google.com/file/d/1QeBhDRzE6OjtLzBm8W2LXL06sa3IYGUn/view?usp=drive_link","state_ref_link":null,"ObjectId":1096}},{"type":"Feature","id":1243,"geometry":{"type":"Point","coordinates":[-112.515474,33.36311]},"properties":{"site_name":"AZ_DEQ Pesticide Monitoring Program","other_site_names":null,"state":"Arizona","industry":"Other","matrix_type":"Groundwater","matrix":"Groundwater","year":2021,"pfoa":"12","pfos":"28","total_pfas":null,"pfas_level":28,"notes":"Agriculture site identified in state pesticide monitoring program","regulation_gvt_link":null,"resources_link":"https://echo.epa.gov/trends/pfas-tools","suspected_source_link":null,"pfas_testing_link":"https://docs.google.com/spreadsheets/d/1d62nZIdzdWFNSk_UsoeoZZ6HpUspL1P5/edit?usp=drive_link&ouid=108800455933392071157&rtpof=true&sd=true","site_ref_link":"https://azdeq.gov/arizona-pesticide-groundwater-quality-protection-program","state_ref_link":"https://azdeq.gov/GW_quality_n_monitoring","ObjectId":1243}},{"type":"Feature","id":1566,"geometry":{"type":"Point","coordinates":[-110.938407,32.101154]},"properties":{"site_name":"Air Force Plant 44","other_site_names":"Tucson International Airport","state":"Arizona","industry":"Military","matrix_type":"Groundwater","matrix":"Groundwater","year":2020,"pfoa":"160","pfos":"3,400","total_pfas":null,"pfas_level":3400,"notes":null,"regulation_gvt_link":null,"resources_link":"https://azdeq.gov/superfund/us-air-force-plant-44","suspected_source_link":"https://ar.afcec-cloud.af.mil/Search.aspx","pfas_testing_link":"https://drive.google.com/file/d/1b240feO2gz-pfdtG6sw71-o79azAOYjE/view?usp=sharing","site_ref_link":null,"state_ref_link":null,"ObjectId":1566}},{"type":"Feature","id":2082,"geometry":{"type":"Point","coordinates":[-111.660891,33.317181]},"properties":{"site_name":"Former Williams Air Force Base","other_site_names":"Williams Air Force Base, Air Force Research Laboratory Mesa","state":"Arizona","industry":"Military","matrix_type":"Other Water","matrix":"Drinking Water","year":null,"pfoa":null,"pfos":null,"total_pfas":1037,"pfas_level":1037,"notes":"AFFF used at Williams Air Force Base; the base is a designated Superfund site and was closed in 1993; it is now the Phoenix–Mesa Gateway Airport","regulation_gvt_link":"https://azdeq.gov/superfund-site-former-williams-air-force-base","resources_link":"EPA: https://cumulis.epa.gov/supercpad/cursites/csitinfo.cfm?id=0900890","suspected_source_link":"https://cumulis.epa.gov/supercpad/SiteProfiles/index.cfm?fuseaction=second.cleanup&id=0900890","pfas_testing_link":"https://arizona.libertyutilities.com/uploads/RR_CCR_17.pdf","site_ref_link":"https://drive.google.com/drive/folders/1AdqnRRkU93zmNOxgpdmsaYbJr03OsVNI","state_ref_link":"https://drive.google.com/drive/u/1/folders/1NDSF5O2zivixjKUEYTRtJ_keJVbx9VmC","ObjectId":2082}},{"type":"Feature","id":2153,"geometry":{"type":"Point","coordinates":[-111.660891,33.317181]},"properties":{"site_name":"Former Williams Air Force Base","other_site_names":"Williams Air Force Base, Air Force Research Laboratory Mesa","state":"Arizona","industry":"Military","matrix_type":"Other Water","matrix":"Drinking Water","year":null,"pfoa":null,"pfos":null,"total_pfas":1037,"pfas_level":1037,"notes":"AFFF used at Williams Air Force Base; the base is a designated Superfund site and was closed in 1993; it is now the Phoenix–Mesa Gateway Airport","regulation_gvt_link":"https://azdeq.gov/superfund-site-former-williams-air-force-base","resources_link":"EPA: https://cumulis.epa.gov/supercpad/cursites/csitinfo.cfm?id=0900890","suspected_source_link":"https://cumulis.epa.gov/supercpad/SiteProfiles/index.cfm?fuseaction=second.cleanup&id=0900890","pfas_testing_link":"https://arizona.libertyutilities.com/uploads/RR_CCR_17.pdf","site_ref_link":"https://drive.google.com/drive/folders/1AdqnRRkU93zmNOxgpdmsaYbJr03OsVNI","state_ref_link":"https://drive.google.com/drive/u/1/folders/1NDSF5O2zivixjKUEYTRtJ_keJVbx9VmC","ObjectId":2153}},{"type":"Feature","id":2154,"geometry":{"type":"Point","coordinates":[-112.375502,33.541488]},"properties":{"site_name":"Luke Air Force Base","other_site_names":null,"state":"Arizona","industry":"Military","matrix_type":"Groundwater","matrix":"Groundwater","year":2017,"pfoa":"105","pfos":"710","total_pfas":2005,"pfas_level":2005,"notes":"AFFF used at Luke Air Force Base","regulation_gvt_link":"https://azdeq.gov/DOD/Luke-AFB","resources_link":"AFB: https://www.luke.af.mil/PFOS-PFOA-Information/\n","suspected_source_link":"https://www.azcentral.com/story/news/local/glendale/2019/04/10/air-force-test-drinking-water-around-luke-after-finding-toxins-base-water/3415667002/","pfas_testing_link":"https://drive.google.com/file/d/12NIVrysNW74cbbM3JPHUmJ5NRGxLFO3O/view?usp=sharing","site_ref_link":"https://drive.google.com/drive/folders/1LVE77bvI2mdoTAzSwm0qdP7-oD0tOyyR","state_ref_link":"https://drive.google.com/drive/u/1/folders/1NDSF5O2zivixjKUEYTRtJ_keJVbx9VmC","ObjectId":2154}},{"type":"Feature","id":2155,"geometry":{"type":"Point","coordinates":[-110.875603,32.167087]},"properties":{"site_name":"Davis-Monthan Air Force Base","other_site_names":null,"state":"Arizona","industry":"Military","matrix_type":"Groundwater","matrix":"Groundwater","year":2018,"pfoa":"39","pfos":null,"total_pfas":436,"pfas_level":436,"notes":"AFFF used at Davis-Monthan Air Force Base","regulation_gvt_link":"https://azdeq.gov/DOD/DavisMonthan","resources_link":"DMAFB: https://azdeq.gov/node/4209","suspected_source_link":"https://azbigmedia.com/3-arizona-military-bases-now-tested-water-contamination/","pfas_testing_link":"https://drive.google.com/file/d/1XdY1Ow8B-M8FSRAvKTb902zdV941joUL/view?usp=sharing","site_ref_link":"https://drive.google.com/drive/folders/1cRwVLj9t2iU1DCm-nKz8HvurYPAKdTsk","state_ref_link":"https://drive.google.com/drive/u/1/folders/1NDSF5O2zivixjKUEYTRtJ_keJVbx9VmC","ObjectId":2155}},{"type":"Feature","id":2156,"geometry":{"type":"Point","coordinates":[-110.949058,32.133553]},"properties":{"site_name":"Tucson Air National Guard Base","other_site_names":"Tucson International Airport Area, Morris Air National Guard Base","state":"Arizona","industry":"Military","matrix_type":"Groundwater","matrix":"Groundwater","year":2018,"pfoa":"4700","pfos":"260","total_pfas":13251,"pfas_level":13251,"notes":"Firefighting foam used at Tucson International Airport and Air National Guard Base","regulation_gvt_link":"https://www.tucsonaz.gov/water/pfas","resources_link":"http://afcec.publicadmin-record.us.af.mil/","suspected_source_link":null,"pfas_testing_link":"https://drive.google.com/file/d/1RndFavo8dPIEo8ophr206G_-QgUB9wcX/view?usp=sharing","site_ref_link":"https://drive.google.com/drive/u/0/folders/1cRwVLj9t2iU1DCm-nKz8HvurYPAKdTsk","state_ref_link":"https://drive.google.com/drive/u/1/folders/1NDSF5O2zivixjKUEYTRtJ_keJVbx9VmC","ObjectId":2156}},{"type":"Feature","id":2157,"geometry":{"type":"Point","coordinates":[-114.59945,32.66262]},"properties":{"site_name":"Marine Corps Air Station Yuma","other_site_names":"Yuma Marine Corps Air Station","state":"Arizona","industry":"Military","matrix_type":"Groundwater","matrix":"Groundwater","year":2018,"pfoa":null,"pfos":null,"total_pfas":86,"pfas_level":86,"notes":"AFFF used at Marine Corps Air Station Yuma; MCAS Yuma shares airfield facilities with Yuma International Airport; 2016 testing measured PFOA and PFOS combined at 185ppt","regulation_gvt_link":"https://www.azdeq.gov/superfund/YumaMarineCorpsAirStation","resources_link":"https://cumulis.epa.gov/supercpad/SiteProfiles/index.cfm?fuseaction=second.docdata&id=0900885","suspected_source_link":"https://drive.google.com/file/d/1D4oY6-jeyfJdbKPdOhOsvkQpYB-wNMLD/view?usp=drive_link","pfas_testing_link":"https://drive.google.com/file/d/1D4oY6-jeyfJdbKPdOhOsvkQpYB-wNMLD/view?usp=drive_link","site_ref_link":"https://drive.google.com/drive/folders/1k0E7A1O-Ow_twKYRxXeQZ9IyWD2drC9e","state_ref_link":"https://drive.google.com/drive/u/1/folders/1NDSF5O2zivixjKUEYTRtJ_keJVbx9VmC","ObjectId":2157}},{"type":"Feature","id":2158,"geometry":{"type":"Point","coordinates":[-112.01094,33.426083]},"properties":{"site_name":"Phoenix Air National Guard Base","other_site_names":"Sky Harbor International Airport","state":"Arizona","industry":"Military","matrix_type":"Groundwater","matrix":"Groundwater","year":2018,"pfoa":"23","pfos":"55","total_pfas":205,"pfas_level":205,"notes":"AFFF used at Phoenix Air National Guard Base / Sky Harbor Int Airport","regulation_gvt_link":"N/A","resources_link":"http://afcec.publicadmin-record.us.af.mil/","suspected_source_link":null,"pfas_testing_link":"https://drive.google.com/file/d/1phSJ339Le6QfPRaV3XBNxSofcdEP-X3h/view?usp=sharing","site_ref_link":"https://drive.google.com/drive/u/0/folders/193WEtHKxAobUbA32qh0yRHF7k-ZnlVd9","state_ref_link":"https://drive.google.com/drive/u/1/folders/1NDSF5O2zivixjKUEYTRtJ_keJVbx9VmC","ObjectId":2158}},{"type":"Feature","id":2534,"geometry":{"type":"Point","coordinates":[-114.267397,32.979519]},"properties":{"site_name":"Yuma Proving Ground","other_site_names":null,"state":"Arizona","industry":"Military","matrix_type":"Other Water","matrix":"Drinking Water","year":2016,"pfoa":null,"pfos":null,"total_pfas":67,"pfas_level":67,"notes":null,"regulation_gvt_link":null,"resources_link":"N/A","suspected_source_link":null,"pfas_testing_link":"https://cdn3.ewg.org/sites/default/files/u352/EWG_PFASTable-Army_C01.pdf","site_ref_link":"https://drive.google.com/drive/u/0/folders/17vc5JX3Gvo92Bih-kg-GABnBbExIJhXg","state_ref_link":"https://drive.google.com/drive/u/1/folders/1NDSF5O2zivixjKUEYTRtJ_keJVbx9VmC","ObjectId":2534}},{"type":"Feature","id":2535,"geometry":{"type":"Point","coordinates":[-111.82159,35.230735]},"properties":{"site_name":"Camp Navajo","other_site_names":null,"state":"Arizona","industry":"Military","matrix_type":"Other Water","matrix":"Drinking Water","year":2017,"pfoa":null,"pfos":null,"total_pfas":31,"pfas_level":31,"notes":null,"regulation_gvt_link":null,"resources_link":"https://azdeq.gov/DOD/camp-navajo","suspected_source_link":null,"pfas_testing_link":"https://cdn3.ewg.org/sites/default/files/u352/EWG_PFASTable-Army_C01.pdf","site_ref_link":"https://drive.google.com/drive/u/0/folders/17vc5JX3Gvo92Bih-kg-GABnBbExIJhXg","state_ref_link":"https://drive.google.com/drive/u/1/folders/1NDSF5O2zivixjKUEYTRtJ_keJVbx9VmC","ObjectId":2535}},{"type":"Feature","id":2536,"geometry":{"type":"Point","coordinates":[-110.327229,31.569598]},"properties":{"site_name":"Fort Huachuca","other_site_names":null,"state":"Arizona","industry":"Military","matrix_type":"Other Water","matrix":"Drinking Water","year":2018,"pfoa":null,"pfos":null,"total_pfas":27,"pfas_level":27,"notes":null,"regulation_gvt_link":null,"resources_link":"https://azdeq.gov/DOD/camp-navajo","suspected_source_link":null,"pfas_testing_link":"https://cdn3.ewg.org/sites/default/files/u352/EWG_PFASTable-Army_C01.pdf","site_ref_link":"https://drive.google.com/drive/u/0/folders/17vc5JX3Gvo92Bih-kg-GABnBbExIJhXg","state_ref_link":"https://drive.google.com/drive/u/1/folders/1NDSF5O2zivixjKUEYTRtJ_keJVbx9VmC","ObjectId":2536}},{"type":"Feature","id":2912,"geometry":{"type":"Point","coordinates":[-110.938407,32.101154]},"properties":{"site_name":"Air Force Plant 44","other_site_names":"Tucson International Airport","state":"Arizona","industry":"Military","matrix_type":"Groundwater","matrix":"Groundwater","year":2020,"pfoa":"160","pfos":"3400","total_pfas":null,"pfas_level":3400,"notes":null,"regulation_gvt_link":null,"resources_link":"https://azdeq.gov/superfund/us-air-force-plant-44","suspected_source_link":"https://ar.afcec-cloud.af.mil/Search.aspx","pfas_testing_link":"https://drive.google.com/file/d/1b240feO2gz-pfdtG6sw71-o79azAOYjE/view?usp=sharing","site_ref_link":null,"state_ref_link":null,"ObjectId":2912}},{"type":"Feature","id":3312,"geometry":{"type":"Point","coordinates":[-111.9083,33.466669]},"properties":{"site_name":"Indian Bend Wash Area","other_site_names":null,"state":"Arizona","industry":"Industry","matrix_type":"Groundwater","matrix":"Groundwater","year":2017,"pfoa":null,"pfos":null,"total_pfas":null,"pfas_level":8,"notes":null,"regulation_gvt_link":null,"resources_link":null,"suspected_source_link":null,"pfas_testing_link":null,"site_ref_link":"Scotsdale, AZ - North Indian Bend Wash ","state_ref_link":null,"ObjectId":3312}},{"type":"Feature","id":3313,"geometry":{"type":"Point","coordinates":[-111.9708,33.461669]},"properties":{"site_name":"MOTOROLA, INC. (52ND STREET PLANT)","other_site_names":null,"state":"Arizona","industry":"Industry","matrix_type":"Groundwater","matrix":"Groundwater","year":2023,"pfoa":"10","pfos":"70","total_pfas":164,"pfas_level":164,"notes":null,"regulation_gvt_link":null,"resources_link":"https://cumulis.epa.gov/supercpad/cursites/csitinfo.cfm?id=0900517","suspected_source_link":null,"pfas_testing_link":"https://drive.google.com/file/d/1Oj1rON7qGC2_ERmLdsZt3RfUUBBLdYdC/view?usp=drive_link","site_ref_link":"https://drive.google.com/file/d/1Oj1rON7qGC2_ERmLdsZt3RfUUBBLdYdC/view?usp=drive_link","state_ref_link":null,"ObjectId":3313}},{"type":"Feature","id":3314,"geometry":{"type":"Point","coordinates":[-114.5888,32.654581]},"properties":{"site_name":"YUMA MARINE CORPS AIR STATION","other_site_names":null,"state":"Arizona","industry":"Military","matrix_type":"Groundwater","matrix":"Groundwater","year":2018,"pfoa":null,"pfos":null,"total_pfas":86,"pfas_level":86,"notes":null,"regulation_gvt_link":"https://cumulis.epa.gov/supercpad/SiteProfiles/index.cfm?fuseaction=second.docdata&id=0900885","resources_link":"https://www.azdeq.gov/superfund/YumaMarineCorpsAirStation","suspected_source_link":"https://cumulis.epa.gov/supercpad/SiteProfiles/index.cfm?fuseaction=second.docdata&id=0900885","pfas_testing_link":"https://cumulis.epa.gov/supercpad/SiteProfiles/index.cfm?fuseaction=second.docdata&id=0900885","site_ref_link":null,"state_ref_link":null,"ObjectId":3314}},{"type":"Feature","id":3733,"geometry":{"type":"Point","coordinates":[-112.591767,33.452385]},"properties":{"site_name":"Buckeye Training Site","other_site_names":null,"state":"Arizona","industry":"Military","matrix_type":"Other Water","matrix":"Drinking Water","year":2018,"pfoa":null,"pfos":null,"total_pfas":1,"pfas_level":1,"notes":null,"regulation_gvt_link":null,"resources_link":null,"suspected_source_link":"https://drive.google.com/file/d/1g1t60FsMLcfluvkLqorqlbsHnkF_rNZw/view?usp=sharing","pfas_testing_link":"https://drive.google.com/file/d/1g1t60FsMLcfluvkLqorqlbsHnkF_rNZw/view?usp=sharing","site_ref_link":"https://drive.google.com/drive/u/0/folders/17vc5JX3Gvo92Bih-kg-GABnBbExIJhXg","state_ref_link":"https://drive.google.com/drive/folders/1MtshhDFQy_fTCm-Ne2ycOfDhuw9oZ5VZ?usp=sharing","ObjectId":3733}},{"type":"Feature","id":3734,"geometry":{"type":"Point","coordinates":[-111.377878,33.066431]},"properties":{"site_name":"Florence Military Reservation","other_site_names":null,"state":"Arizona","industry":"Military","matrix_type":"Other Water","matrix":"Drinking Water","year":2018,"pfoa":null,"pfos":null,"total_pfas":1,"pfas_level":1,"notes":null,"regulation_gvt_link":null,"resources_link":null,"suspected_source_link":"https://drive.google.com/file/d/1g1t60FsMLcfluvkLqorqlbsHnkF_rNZw/view?usp=sharing","pfas_testing_link":"https://drive.google.com/file/d/1g1t60FsMLcfluvkLqorqlbsHnkF_rNZw/view?usp=sharing","site_ref_link":"https://drive.google.com/drive/u/0/folders/17vc5JX3Gvo92Bih-kg-GABnBbExIJhXg","state_ref_link":"https://drive.google.com/drive/folders/1MtshhDFQy_fTCm-Ne2ycOfDhuw9oZ5VZ?usp=sharing","ObjectId":3734}},{"type":"Feature","id":3735,"geometry":{"type":"Point","coordinates":[-111.487415,32.663135]},"properties":{"site_name":"Picacho Aviation Training Site","other_site_names":null,"state":"Arizona","industry":"Military","matrix_type":"Other Water","matrix":"Drinking Water","year":2018,"pfoa":null,"pfos":null,"total_pfas":1,"pfas_level":1,"notes":null,"regulation_gvt_link":null,"resources_link":null,"suspected_source_link":"https://drive.google.com/file/d/1g1t60FsMLcfluvkLqorqlbsHnkF_rNZw/view?usp=sharing","pfas_testing_link":"https://drive.google.com/file/d/1g1t60FsMLcfluvkLqorqlbsHnkF_rNZw/view?usp=sharing","site_ref_link":"https://drive.google.com/drive/u/0/folders/17vc5JX3Gvo92Bih-kg-GABnBbExIJhXg","state_ref_link":"https://drive.google.com/drive/folders/1MtshhDFQy_fTCm-Ne2ycOfDhuw9oZ5VZ?usp=sharing","ObjectId":3735}},{"type":"Feature","id":3736,"geometry":{"type":"Point","coordinates":[-111.335336,32.523739]},"properties":{"site_name":"Silver Bell Army Heliport","other_site_names":"Arizona National Guard Western Army Aviation Training Site","state":"Arizona","industry":"Military","matrix_type":"Other Water","matrix":"Drinking Water","year":2018,"pfoa":"2","pfos":"10","total_pfas":44,"pfas_level":44,"notes":null,"regulation_gvt_link":null,"resources_link":"N/A","suspected_source_link":"https://drive.google.com/file/d/1g1t60FsMLcfluvkLqorqlbsHnkF_rNZw/view?usp=sharing","pfas_testing_link":"https://drive.google.com/file/d/1g1t60FsMLcfluvkLqorqlbsHnkF_rNZw/view?usp=sharing","site_ref_link":"https://drive.google.com/drive/u/0/folders/17vc5JX3Gvo92Bih-kg-GABnBbExIJhXg","state_ref_link":"https://drive.google.com/drive/folders/1MtshhDFQy_fTCm-Ne2ycOfDhuw9oZ5VZ?usp=sharing","ObjectId":3736}},{"type":"Feature","id":4257,"geometry":{"type":"Point","coordinates":[-112.04848,33.508713]},"properties":{"site_name":"16 Str. & Camelback","other_site_names":"MW-10R, 16 STR. & CAMELBACK MW-12, ADEQ MW-1455","state":"Arizona","industry":"Industry","matrix_type":"Groundwater","matrix":"Groundwater","year":2024,"pfoa":"24","pfos":"33","total_pfas":null,"pfas_level":33,"notes":"Former drycleaner flagged by AZDEQ for TCE emissions","regulation_gvt_link":"https://drive.google.com/file/d/16kt6_sHAE-0PHniiMrwovsa-ir_BT4Sh/view?usp=drive_link","resources_link":"https://echo.epa.gov/trends/pfas-tools","suspected_source_link":"https://drive.google.com/file/d/1QeBhDRzE6OjtLzBm8W2LXL06sa3IYGUn/view?usp=drive_link","pfas_testing_link":"https://docs.google.com/spreadsheets/d/1d62nZIdzdWFNSk_UsoeoZZ6HpUspL1P5/edit?usp=drive_link&ouid=108800455933392071157&rtpof=true&sd=true","site_ref_link":"https://drive.google.com/file/d/1QeBhDRzE6OjtLzBm8W2LXL06sa3IYGUn/view?usp=drive_link","state_ref_link":null,"ObjectId":4257}},{"type":"Feature","id":4258,"geometry":{"type":"Point","coordinates":[-110.966473,32.226269]},"properties":{"site_name":"7th Street and Arizona Avenue","other_site_names":"ADEQ 7AZP-1, ADEQ 7AZR-1, ADEQ 7AZP-6, 7AZP-19,","state":"Arizona","industry":"Industry","matrix_type":"Groundwater","matrix":"Groundwater","year":2024,"pfoa":"15","pfos":"27","total_pfas":null,"pfas_level":27,"notes":"Former drycleaner flagged by AZDEQ for TCE emissions","regulation_gvt_link":"https://drive.google.com/file/d/16kt6_sHAE-0PHniiMrwovsa-ir_BT4Sh/view?usp=drive_link","resources_link":"https://echo.epa.gov/trends/pfas-tools","suspected_source_link":"https://drive.google.com/file/d/1MKWbve_mSgEIBAG3bkfyVZCAIIiob0op/view?usp=drive_link","pfas_testing_link":"https://docs.google.com/spreadsheets/d/1d62nZIdzdWFNSk_UsoeoZZ6HpUspL1P5/edit?usp=drive_link&ouid=108800455933392071157&rtpof=true&sd=true","site_ref_link":"https://drive.google.com/file/d/1MKWbve_mSgEIBAG3bkfyVZCAIIiob0op/view?usp=drive_link","state_ref_link":null,"ObjectId":4258}},{"type":"Feature","id":4259,"geometry":{"type":"Point","coordinates":[-112.515474,33.36311]},"properties":{"site_name":"AZ_DEQ Pesticide Monitoring Program","other_site_names":null,"state":"Arizona","industry":"Other","matrix_type":"Groundwater","matrix":"Groundwater","year":2021,"pfoa":"12","pfos":"28","total_pfas":null,"pfas_level":28,"notes":"Agriculture site identified in state pesticide monitoring program","regulation_gvt_link":null,"resources_link":"https://echo.epa.gov/trends/pfas-tools","suspected_source_link":null,"pfas_testing_link":"https://docs.google.com/spreadsheets/d/1d62nZIdzdWFNSk_UsoeoZZ6HpUspL1P5/edit?usp=drive_link&ouid=108800455933392071157&rtpof=true&sd=true","site_ref_link":"https://azdeq.gov/arizona-pesticide-groundwater-quality-protection-program","state_ref_link":"https://azdeq.gov/GW_quality_n_monitoring","ObjectId":4259}},{"type":"Feature","id":4260,"geometry":{"type":"Point","coordinates":[-109.972331,34.149383]},"properties":{"site_name":"Earl's Laundry and Dry Cleaning","other_site_names":"Earl S Well, Highway 260 and Johnson Lane, MW-2, MW-1","state":"Arizona","industry":"Industry","matrix_type":"Groundwater","matrix":"Groundwater","year":2017,"pfoa":"17","pfos":"42","total_pfas":null,"pfas_level":42,"notes":null,"regulation_gvt_link":"https://drive.google.com/file/d/16kt6_sHAE-0PHniiMrwovsa-ir_BT4Sh/view?usp=drive_link","resources_link":"https://echo.epa.gov/trends/pfas-tools","suspected_source_link":"https://drive.google.com/file/d/1cZH1ig8Hs55J2fW5LQlYIM4NFN6e1yCm/view?usp=drive_link","pfas_testing_link":"https://docs.google.com/spreadsheets/d/1d62nZIdzdWFNSk_UsoeoZZ6HpUspL1P5/edit?usp=drive_link&ouid=108800455933392071157&rtpof=true&sd=true","site_ref_link":"https://drive.google.com/file/d/1cZH1ig8Hs55J2fW5LQlYIM4NFN6e1yCm/view?usp=drive_link","state_ref_link":null,"ObjectId":4260}},{"type":"Feature","id":4261,"geometry":{"type":"Point","coordinates":[-112.00439,34.723758]},"properties":{"site_name":"Highway 260 and Main Street","other_site_names":"SW-7, SW-8, SW-1, NW-3, NW-4, NW-2, NW-11,","state":"Arizona","industry":"Industry","matrix_type":"Groundwater","matrix":"Groundwater","year":2017,"pfoa":"9","pfos":"5","total_pfas":null,"pfas_level":9,"notes":null,"regulation_gvt_link":"https://drive.google.com/file/d/16kt6_sHAE-0PHniiMrwovsa-ir_BT4Sh/view?usp=drive_link","resources_link":"https://echo.epa.gov/trends/pfas-tools","suspected_source_link":"https://drive.google.com/file/d/10EskFVmIkj0NR-u60QLhPpoQmuqEovJQ/view?usp=drive_link","pfas_testing_link":"https://docs.google.com/spreadsheets/d/1d62nZIdzdWFNSk_UsoeoZZ6HpUspL1P5/edit?usp=drive_link&ouid=108800455933392071157&rtpof=true&sd=true","site_ref_link":"https://drive.google.com/file/d/10EskFVmIkj0NR-u60QLhPpoQmuqEovJQ/view?usp=drive_link","state_ref_link":null,"ObjectId":4261}},{"type":"Feature","id":4262,"geometry":{"type":"Point","coordinates":[-112.124148,33.488208]},"properties":{"site_name":"West Central Phoenix - East Grand Avenue","other_site_names":"WCP-48","state":"Arizona","industry":"Industry","matrix_type":"Groundwater","matrix":"Groundwater","year":2017,"pfoa":"5","pfos":"14","total_pfas":null,"pfas_level":14,"notes":"Former chemical vendor (including dry cleaning chemicals) flagged by AZDEQ for TCE emissions","regulation_gvt_link":"https://drive.google.com/file/d/16kt6_sHAE-0PHniiMrwovsa-ir_BT4Sh/view?usp=drive_link","resources_link":"https://echo.epa.gov/trends/pfas-tools","suspected_source_link":"https://drive.google.com/file/d/1Wj50QWnhmtTT54o-UDDyKhXFvUIvoE_V/view?usp=drive_link","pfas_testing_link":"https://docs.google.com/spreadsheets/d/1d62nZIdzdWFNSk_UsoeoZZ6HpUspL1P5/edit?usp=drive_link&ouid=108800455933392071157&rtpof=true&sd=true","site_ref_link":"https://drive.google.com/file/d/1Wj50QWnhmtTT54o-UDDyKhXFvUIvoE_V/view?usp=drive_link","state_ref_link":null,"ObjectId":4262}},{"type":"Feature","id":4263,"geometry":{"type":"Point","coordinates":[-112.146219,33.4988]},"properties":{"site_name":"West Central Phoenix - North Plume","other_site_names":"MW-39, WCP MW-222","state":"Arizona","industry":"Industry","matrix_type":"Groundwater","matrix":"Groundwater","year":2017,"pfoa":"8","pfos":"6","total_pfas":null,"pfas_level":8,"notes":"Former \"metal aircraft and spacecraft parts\" manufacturer","regulation_gvt_link":"https://drive.google.com/file/d/16kt6_sHAE-0PHniiMrwovsa-ir_BT4Sh/view?usp=drive_link","resources_link":"https://echo.epa.gov/trends/pfas-tools","suspected_source_link":"https://drive.google.com/file/d/1Wj50QWnhmtTT54o-UDDyKhXFvUIvoE_V/view?usp=drive_link","pfas_testing_link":"https://docs.google.com/spreadsheets/d/1d62nZIdzdWFNSk_UsoeoZZ6HpUspL1P5/edit?usp=drive_link&ouid=108800455933392071157&rtpof=true&sd=true","site_ref_link":"https://drive.google.com/file/d/1Wj50QWnhmtTT54o-UDDyKhXFvUIvoE_V/view?usp=drive_link","state_ref_link":null,"ObjectId":4263}}]}