{"type":"FeatureCollection","crs":{"type":"name","properties":{"name":"EPSG:4326"}},"features":[{"type":"Feature","id":8,"geometry":{"type":"Point","coordinates":[-75.490648,39.687589]},"properties":{"site_name":"Chemours Chamber Works","other_site_names":null,"state":"New Jersey","industry":"Industry","matrix_type":"Groundwater","matrix":"Groundwater","year":2009,"pfoa":"2,200","pfos":null,"total_pfas":null,"pfas_level":2200,"notes":"DuPont Chambers Works Facility ","regulation_gvt_link":"N/A","resources_link":"https://www.nj.gov/dep/srp/emerging-contaminants/","suspected_source_link":"https://www.delawareriverkeeper.org/sites/default/files/resources/Letters/PFOA_pollution_in_the_vicinity_of_the_DuPont_Chambers_Works_Facility_4-28-09.pdf","pfas_testing_link":"N/A","site_ref_link":"https://drive.google.com/drive/u/0/folders/1A3VO8nP7j_UMfojgs0P_Gz1i5hxiom8f","state_ref_link":"https://drive.google.com/drive/u/1/folders/1gzW7FcQQelMoZUZ8VhdxW1RrTOgXt8vS?ths=true","ObjectId":8}},{"type":"Feature","id":11,"geometry":{"type":"Point","coordinates":[-74.13114,40.93762]},"properties":{"site_name":"Fair Lawn Well Field","other_site_names":null,"state":"New Jersey","industry":"Industry","matrix_type":"Drinking water","matrix":"Drinking Water","year":2013,"pfoa":"66","pfos":"36","total_pfas":null,"pfas_level":66,"notes":"Cites 2013 UCMR data for on-site wells","regulation_gvt_link":null,"resources_link":"https://cumulis.epa.gov/supercpad/SiteProfiles/index.cfm?fuseaction=second.docdata&id=0200765","suspected_source_link":"https://www.epw.senate.gov/public/index.cfm/superfund-sites-identified-by-epa-to-have-pfas-contamination","pfas_testing_link":"https://semspub.epa.gov/work/02/550183.pdf","site_ref_link":null,"state_ref_link":null,"ObjectId":11}},{"type":"Feature","id":21,"geometry":{"type":"Point","coordinates":[-75.208306,39.842786]},"properties":{"site_name":"Solvay Specialty Polymers Plant","other_site_names":null,"state":"New Jersey","industry":"Industry","matrix_type":"Groundwater","matrix":"Groundwater","year":2014,"pfoa":null,"pfos":null,"total_pfas":13000,"pfas_level":13000,"notes":"Industrial wastes from Solvay Specialty Polymer and Arkema","regulation_gvt_link":null,"resources_link":"https://www.nj.gov/dep/srp/emerging-contaminants/","suspected_source_link":"https://www.nj.com/news/2020/07/new-contamination-at-an-infamous-nj-chemical-plant-has-scientists-worried.html","pfas_testing_link":"https://drive.google.com/file/d/1xK5_cvjB98Fr5IuMtC_qijBeY3i57FDF/view","site_ref_link":null,"state_ref_link":"https://drive.google.com/drive/u/1/folders/1gzW7FcQQelMoZUZ8VhdxW1RrTOgXt8vS?ths=true","ObjectId":21}},{"type":"Feature","id":26,"geometry":{"type":"Point","coordinates":[-74.426369,39.370042]},"properties":{"site_name":"Atlantic City Municipal Utility Authority","other_site_names":null,"state":"New Jersey","industry":"Airport","matrix_type":"Groundwater","matrix":"Groundwater","year":2015,"pfoa":"43","pfos":"48","total_pfas":312,"pfas_level":312,"notes":"AFFF relesased at the Federal Aviation Administration’s property at the Atlantic City International Airport","regulation_gvt_link":"N/A","resources_link":"https://echo.epa.gov/detailed-facility-report?fid=NJ0102001&sys=SDWIS","suspected_source_link":"https://www.nj.gov/dep/watersupply/pdf/pfc-study.pdf","pfas_testing_link":"N/A","site_ref_link":"https://drive.google.com/drive/u/1/folders/1s0dhmO7fNmMQqYkFses5aX0KzSskQslX","state_ref_link":"https://drive.google.com/drive/u/1/folders/1gzW7FcQQelMoZUZ8VhdxW1RrTOgXt8vS","ObjectId":26}},{"type":"Feature","id":107,"geometry":{"type":"Point","coordinates":[-75.19972,39.77975]},"properties":{"site_name":"Helen Kramer Landfill","other_site_names":null,"state":"New Jersey","industry":"Waste","matrix_type":"Groundwater","matrix":"Groundwater","year":2018,"pfoa":null,"pfos":null,"total_pfas":null,"pfas_level":1385,"notes":null,"regulation_gvt_link":null,"resources_link":"https://cumulis.epa.gov/supercpad/SiteProfiles/index.cfm?fuseaction=second.docdata&id=0200552","suspected_source_link":"https://www.epw.senate.gov/public/index.cfm/superfund-sites-identified-by-epa-to-have-pfas-contamination","pfas_testing_link":"https://semspub.epa.gov/work/02/598804.pdf","site_ref_link":null,"state_ref_link":null,"ObjectId":107}},{"type":"Feature","id":216,"geometry":{"type":"Point","coordinates":[-74.818075,40.277001]},"properties":{"site_name":"Former Naval Air Warfare Center Trenton","other_site_names":"Trenton-Mercer Airport, Trenton NAWC-AD","state":"New Jersey","industry":"Military","matrix_type":"Groundwater","matrix":"Groundwater","year":2017,"pfoa":null,"pfos":null,"total_pfas":null,"pfas_level":27800,"notes":"AFFF used at Former Naval Air Warfare Center Trenton, now Trenton-Mercer Airport","regulation_gvt_link":"N/A","resources_link":"https://www.nj.gov/dep/srp/emerging-contaminants/","suspected_source_link":"https://drive.google.com/file/d/1EUMAiROzk8OxvPAWubv0xGGH9zI6mw4d/view?usp=drive_link ","pfas_testing_link":"N/A","site_ref_link":"https://drive.google.com/drive/u/1/folders/16CFzNfSUhPP24rCl7RCGFnyXlwfMrbFU","state_ref_link":"https://drive.google.com/drive/u/1/folders/1gzW7FcQQelMoZUZ8VhdxW1RrTOgXt8vS","ObjectId":216}},{"type":"Feature","id":268,"geometry":{"type":"Point","coordinates":[-75.239182,39.427216]},"properties":{"site_name":"Bridgeton Armory","other_site_names":null,"state":"New Jersey","industry":"Military","matrix_type":"Other Water","matrix":"Drinking Water","year":2018,"pfoa":null,"pfos":null,"total_pfas":1,"pfas_level":1,"notes":null,"regulation_gvt_link":null,"resources_link":null,"suspected_source_link":"https://drive.google.com/file/d/1g1t60FsMLcfluvkLqorqlbsHnkF_rNZw/view?usp=sharing","pfas_testing_link":"https://drive.google.com/file/d/1g1t60FsMLcfluvkLqorqlbsHnkF_rNZw/view?usp=sharing","site_ref_link":"https://drive.google.com/drive/u/0/folders/17vc5JX3Gvo92Bih-kg-GABnBbExIJhXg","state_ref_link":"https://drive.google.com/drive/u/1/folders/1gzW7FcQQelMoZUZ8VhdxW1RrTOgXt8vS?ths=true","ObjectId":268}},{"type":"Feature","id":287,"geometry":{"type":"Point","coordinates":[-74.910332,40.505656]},"properties":{"site_name":"Flemington Armory","other_site_names":null,"state":"New Jersey","industry":"Military","matrix_type":"Other Water","matrix":"Drinking Water","year":2018,"pfoa":"2","pfos":null,"total_pfas":null,"pfas_level":2,"notes":null,"regulation_gvt_link":null,"resources_link":null,"suspected_source_link":"https://drive.google.com/file/d/1g1t60FsMLcfluvkLqorqlbsHnkF_rNZw/view?usp=sharing","pfas_testing_link":"https://drive.google.com/file/d/1g1t60FsMLcfluvkLqorqlbsHnkF_rNZw/view?usp=sharing","site_ref_link":"https://drive.google.com/drive/u/0/folders/17vc5JX3Gvo92Bih-kg-GABnBbExIJhXg","state_ref_link":"https://drive.google.com/drive/u/1/folders/1gzW7FcQQelMoZUZ8VhdxW1RrTOgXt8vS?ths=true","ObjectId":287}},{"type":"Feature","id":339,"geometry":{"type":"Point","coordinates":[-75.14745,39.841477]},"properties":{"site_name":"Woodbury Creek","other_site_names":null,"state":"New Jersey","industry":"Industry","matrix_type":"Other Water","matrix":"Surface Water","year":2018,"pfoa":"7","pfos":"6","total_pfas":56,"pfas_level":56,"notes":"aaaf","regulation_gvt_link":"N/A","resources_link":"https://echo.epa.gov/detailed-facility-report?fid=NJ0822001&sys=SDWIS","suspected_source_link":"http://guides.gcls.org/c.php?g=803127&p=5735433","pfas_testing_link":"https://www.nj.gov/dep/dsr/publications/Investigation%20of%20Levels%20of%20Perfluorinated%20Compounds%20in%20New%20Jersey%20Fish,%20Surface%20Water,%20and%20Sediment.pdf","site_ref_link":"https://drive.google.com/drive/folders/11nIYk4jDicrmUBYAr7ZrUzkkKjyX2urW","state_ref_link":"https://drive.google.com/drive/u/1/folders/1gzW7FcQQelMoZUZ8VhdxW1RrTOgXt8vS?ths=true","ObjectId":339}},{"type":"Feature","id":499,"geometry":{"type":"Point","coordinates":[-74.161365,40.264938]},"properties":{"site_name":"Naval Weapons Station Earle","other_site_names":"Naval Weapons Station Earle (Site A)","state":"New Jersey","industry":"Military","matrix_type":"Groundwater","matrix":"Groundwater","year":2017,"pfoa":"421","pfos":"185","total_pfas":3071,"pfas_level":3071,"notes":"AFFF used at Naval Weapons Station Earle and Earle Military Sealift Command ","regulation_gvt_link":"https://cumulis.epa.gov/supercpad/SiteProfiles/index.cfm?fuseaction=second.cleanup&id=0201160","resources_link":"https://www.nj.gov/dep/srp/emerging-contaminants/","suspected_source_link":"www.cnic.navy.mil/regions/cnrma/installations/nws_earle/om/environmental_support/nws_earle_msc_ffs_drinking_water.html","pfas_testing_link":null,"site_ref_link":"https://drive.google.com/drive/u/1/folders/1XKFfLVtNpJlVWvB0n5otKs3R1akHwY_L","state_ref_link":"https://drive.google.com/drive/u/1/folders/1gzW7FcQQelMoZUZ8VhdxW1RrTOgXt8vS","ObjectId":499}},{"type":"Feature","id":522,"geometry":{"type":"Point","coordinates":[-74.582075,41.103352]},"properties":{"site_name":"Franklin Armory","other_site_names":null,"state":"New Jersey","industry":"Military","matrix_type":"Other Water","matrix":"Drinking Water","year":2018,"pfoa":"2","pfos":"3","total_pfas":8,"pfas_level":8,"notes":null,"regulation_gvt_link":null,"resources_link":null,"suspected_source_link":"https://drive.google.com/file/d/1g1t60FsMLcfluvkLqorqlbsHnkF_rNZw/view?usp=sharing","pfas_testing_link":"https://drive.google.com/file/d/1g1t60FsMLcfluvkLqorqlbsHnkF_rNZw/view?usp=sharing","site_ref_link":"https://drive.google.com/drive/u/0/folders/17vc5JX3Gvo92Bih-kg-GABnBbExIJhXg","state_ref_link":"https://drive.google.com/drive/u/1/folders/1gzW7FcQQelMoZUZ8VhdxW1RrTOgXt8vS?ths=true","ObjectId":522}},{"type":"Feature","id":593,"geometry":{"type":"Point","coordinates":[-74.119719,40.185281]},"properties":{"site_name":"Monitor Devices, Inc./Intercircuits, Inc.","other_site_names":null,"state":"New Jersey","industry":"Industry","matrix_type":"Groundwater","matrix":"Groundwater","year":2018,"pfoa":"29","pfos":"15","total_pfas":null,"pfas_level":29,"notes":null,"regulation_gvt_link":null,"resources_link":"https://cumulis.epa.gov/supercpad/SiteProfiles/index.cfm?fuseaction=second.cleanup&id=0200638","suspected_source_link":"https://cumulis.epa.gov/supercpad/SiteProfiles/index.cfm?fuseaction=second.Cleanup&id=0200638#bkground","pfas_testing_link":"https://semspub.epa.gov/work/02/609943.pdf","site_ref_link":"https://drive.google.com/drive/folders/1gli8RVKa4zjpZIU4R-ZqXlHSnMa4vnB1?usp=drive_link","state_ref_link":"https://drive.google.com/drive/folders/1DoWldZlE-t71o34AxDz6Ue2QKEOXAGFW?usp=drive_link","ObjectId":593}},{"type":"Feature","id":676,"geometry":{"type":"Point","coordinates":[-74.56325,39.4443]},"properties":{"site_name":"Federal Aviation Administration Technical Center (USDOT)","other_site_names":null,"state":"New Jersey","industry":"Airport","matrix_type":"Groundwater","matrix":"Groundwater","year":2018,"pfoa":null,"pfos":null,"total_pfas":96500,"pfas_level":96500,"notes":null,"regulation_gvt_link":null,"resources_link":"https://cumulis.epa.gov/supercpad/SiteProfiles/index.cfm?fuseaction=second.docdata&id=0201178","suspected_source_link":"https://www.epw.senate.gov/public/index.cfm/superfund-sites-identified-by-epa-to-have-pfas-contamination","pfas_testing_link":"https://semspub.epa.gov/work/02/704700.pdf","site_ref_link":null,"state_ref_link":null,"ObjectId":676}},{"type":"Feature","id":706,"geometry":{"type":"Point","coordinates":[-74.580505,40.917076]},"properties":{"site_name":"Picatinny Arsenal","other_site_names":"Picatinny Arsenal (USARMY)","state":"New Jersey ","industry":"Military","matrix_type":"Other Water","matrix":"Drinking Water","year":2018,"pfoa":null,"pfos":null,"total_pfas":144,"pfas_level":144,"notes":null,"regulation_gvt_link":null,"resources_link":null,"suspected_source_link":null,"pfas_testing_link":"https://cdn3.ewg.org/sites/default/files/u352/EWG_PFASTable-Army_C01.pdf","site_ref_link":"https://drive.google.com/drive/u/0/folders/17vc5JX3Gvo92Bih-kg-GABnBbExIJhXg","state_ref_link":"https://drive.google.com/drive/u/1/folders/1gzW7FcQQelMoZUZ8VhdxW1RrTOgXt8vS","ObjectId":706}},{"type":"Feature","id":1029,"geometry":{"type":"Point","coordinates":[-74.558089,40.55432]},"properties":{"site_name":"American Cyamid Co","other_site_names":null,"state":"New Jersey","industry":"Industry","matrix_type":"Groundwater","matrix":"Groundwater","year":2022,"pfoa":"436","pfos":"136","total_pfas":12643,"pfas_level":12643,"notes":null,"regulation_gvt_link":null,"resources_link":"https://cumulis.epa.gov/supercpad/SiteProfiles/index.cfm?fuseaction=second.docdata&id=0200144","suspected_source_link":"https://www.epw.senate.gov/public/index.cfm/superfund-sites-identified-by-epa-to-have-pfas-contamination","pfas_testing_link":"https://semspub.epa.gov/work/02/704699.pdf","site_ref_link":null,"state_ref_link":null,"ObjectId":1029}},{"type":"Feature","id":1071,"geometry":{"type":"Point","coordinates":[-74.4975,40.09555]},"properties":{"site_name":"Goose Farm","other_site_names":null,"state":"New Jersey","industry":"Industry","matrix_type":"Groundwater","matrix":"Groundwater","year":2023,"pfoa":"240","pfos":"1","total_pfas":254,"pfas_level":254,"notes":null,"regulation_gvt_link":null,"resources_link":"https://cumulis.epa.gov/supercpad/SiteProfiles/index.cfm?fuseaction=second.cleanup&id=0200681","suspected_source_link":"https://cumulis.epa.gov/supercpad/SiteProfiles/index.cfm?fuseaction=second.Cleanup&id=0200681#bkground","pfas_testing_link":"https://semspub.epa.gov/work/02/642126.pdf","site_ref_link":"https://drive.google.com/drive/folders/1gdgJ4C45Oyb94_RZ60P2ZLUKPFKTSOIa?usp=drive_link","state_ref_link":"https://drive.google.com/drive/folders/1DoWldZlE-t71o34AxDz6Ue2QKEOXAGFW?usp=drive_link","ObjectId":1071}},{"type":"Feature","id":1287,"geometry":{"type":"Point","coordinates":[-75.332781,39.798331]},"properties":{"site_name":"Chemical Leaman Tank Lines, Inc.","other_site_names":null,"state":"New Jersey","industry":"Industry","matrix_type":"Groundwater","matrix":"Groundwater","year":2021,"pfoa":"180","pfos":"6","total_pfas":249,"pfas_level":249,"notes":null,"regulation_gvt_link":null,"resources_link":"https://cumulis.epa.gov/supercpad/SiteProfiles/index.cfm?fuseaction=second.cleanup&id=0200327","suspected_source_link":"https://cumulis.epa.gov/supercpad/SiteProfiles/index.cfm?fuseaction=second.Cleanup&id=0200327#bkground","pfas_testing_link":"https://semspub.epa.gov/work/02/609944.pdf","site_ref_link":"https://drive.google.com/drive/folders/16DgWVoX5ssjHKu_Ei2O753bgAFftuxPB?usp=drive_link","state_ref_link":"https://drive.google.com/drive/folders/1DoWldZlE-t71o34AxDz6Ue2QKEOXAGFW?usp=drive_link","ObjectId":1287}},{"type":"Feature","id":1385,"geometry":{"type":"Point","coordinates":[-74.2363,39.9867]},"properties":{"site_name":"Ciba-Geigy Corp.","other_site_names":null,"state":"New Jersey","industry":"Industry","matrix_type":"Groundwater","matrix":"Groundwater","year":2020,"pfoa":"23","pfos":null,"total_pfas":null,"pfas_level":23,"notes":null,"regulation_gvt_link":null,"resources_link":"https://cumulis.epa.gov/supercpad/cursites/csitinfo.cfm?id=0200078","suspected_source_link":"https://drive.google.com/file/d/1k21N74iTnhjuotAnqXnDYvI0YKkfdDwY/view?usp=drive_link","pfas_testing_link":null,"site_ref_link":null,"state_ref_link":null,"ObjectId":1385}},{"type":"Feature","id":1392,"geometry":{"type":"Point","coordinates":[-74.63,41.04805]},"properties":{"site_name":"A.O. Polymer","other_site_names":null,"state":"New Jersey","industry":"Industry","matrix_type":"Groundwater","matrix":"Groundwater","year":2020,"pfoa":"31","pfos":"6","total_pfas":null,"pfas_level":31,"notes":null,"regulation_gvt_link":null,"resources_link":"https://cumulis.epa.gov/supercpad/SiteProfiles/index.cfm?fuseaction=second.cleanup&id=0200290","suspected_source_link":"https://cumulis.epa.gov/supercpad/SiteProfiles/index.cfm?fuseaction=second.cleanup&id=0200290#bkground","pfas_testing_link":"https://semspub.epa.gov/work/02/642107.pdf","site_ref_link":"https://drive.google.com/drive/folders/1ObfLfFvNDPYiKUxLyUMiXn-kB-o-t_WL?usp=drive_link","state_ref_link":"https://drive.google.com/drive/folders/1DoWldZlE-t71o34AxDz6Ue2QKEOXAGFW?usp=drive_link","ObjectId":1392}},{"type":"Feature","id":1421,"geometry":{"type":"Point","coordinates":[-74.271389,40.876389]},"properties":{"site_name":"Caldwell Trucking Co.","other_site_names":null,"state":"New Jersey","industry":"Waste","matrix_type":"Groundwater","matrix":"Groundwater","year":2020,"pfoa":"41","pfos":"15","total_pfas":57,"pfas_level":57,"notes":null,"regulation_gvt_link":null,"resources_link":"https://cumulis.epa.gov/supercpad/SiteProfiles/index.cfm?fuseaction=second.cleanup&id=0200340","suspected_source_link":"https://cumulis.epa.gov/supercpad/SiteProfiles/index.cfm?fuseaction=second.cleanup&id=0200340#bkground","pfas_testing_link":"https://semspub.epa.gov/work/02/609941.pdf","site_ref_link":"https://drive.google.com/drive/folders/1XS6sI4mbdlVEEtqmJZ-x3duLPuvid7_u?usp=drive_link","state_ref_link":"https://drive.google.com/drive/folders/1DoWldZlE-t71o34AxDz6Ue2QKEOXAGFW?usp=drive_link","ObjectId":1421}},{"type":"Feature","id":1433,"geometry":{"type":"Point","coordinates":[-74.114719,40.737781]},"properties":{"site_name":"Syncon Resins","other_site_names":null,"state":"New Jersey","industry":"Industry","matrix_type":"Groundwater","matrix":"Groundwater","year":2020,"pfoa":"86","pfos":"61","total_pfas":null,"pfas_level":86,"notes":null,"regulation_gvt_link":null,"resources_link":null,"suspected_source_link":"https://cumulis.epa.gov/supercpad/SiteProfiles/index.cfm?fuseaction=second.Cleanup&id=0200401#bkground","pfas_testing_link":"https://semspub.epa.gov/work/02/609896.pdf","site_ref_link":"https://drive.google.com/drive/folders/1OJIavQ1uCSK2PByruR6i3ZnsV5Po9LA8?usp=drive_link","state_ref_link":"https://drive.google.com/drive/folders/1DoWldZlE-t71o34AxDz6Ue2QKEOXAGFW?usp=drive_link","ObjectId":1433}},{"type":"Feature","id":1578,"geometry":{"type":"Point","coordinates":[-75.213947,39.802898]},"properties":{"site_name":"Gloucester County Fire Training Area","other_site_names":null,"state":"New Jersey","industry":"Fire Department/Training Facility","matrix_type":"Groundwater","matrix":"Groundwater","year":2020,"pfoa":"29","pfos":"4,360","total_pfas":5369,"pfas_level":5369,"notes":"Source of contamination was the use of AFFF in training area. Solvay accused GCFTA of pollution in a lawsuit, conducting its own sampling to prove that the GCFTA was responsible for PFAS contamination near Solvay's West Deptford facility.","regulation_gvt_link":null,"resources_link":null,"suspected_source_link":"https://d1ung6i9j8i9xc.cloudfront.net/wp-content/blogs.dir/123/files/2020/10/Solvay-lawsuit-Oct-2020.pdf","pfas_testing_link":"https://d1ung6i9j8i9xc.cloudfront.net/wp-content/blogs.dir/123/files/2020/10/Solvay-lawsuit-Oct-2020.pdf","site_ref_link":null,"state_ref_link":"https://drive.google.com/drive/u/1/folders/1gzW7FcQQelMoZUZ8VhdxW1RrTOgXt8vS","ObjectId":1578}},{"type":"Feature","id":1579,"geometry":{"type":"Point","coordinates":[-74.3785,40.4891]},"properties":{"site_name":"Kin-Buc Landfill","other_site_names":null,"state":"New Jersey","industry":"Waste","matrix_type":"Groundwater","matrix":"Groundwater","year":2020,"pfoa":"750","pfos":"5,000","total_pfas":5826,"pfas_level":5826,"notes":null,"regulation_gvt_link":null,"resources_link":"https://cumulis.epa.gov/supercpad/SiteProfiles/index.cfm?fuseaction=second.cleanup&id=0200346","suspected_source_link":"https://cumulis.epa.gov/supercpad/SiteProfiles/index.cfm?fuseaction=second.Cleanup&id=0200346#bkground","pfas_testing_link":"https://semspub.epa.gov/work/02/704667.pdf","site_ref_link":"https://drive.google.com/drive/folders/1jz-e47dchnW0F-8KgVYr-LKNOD1khNOB","state_ref_link":"https://drive.google.com/drive/folders/1DoWldZlE-t71o34AxDz6Ue2QKEOXAGFW?usp=drive_link","ObjectId":1579}},{"type":"Feature","id":1697,"geometry":{"type":"Point","coordinates":[-74.583464,39.445015]},"properties":{"site_name":"New Jersey Air National Guard Base","other_site_names":null,"state":"New Jersey","industry":"Military","matrix_type":"Groundwater","matrix":"Groundwater","year":2019,"pfoa":"250","pfos":"34,000","total_pfas":null,"pfas_level":34000,"notes":null,"regulation_gvt_link":null,"resources_link":null,"suspected_source_link":"https://ar.afcec-cloud.af.mil/Search.aspx","pfas_testing_link":"https://drive.google.com/file/d/1CETTum1XzFUKXfOnlEYFa0Eaj5rNhw4t/view?usp=sharing","site_ref_link":null,"state_ref_link":null,"ObjectId":1697}},{"type":"Feature","id":1709,"geometry":{"type":"Point","coordinates":[-74.161111,40.150831]},"properties":{"site_name":"Bog Creek Farm","other_site_names":null,"state":"New Jersey","industry":"Industry","matrix_type":"Groundwater","matrix":"Groundwater","year":2020,"pfoa":"71","pfos":"56","total_pfas":null,"pfas_level":71,"notes":null,"regulation_gvt_link":null,"resources_link":"https://cumulis.epa.gov/supercpad/SiteProfiles/index.cfm?fuseaction=second.cleanup&id=0200397","suspected_source_link":"https://cumulis.epa.gov/supercpad/SiteProfiles/index.cfm?fuseaction=second.Cleanup&id=0200397#bkground","pfas_testing_link":"https://semspub.epa.gov/work/02/609914.pdf","site_ref_link":"https://drive.google.com/drive/folders/18w_MaiBmafRFswp7owU3tbdaIrFnJWnD?usp=drive_link","state_ref_link":"https://drive.google.com/drive/folders/1DoWldZlE-t71o34AxDz6Ue2QKEOXAGFW?usp=drive_link","ObjectId":1709}},{"type":"Feature","id":1710,"geometry":{"type":"Point","coordinates":[-75.321661,39.801669]},"properties":{"site_name":"Bridgeport Rental & Oil Services","other_site_names":null,"state":"New Jersey","industry":"Industry","matrix_type":"Groundwater","matrix":"Groundwater","year":2020,"pfoa":"856","pfos":"29","total_pfas":null,"pfas_level":856,"notes":null,"regulation_gvt_link":null,"resources_link":"https://cumulis.epa.gov/supercpad/SiteProfiles/index.cfm?fuseaction=second.cleanup&id=0200364","suspected_source_link":"https://cumulis.epa.gov/supercpad/SiteProfiles/index.cfm?fuseaction=second.cleanup&id=0200364#bkground","pfas_testing_link":"https://semspub.epa.gov/work/02/642127.pdf","site_ref_link":"https://drive.google.com/drive/folders/1PEU8Dm7qNvIPs4_vd4s0jTqiH4NDp-nr?usp=drive_link","state_ref_link":"https://drive.google.com/drive/folders/1DoWldZlE-t71o34AxDz6Ue2QKEOXAGFW?usp=drive_link","ObjectId":1710}},{"type":"Feature","id":1711,"geometry":{"type":"Point","coordinates":[-74.085561,40.734719]},"properties":{"site_name":"PJP Landfill","other_site_names":null,"state":"New Jersey","industry":"Industry","matrix_type":"Groundwater","matrix":"Groundwater","year":2021,"pfoa":"10,800","pfos":"144,000","total_pfas":null,"pfas_level":154800,"notes":null,"regulation_gvt_link":null,"resources_link":null,"suspected_source_link":"https://cumulis.epa.gov/supercpad/SiteProfiles/index.cfm?fuseaction=second.Cleanup&id=0200569#bkground","pfas_testing_link":"https://semspub.epa.gov/work/02/642133.pdf","site_ref_link":"https://drive.google.com/drive/folders/1UWJ4saHx-ZccKGReQRo2CTqpvK-3nRRs?usp=drive_link","state_ref_link":"https://drive.google.com/drive/folders/1DoWldZlE-t71o34AxDz6Ue2QKEOXAGFW?usp=drive_link","ObjectId":1711}},{"type":"Feature","id":1810,"geometry":{"type":"Point","coordinates":[-74.447861,40.729528]},"properties":{"site_name":"Rolling Knolls LF","other_site_names":null,"state":"New Jersey","industry":"Waste","matrix_type":"Unknown","matrix":"Pore water","year":2021,"pfoa":"111","pfos":"1,130","total_pfas":1303,"pfas_level":1303,"notes":null,"regulation_gvt_link":null,"resources_link":null,"suspected_source_link":"https://cumulis.epa.gov/supercpad/SiteProfiles/index.cfm?fuseaction=second.Cleanup&id=0200542#bkground","pfas_testing_link":"https://www.greatswamp.org/wp-content/uploads/2022/01/FWS-Rolling-Knolls-DGSC-Report-FINAL-w-Tables-Figures-2021.12.14-LR.pdf","site_ref_link":"https://drive.google.com/drive/folders/1Um4v_1zyWtTIs6L0Pq73lhHSbHx0eIl2?usp=drive_link","state_ref_link":"https://drive.google.com/drive/folders/1DoWldZlE-t71o34AxDz6Ue2QKEOXAGFW?usp=drive_link","ObjectId":1810}},{"type":"Feature","id":1828,"geometry":{"type":"Point","coordinates":[-75.089842,40.561758]},"properties":{"site_name":"Curtis Speciality Papers, Inc","other_site_names":null,"state":"New Jersey","industry":"Industry","matrix_type":"Groundwater","matrix":"Groundwater","year":2021,"pfoa":"6,670","pfos":"4,770","total_pfas":11507,"pfas_level":11507,"notes":null,"regulation_gvt_link":null,"resources_link":"https://cumulis.epa.gov/supercpad/SiteProfiles/index.cfm?fuseaction=second.cleanup&id=0203733","suspected_source_link":"https://cumulis.epa.gov/supercpad/SiteProfiles/index.cfm?fuseaction=second.cleanup&id=0203733","pfas_testing_link":"https://semspub.epa.gov/work/02/625335.pdf","site_ref_link":"https://drive.google.com/drive/folders/1vNH2PFR-dAZcAkHUffkmSmFlIRDKjuzU?usp=drive_link","state_ref_link":"https://drive.google.com/drive/folders/1DoWldZlE-t71o34AxDz6Ue2QKEOXAGFW?usp=drive_link","ObjectId":1828}},{"type":"Feature","id":1852,"geometry":{"type":"Point","coordinates":[-74.6996,40.928944]},"properties":{"site_name":"Mansfield Trail Dump","other_site_names":null,"state":"New Jersey","industry":"Waste","matrix_type":"Other Water","matrix":"Drinking Water","year":2022,"pfoa":"4","pfos":null,"total_pfas":null,"pfas_level":4,"notes":null,"regulation_gvt_link":null,"resources_link":null,"suspected_source_link":"https://cumulis.epa.gov/supercpad/SiteProfiles/index.cfm?fuseaction=second.Cleanup&id=0206345#bkground","pfas_testing_link":"https://semspub.epa.gov/work/02/646437.pdf","site_ref_link":"https://drive.google.com/drive/folders/1GCZOpVFgJwzPLl1kBn7ZFMxrqnkoGO46?usp=drive_link","state_ref_link":"https://drive.google.com/drive/folders/1DoWldZlE-t71o34AxDz6Ue2QKEOXAGFW?usp=drive_link","ObjectId":1852}},{"type":"Feature","id":1889,"geometry":{"type":"Point","coordinates":[-75.04725,39.45725]},"properties":{"site_name":"Iceland Coin Laundry Area GW Plume","other_site_names":null,"state":"New Jersey","industry":"Industry","matrix_type":"Groundwater","matrix":"Groundwater","year":2022,"pfoa":"30","pfos":"122","total_pfas":null,"pfas_level":122,"notes":null,"regulation_gvt_link":null,"resources_link":"https://cumulis.epa.gov/supercpad/SiteProfiles/index.cfm?fuseaction=second.cleanup&id=0204037","suspected_source_link":"https://cumulis.epa.gov/supercpad/SiteProfiles/index.cfm?fuseaction=second.cleanup&id=0204037#bkground","pfas_testing_link":"https://semspub.epa.gov/work/02/704684.pdf","site_ref_link":"https://drive.google.com/drive/folders/15eb7xgN7gy73N_Ya1bhy13VvUN3coc-j?usp=drive_link","state_ref_link":"https://drive.google.com/drive/folders/1DoWldZlE-t71o34AxDz6Ue2QKEOXAGFW?usp=drive_link","ObjectId":1889}},{"type":"Feature","id":1908,"geometry":{"type":"Point","coordinates":[-74.244283,40.769943]},"properties":{"site_name":"Orange Valley Regional Ground Water Contamination","other_site_names":null,"state":"New Jersey","industry":"Industry","matrix_type":"Groundwater","matrix":"Groundwater","year":2019,"pfoa":"100","pfos":"411","total_pfas":587,"pfas_level":587,"notes":null,"regulation_gvt_link":null,"resources_link":"https://cumulis.epa.gov/supercpad/SiteProfiles/index.cfm?fuseaction=second.docdata&id=0203649","suspected_source_link":"https://www.epw.senate.gov/public/index.cfm/superfund-sites-identified-by-epa-to-have-pfas-contamination","pfas_testing_link":"https://semspub.epa.gov/work/02/628314.pdf","site_ref_link":null,"state_ref_link":null,"ObjectId":1908}},{"type":"Feature","id":1921,"geometry":{"type":"Point","coordinates":[-75.1727,39.85559]},"properties":{"site_name":"MATTEO & SONS INC.","other_site_names":null,"state":"New Jersey","industry":"Industry","matrix_type":"Groundwater","matrix":"Groundwater","year":2019,"pfoa":null,"pfos":null,"total_pfas":686,"pfas_level":686,"notes":null,"regulation_gvt_link":null,"resources_link":null,"suspected_source_link":"https://cumulis.epa.gov/supercpad/SiteProfiles/index.cfm?fuseaction=second.cleanup&id=0204061#bkground","pfas_testing_link":"https://www.syensqo.com/sites/g/files/alwlxe161/files/2024-03/20210226_Interim-Remedial-Investigation-Data-Report.pdf","site_ref_link":"https://drive.google.com/drive/folders/1iefW0cJ5IfAs92pTLkME2krxm4wuQTw5?usp=drive_link","state_ref_link":"https://drive.google.com/drive/folders/1DoWldZlE-t71o34AxDz6Ue2QKEOXAGFW?usp=drive_link","ObjectId":1921}},{"type":"Feature","id":2125,"geometry":{"type":"Point","coordinates":[-74.584406,40.035178]},"properties":{"site_name":"Joint Base McGuire-Dix-Lakehurst","other_site_names":"McGuire Air Force Base; Fort Dix; Naval Air Engineering Center","state":"New Jersey","industry":"Military","matrix_type":"Groundwater","matrix":"Groundwater","year":null,"pfoa":"23,000","pfos":"260,000","total_pfas":null,"pfas_level":264300,"notes":"AFFF used at Joint Base McGuire-Dix-Lakehurst ","regulation_gvt_link":"https://www.jbmdl.jb.mil/PFCs/","resources_link":"https://www.jbmdl.jb.mil/PFCs/","suspected_source_link":"http://www.nj.com/burlington/index.ssf/2017/03/water_on_off_nj_military_base_contaminated_with_ch.html                                 ","pfas_testing_link":"https://www.nj.gov/dep/dsr/publications/Investigation%20of%20Levels%20of%20Perfluorinated%20Compounds%20in%20New%20Jersey%20Fish,%20Surface%20Water,%20and%20Sediment.pdf","site_ref_link":"https://drive.google.com/drive/u/1/folders/1K9xui7UFs15QClVJ_3ZdbWsy6_QSu_mt","state_ref_link":"https://drive.google.com/drive/u/1/folders/1gzW7FcQQelMoZUZ8VhdxW1RrTOgXt8vS","ObjectId":2125}},{"type":"Feature","id":2343,"geometry":{"type":"Point","coordinates":[-74.161365,40.264938]},"properties":{"site_name":"Naval Weapons Station Earle","other_site_names":"Naval Weapons Station Earle (Site A)","state":"New Jersey","industry":"Military","matrix_type":"Groundwater","matrix":"Groundwater","year":2017,"pfoa":"421","pfos":"185","total_pfas":3071,"pfas_level":3071,"notes":"AFFF used at Naval Weapons Station Earle and Earle Military Sealift Command ","regulation_gvt_link":"https://cumulis.epa.gov/supercpad/SiteProfiles/index.cfm?fuseaction=second.cleanup&id=0201160","resources_link":"https://www.nj.gov/dep/srp/emerging-contaminants/","suspected_source_link":"www.cnic.navy.mil/regions/cnrma/installations/nws_earle/om/environmental_support/nws_earle_msc_ffs_drinking_water.html","pfas_testing_link":null,"site_ref_link":"https://drive.google.com/drive/u/1/folders/1XKFfLVtNpJlVWvB0n5otKs3R1akHwY_L","state_ref_link":"https://drive.google.com/drive/u/1/folders/1gzW7FcQQelMoZUZ8VhdxW1RrTOgXt8vS","ObjectId":2343}},{"type":"Feature","id":2344,"geometry":{"type":"Point","coordinates":[-75.14745,39.841477]},"properties":{"site_name":"Woodbury Creek","other_site_names":null,"state":"New Jersey","industry":"Industry","matrix_type":"Other Water","matrix":"Surface Water","year":2018,"pfoa":"7","pfos":"6","total_pfas":56,"pfas_level":56,"notes":"aaaf","regulation_gvt_link":"N/A","resources_link":"https://echo.epa.gov/detailed-facility-report?fid=NJ0822001&sys=SDWIS","suspected_source_link":"http://guides.gcls.org/c.php?g=803127&p=5735433","pfas_testing_link":"https://www.nj.gov/dep/dsr/publications/Investigation%20of%20Levels%20of%20Perfluorinated%20Compounds%20in%20New%20Jersey%20Fish,%20Surface%20Water,%20and%20Sediment.pdf","site_ref_link":"https://drive.google.com/drive/folders/11nIYk4jDicrmUBYAr7ZrUzkkKjyX2urW","state_ref_link":"https://drive.google.com/drive/u/1/folders/1gzW7FcQQelMoZUZ8VhdxW1RrTOgXt8vS?ths=true","ObjectId":2344}},{"type":"Feature","id":2345,"geometry":{"type":"Point","coordinates":[-75.490648,39.687589]},"properties":{"site_name":"Chemours Chamber Works","other_site_names":null,"state":"New Jersey","industry":"Industry","matrix_type":"Groundwater","matrix":"Groundwater","year":2009,"pfoa":"2200","pfos":null,"total_pfas":null,"pfas_level":2200,"notes":"DuPont Chambers Works Facility ","regulation_gvt_link":"N/A","resources_link":"https://www.nj.gov/dep/srp/emerging-contaminants/","suspected_source_link":"https://www.delawareriverkeeper.org/sites/default/files/resources/Letters/PFOA_pollution_in_the_vicinity_of_the_DuPont_Chambers_Works_Facility_4-28-09.pdf","pfas_testing_link":"N/A","site_ref_link":"https://drive.google.com/drive/u/0/folders/1A3VO8nP7j_UMfojgs0P_Gz1i5hxiom8f","state_ref_link":"https://drive.google.com/drive/u/1/folders/1gzW7FcQQelMoZUZ8VhdxW1RrTOgXt8vS?ths=true","ObjectId":2345}},{"type":"Feature","id":2346,"geometry":{"type":"Point","coordinates":[-74.584406,40.035178]},"properties":{"site_name":"Joint Base McGuire-Dix-Lakehurst","other_site_names":"McGuire Air Force Base; Fort Dix; Naval Air Engineering Center","state":"New Jersey","industry":"Military","matrix_type":"Groundwater","matrix":"Groundwater","year":null,"pfoa":"23000","pfos":"260000","total_pfas":null,"pfas_level":264300,"notes":"AFFF used at Joint Base McGuire-Dix-Lakehurst ","regulation_gvt_link":"https://www.jbmdl.jb.mil/PFCs/","resources_link":"https://www.jbmdl.jb.mil/PFCs/","suspected_source_link":"http://www.nj.com/burlington/index.ssf/2017/03/water_on_off_nj_military_base_contaminated_with_ch.html                                 ","pfas_testing_link":"https://www.nj.gov/dep/dsr/publications/Investigation%20of%20Levels%20of%20Perfluorinated%20Compounds%20in%20New%20Jersey%20Fish,%20Surface%20Water,%20and%20Sediment.pdf","site_ref_link":"https://drive.google.com/drive/u/1/folders/1K9xui7UFs15QClVJ_3ZdbWsy6_QSu_mt","state_ref_link":"https://drive.google.com/drive/u/1/folders/1gzW7FcQQelMoZUZ8VhdxW1RrTOgXt8vS","ObjectId":2346}},{"type":"Feature","id":2347,"geometry":{"type":"Point","coordinates":[-74.818075,40.277001]},"properties":{"site_name":"Former Naval Air Warfare Center Trenton","other_site_names":"Trenton-Mercer Airport, Trenton NAWC-AD","state":"New Jersey","industry":"Military","matrix_type":"Groundwater","matrix":"Groundwater","year":2017,"pfoa":null,"pfos":null,"total_pfas":null,"pfas_level":27800,"notes":"AFFF used at Former Naval Air Warfare Center Trenton, now Trenton-Mercer Airport","regulation_gvt_link":"N/A","resources_link":"https://www.nj.gov/dep/srp/emerging-contaminants/","suspected_source_link":"https://drive.google.com/file/d/1EUMAiROzk8OxvPAWubv0xGGH9zI6mw4d/view?usp=drive_link ","pfas_testing_link":"N/A","site_ref_link":"https://drive.google.com/drive/u/1/folders/16CFzNfSUhPP24rCl7RCGFnyXlwfMrbFU","state_ref_link":"https://drive.google.com/drive/u/1/folders/1gzW7FcQQelMoZUZ8VhdxW1RrTOgXt8vS","ObjectId":2347}},{"type":"Feature","id":2348,"geometry":{"type":"Point","coordinates":[-74.426369,39.370042]},"properties":{"site_name":"Atlantic City Municipal Utility Authority","other_site_names":null,"state":"New Jersey","industry":"Airport","matrix_type":"Groundwater","matrix":"Groundwater","year":2015,"pfoa":"43","pfos":"48","total_pfas":312,"pfas_level":312,"notes":"AFFF relesased at the Federal Aviation Administration’s property at the Atlantic City International Airport","regulation_gvt_link":"N/A","resources_link":"https://echo.epa.gov/detailed-facility-report?fid=NJ0102001&sys=SDWIS","suspected_source_link":"https://www.nj.gov/dep/watersupply/pdf/pfc-study.pdf","pfas_testing_link":"N/A","site_ref_link":"https://drive.google.com/drive/u/1/folders/1s0dhmO7fNmMQqYkFses5aX0KzSskQslX","state_ref_link":"https://drive.google.com/drive/u/1/folders/1gzW7FcQQelMoZUZ8VhdxW1RrTOgXt8vS","ObjectId":2348}},{"type":"Feature","id":2576,"geometry":{"type":"Point","coordinates":[-75.239182,39.427216]},"properties":{"site_name":"Bridgeton Armory","other_site_names":null,"state":"New Jersey","industry":"Military","matrix_type":"Other Water","matrix":"Drinking Water","year":2018,"pfoa":null,"pfos":null,"total_pfas":1,"pfas_level":1,"notes":null,"regulation_gvt_link":null,"resources_link":null,"suspected_source_link":"https://drive.google.com/file/d/1g1t60FsMLcfluvkLqorqlbsHnkF_rNZw/view?usp=sharing","pfas_testing_link":"https://drive.google.com/file/d/1g1t60FsMLcfluvkLqorqlbsHnkF_rNZw/view?usp=sharing","site_ref_link":"https://drive.google.com/drive/u/0/folders/17vc5JX3Gvo92Bih-kg-GABnBbExIJhXg","state_ref_link":"https://drive.google.com/drive/u/1/folders/1gzW7FcQQelMoZUZ8VhdxW1RrTOgXt8vS?ths=true","ObjectId":2576}},{"type":"Feature","id":2577,"geometry":{"type":"Point","coordinates":[-74.910332,40.505656]},"properties":{"site_name":"Flemington Armory","other_site_names":null,"state":"New Jersey","industry":"Military","matrix_type":"Other Water","matrix":"Drinking Water","year":2018,"pfoa":"2","pfos":null,"total_pfas":null,"pfas_level":2,"notes":null,"regulation_gvt_link":null,"resources_link":null,"suspected_source_link":"https://drive.google.com/file/d/1g1t60FsMLcfluvkLqorqlbsHnkF_rNZw/view?usp=sharing","pfas_testing_link":"https://drive.google.com/file/d/1g1t60FsMLcfluvkLqorqlbsHnkF_rNZw/view?usp=sharing","site_ref_link":"https://drive.google.com/drive/u/0/folders/17vc5JX3Gvo92Bih-kg-GABnBbExIJhXg","state_ref_link":"https://drive.google.com/drive/u/1/folders/1gzW7FcQQelMoZUZ8VhdxW1RrTOgXt8vS?ths=true","ObjectId":2577}},{"type":"Feature","id":2578,"geometry":{"type":"Point","coordinates":[-74.582075,41.103352]},"properties":{"site_name":"Franklin Armory","other_site_names":null,"state":"New Jersey","industry":"Military","matrix_type":"Other Water","matrix":"Drinking Water","year":2018,"pfoa":"2","pfos":"3","total_pfas":8,"pfas_level":8,"notes":null,"regulation_gvt_link":null,"resources_link":null,"suspected_source_link":"https://drive.google.com/file/d/1g1t60FsMLcfluvkLqorqlbsHnkF_rNZw/view?usp=sharing","pfas_testing_link":"https://drive.google.com/file/d/1g1t60FsMLcfluvkLqorqlbsHnkF_rNZw/view?usp=sharing","site_ref_link":"https://drive.google.com/drive/u/0/folders/17vc5JX3Gvo92Bih-kg-GABnBbExIJhXg","state_ref_link":"https://drive.google.com/drive/u/1/folders/1gzW7FcQQelMoZUZ8VhdxW1RrTOgXt8vS?ths=true","ObjectId":2578}},{"type":"Feature","id":2579,"geometry":{"type":"Point","coordinates":[-74.580505,40.917076]},"properties":{"site_name":"Picatinny Arsenal","other_site_names":"Picatinny Arsenal (USARMY)","state":"New Jersey ","industry":"Military","matrix_type":"Other Water","matrix":"Drinking Water","year":2018,"pfoa":null,"pfos":null,"total_pfas":144,"pfas_level":144,"notes":null,"regulation_gvt_link":null,"resources_link":null,"suspected_source_link":null,"pfas_testing_link":"https://cdn3.ewg.org/sites/default/files/u352/EWG_PFASTable-Army_C01.pdf","site_ref_link":"https://drive.google.com/drive/u/0/folders/17vc5JX3Gvo92Bih-kg-GABnBbExIJhXg","state_ref_link":"https://drive.google.com/drive/u/1/folders/1gzW7FcQQelMoZUZ8VhdxW1RrTOgXt8vS","ObjectId":2579}},{"type":"Feature","id":2874,"geometry":{"type":"Point","coordinates":[-74.558089,40.55432]},"properties":{"site_name":"American Cyamid Co","other_site_names":null,"state":"New Jersey","industry":"Industry","matrix_type":"Groundwater","matrix":"Groundwater","year":2022,"pfoa":"436","pfos":"136","total_pfas":12643,"pfas_level":12643,"notes":null,"regulation_gvt_link":null,"resources_link":"https://cumulis.epa.gov/supercpad/SiteProfiles/index.cfm?fuseaction=second.docdata&id=0200144","suspected_source_link":"https://www.epw.senate.gov/public/index.cfm/superfund-sites-identified-by-epa-to-have-pfas-contamination","pfas_testing_link":"https://semspub.epa.gov/work/02/704699.pdf","site_ref_link":null,"state_ref_link":null,"ObjectId":2874}},{"type":"Feature","id":2875,"geometry":{"type":"Point","coordinates":[-74.13114,40.93762]},"properties":{"site_name":"Fair Lawn Well Field","other_site_names":null,"state":"New Jersey","industry":"Industry","matrix_type":"Drinking water","matrix":"Drinking Water","year":2013,"pfoa":"66","pfos":"36","total_pfas":null,"pfas_level":66,"notes":"Cites 2013 UCMR data for on-site wells","regulation_gvt_link":null,"resources_link":"https://cumulis.epa.gov/supercpad/SiteProfiles/index.cfm?fuseaction=second.docdata&id=0200765","suspected_source_link":"https://www.epw.senate.gov/public/index.cfm/superfund-sites-identified-by-epa-to-have-pfas-contamination","pfas_testing_link":"https://semspub.epa.gov/work/02/550183.pdf","site_ref_link":null,"state_ref_link":null,"ObjectId":2875}},{"type":"Feature","id":2876,"geometry":{"type":"Point","coordinates":[-74.56325,39.4443]},"properties":{"site_name":"Federal Aviation Administration Technical Center (USDOT)","other_site_names":null,"state":"New Jersey","industry":"Airport","matrix_type":"Groundwater","matrix":"Groundwater","year":2018,"pfoa":null,"pfos":null,"total_pfas":96500,"pfas_level":96500,"notes":null,"regulation_gvt_link":null,"resources_link":"https://cumulis.epa.gov/supercpad/SiteProfiles/index.cfm?fuseaction=second.docdata&id=0201178","suspected_source_link":"https://www.epw.senate.gov/public/index.cfm/superfund-sites-identified-by-epa-to-have-pfas-contamination","pfas_testing_link":"https://semspub.epa.gov/work/02/704700.pdf","site_ref_link":null,"state_ref_link":null,"ObjectId":2876}},{"type":"Feature","id":2877,"geometry":{"type":"Point","coordinates":[-75.19972,39.77975]},"properties":{"site_name":"Helen Kramer Landfill","other_site_names":null,"state":"New Jersey","industry":"Waste","matrix_type":"Groundwater","matrix":"Groundwater","year":2018,"pfoa":null,"pfos":null,"total_pfas":null,"pfas_level":1385,"notes":null,"regulation_gvt_link":null,"resources_link":"https://cumulis.epa.gov/supercpad/SiteProfiles/index.cfm?fuseaction=second.docdata&id=0200552","suspected_source_link":"https://www.epw.senate.gov/public/index.cfm/superfund-sites-identified-by-epa-to-have-pfas-contamination","pfas_testing_link":"https://semspub.epa.gov/work/02/598804.pdf","site_ref_link":null,"state_ref_link":null,"ObjectId":2877}},{"type":"Feature","id":2878,"geometry":{"type":"Point","coordinates":[-74.244283,40.769943]},"properties":{"site_name":"Orange Valley Regional Ground Water Contamination","other_site_names":null,"state":"New Jersey","industry":"Industry","matrix_type":"Groundwater","matrix":"Groundwater","year":2019,"pfoa":"100","pfos":"411","total_pfas":587,"pfas_level":587,"notes":null,"regulation_gvt_link":null,"resources_link":"https://cumulis.epa.gov/supercpad/SiteProfiles/index.cfm?fuseaction=second.docdata&id=0203649","suspected_source_link":"https://www.epw.senate.gov/public/index.cfm/superfund-sites-identified-by-epa-to-have-pfas-contamination","pfas_testing_link":"https://semspub.epa.gov/work/02/628314.pdf","site_ref_link":null,"state_ref_link":null,"ObjectId":2878}},{"type":"Feature","id":2954,"geometry":{"type":"Point","coordinates":[-74.583464,39.445015]},"properties":{"site_name":"New Jersey Air National Guard Base","other_site_names":null,"state":"New Jersey","industry":"Military","matrix_type":"Groundwater","matrix":"Groundwater","year":2019,"pfoa":"250","pfos":"34000","total_pfas":null,"pfas_level":34000,"notes":null,"regulation_gvt_link":null,"resources_link":null,"suspected_source_link":"https://ar.afcec-cloud.af.mil/Search.aspx","pfas_testing_link":"https://drive.google.com/file/d/1CETTum1XzFUKXfOnlEYFa0Eaj5rNhw4t/view?usp=sharing","site_ref_link":null,"state_ref_link":null,"ObjectId":2954}},{"type":"Feature","id":3337,"geometry":{"type":"Point","coordinates":[-75.208306,39.842786]},"properties":{"site_name":"Solvay Specialty Polymers Plant","other_site_names":null,"state":"New Jersey","industry":"Industry","matrix_type":"Groundwater","matrix":"Groundwater","year":2014,"pfoa":null,"pfos":null,"total_pfas":13000,"pfas_level":13000,"notes":"Industrial wastes from Solvay Specialty Polymer and Arkema","regulation_gvt_link":null,"resources_link":"https://www.nj.gov/dep/srp/emerging-contaminants/","suspected_source_link":"https://www.nj.com/news/2020/07/new-contamination-at-an-infamous-nj-chemical-plant-has-scientists-worried.html","pfas_testing_link":"https://drive.google.com/file/d/1xK5_cvjB98Fr5IuMtC_qijBeY3i57FDF/view","site_ref_link":null,"state_ref_link":"https://drive.google.com/drive/u/1/folders/1gzW7FcQQelMoZUZ8VhdxW1RrTOgXt8vS?ths=true","ObjectId":3337}},{"type":"Feature","id":3721,"geometry":{"type":"Point","coordinates":[-75.213947,39.802898]},"properties":{"site_name":"Gloucester County Fire Training Area","other_site_names":null,"state":"New Jersey","industry":"Fire Department/Training Facility","matrix_type":"Groundwater","matrix":"Groundwater","year":2020,"pfoa":"29","pfos":"4360","total_pfas":5369,"pfas_level":5369,"notes":"Source of contamination was the use of AFFF in training area. Solvay accused GCFTA of pollution in a lawsuit, conducting its own sampling to prove that the GCFTA was responsible for PFAS contamination near Solvay's West Deptford facility.","regulation_gvt_link":null,"resources_link":null,"suspected_source_link":"https://d1ung6i9j8i9xc.cloudfront.net/wp-content/blogs.dir/123/files/2020/10/Solvay-lawsuit-Oct-2020.pdf","pfas_testing_link":"https://d1ung6i9j8i9xc.cloudfront.net/wp-content/blogs.dir/123/files/2020/10/Solvay-lawsuit-Oct-2020.pdf","site_ref_link":null,"state_ref_link":"https://drive.google.com/drive/u/1/folders/1gzW7FcQQelMoZUZ8VhdxW1RrTOgXt8vS","ObjectId":3721}},{"type":"Feature","id":4165,"geometry":{"type":"Point","coordinates":[-74.63,41.04805]},"properties":{"site_name":"A.O. Polymer","other_site_names":null,"state":"New Jersey","industry":"Industry","matrix_type":"Groundwater","matrix":"Groundwater","year":2020,"pfoa":"31","pfos":"6","total_pfas":null,"pfas_level":31,"notes":null,"regulation_gvt_link":null,"resources_link":"https://cumulis.epa.gov/supercpad/SiteProfiles/index.cfm?fuseaction=second.cleanup&id=0200290","suspected_source_link":"https://cumulis.epa.gov/supercpad/SiteProfiles/index.cfm?fuseaction=second.cleanup&id=0200290#bkground","pfas_testing_link":"https://semspub.epa.gov/work/02/642107.pdf","site_ref_link":"https://drive.google.com/drive/folders/1ObfLfFvNDPYiKUxLyUMiXn-kB-o-t_WL?usp=drive_link","state_ref_link":"https://drive.google.com/drive/folders/1DoWldZlE-t71o34AxDz6Ue2QKEOXAGFW?usp=drive_link","ObjectId":4165}},{"type":"Feature","id":4166,"geometry":{"type":"Point","coordinates":[-74.161111,40.150831]},"properties":{"site_name":"Bog Creek Farm","other_site_names":null,"state":"New Jersey","industry":"Industry","matrix_type":"Groundwater","matrix":"Groundwater","year":2020,"pfoa":"71","pfos":"56","total_pfas":null,"pfas_level":71,"notes":null,"regulation_gvt_link":null,"resources_link":"https://cumulis.epa.gov/supercpad/SiteProfiles/index.cfm?fuseaction=second.cleanup&id=0200397","suspected_source_link":"https://cumulis.epa.gov/supercpad/SiteProfiles/index.cfm?fuseaction=second.Cleanup&id=0200397#bkground","pfas_testing_link":"https://semspub.epa.gov/work/02/609914.pdf","site_ref_link":"https://drive.google.com/drive/folders/18w_MaiBmafRFswp7owU3tbdaIrFnJWnD?usp=drive_link","state_ref_link":"https://drive.google.com/drive/folders/1DoWldZlE-t71o34AxDz6Ue2QKEOXAGFW?usp=drive_link","ObjectId":4166}},{"type":"Feature","id":4167,"geometry":{"type":"Point","coordinates":[-75.321661,39.801669]},"properties":{"site_name":"Bridgeport Rental & Oil Services","other_site_names":null,"state":"New Jersey","industry":"Industry","matrix_type":"Groundwater","matrix":"Groundwater","year":2020,"pfoa":"856","pfos":"29","total_pfas":null,"pfas_level":856,"notes":null,"regulation_gvt_link":null,"resources_link":"https://cumulis.epa.gov/supercpad/SiteProfiles/index.cfm?fuseaction=second.cleanup&id=0200364","suspected_source_link":"https://cumulis.epa.gov/supercpad/SiteProfiles/index.cfm?fuseaction=second.cleanup&id=0200364#bkground","pfas_testing_link":"https://semspub.epa.gov/work/02/642127.pdf","site_ref_link":"https://drive.google.com/drive/folders/1PEU8Dm7qNvIPs4_vd4s0jTqiH4NDp-nr?usp=drive_link","state_ref_link":"https://drive.google.com/drive/folders/1DoWldZlE-t71o34AxDz6Ue2QKEOXAGFW?usp=drive_link","ObjectId":4167}},{"type":"Feature","id":4168,"geometry":{"type":"Point","coordinates":[-74.271389,40.876389]},"properties":{"site_name":"Caldwell Trucking Co.","other_site_names":null,"state":"New Jersey","industry":"Waste","matrix_type":"Groundwater","matrix":"Groundwater","year":2020,"pfoa":"41","pfos":"15","total_pfas":57,"pfas_level":57,"notes":null,"regulation_gvt_link":null,"resources_link":"https://cumulis.epa.gov/supercpad/SiteProfiles/index.cfm?fuseaction=second.cleanup&id=0200340","suspected_source_link":"https://cumulis.epa.gov/supercpad/SiteProfiles/index.cfm?fuseaction=second.cleanup&id=0200340#bkground","pfas_testing_link":"https://semspub.epa.gov/work/02/609941.pdf","site_ref_link":"https://drive.google.com/drive/folders/1XS6sI4mbdlVEEtqmJZ-x3duLPuvid7_u?usp=drive_link","state_ref_link":"https://drive.google.com/drive/folders/1DoWldZlE-t71o34AxDz6Ue2QKEOXAGFW?usp=drive_link","ObjectId":4168}},{"type":"Feature","id":4169,"geometry":{"type":"Point","coordinates":[-75.332781,39.798331]},"properties":{"site_name":"Chemical Leaman Tank Lines, Inc.","other_site_names":null,"state":"New Jersey","industry":"Industry","matrix_type":"Groundwater","matrix":"Groundwater","year":2021,"pfoa":"180","pfos":"6","total_pfas":249,"pfas_level":249,"notes":null,"regulation_gvt_link":null,"resources_link":"https://cumulis.epa.gov/supercpad/SiteProfiles/index.cfm?fuseaction=second.cleanup&id=0200327","suspected_source_link":"https://cumulis.epa.gov/supercpad/SiteProfiles/index.cfm?fuseaction=second.Cleanup&id=0200327#bkground","pfas_testing_link":"https://semspub.epa.gov/work/02/609944.pdf","site_ref_link":"https://drive.google.com/drive/folders/16DgWVoX5ssjHKu_Ei2O753bgAFftuxPB?usp=drive_link","state_ref_link":"https://drive.google.com/drive/folders/1DoWldZlE-t71o34AxDz6Ue2QKEOXAGFW?usp=drive_link","ObjectId":4169}},{"type":"Feature","id":4170,"geometry":{"type":"Point","coordinates":[-74.2363,39.9867]},"properties":{"site_name":"Ciba-Geigy Corp.","other_site_names":null,"state":"New Jersey","industry":"Industry","matrix_type":"Groundwater","matrix":"Groundwater","year":2020,"pfoa":"23","pfos":null,"total_pfas":null,"pfas_level":23,"notes":null,"regulation_gvt_link":null,"resources_link":"https://cumulis.epa.gov/supercpad/cursites/csitinfo.cfm?id=0200078","suspected_source_link":"https://drive.google.com/file/d/1k21N74iTnhjuotAnqXnDYvI0YKkfdDwY/view?usp=drive_link","pfas_testing_link":null,"site_ref_link":null,"state_ref_link":null,"ObjectId":4170}},{"type":"Feature","id":4171,"geometry":{"type":"Point","coordinates":[-75.089842,40.561758]},"properties":{"site_name":"Curtis Speciality Papers, Inc","other_site_names":null,"state":"New Jersey","industry":"Industry","matrix_type":"Groundwater","matrix":"Groundwater","year":2021,"pfoa":"6670","pfos":"4770","total_pfas":11507,"pfas_level":11507,"notes":null,"regulation_gvt_link":null,"resources_link":"https://cumulis.epa.gov/supercpad/SiteProfiles/index.cfm?fuseaction=second.cleanup&id=0203733","suspected_source_link":"https://cumulis.epa.gov/supercpad/SiteProfiles/index.cfm?fuseaction=second.cleanup&id=0203733","pfas_testing_link":"https://semspub.epa.gov/work/02/625335.pdf","site_ref_link":"https://drive.google.com/drive/folders/1vNH2PFR-dAZcAkHUffkmSmFlIRDKjuzU?usp=drive_link","state_ref_link":"https://drive.google.com/drive/folders/1DoWldZlE-t71o34AxDz6Ue2QKEOXAGFW?usp=drive_link","ObjectId":4171}},{"type":"Feature","id":4172,"geometry":{"type":"Point","coordinates":[-74.4975,40.09555]},"properties":{"site_name":"Goose Farm","other_site_names":null,"state":"New Jersey","industry":"Industry","matrix_type":"Groundwater","matrix":"Groundwater","year":2023,"pfoa":"240","pfos":"1","total_pfas":254,"pfas_level":254,"notes":null,"regulation_gvt_link":null,"resources_link":"https://cumulis.epa.gov/supercpad/SiteProfiles/index.cfm?fuseaction=second.cleanup&id=0200681","suspected_source_link":"https://cumulis.epa.gov/supercpad/SiteProfiles/index.cfm?fuseaction=second.Cleanup&id=0200681#bkground","pfas_testing_link":"https://semspub.epa.gov/work/02/642126.pdf","site_ref_link":"https://drive.google.com/drive/folders/1gdgJ4C45Oyb94_RZ60P2ZLUKPFKTSOIa?usp=drive_link","state_ref_link":"https://drive.google.com/drive/folders/1DoWldZlE-t71o34AxDz6Ue2QKEOXAGFW?usp=drive_link","ObjectId":4172}},{"type":"Feature","id":4173,"geometry":{"type":"Point","coordinates":[-75.04725,39.45725]},"properties":{"site_name":"Iceland Coin Laundry Area GW Plume","other_site_names":null,"state":"New Jersey","industry":"Industry","matrix_type":"Groundwater","matrix":"Groundwater","year":2022,"pfoa":"30","pfos":"122","total_pfas":null,"pfas_level":122,"notes":null,"regulation_gvt_link":null,"resources_link":"https://cumulis.epa.gov/supercpad/SiteProfiles/index.cfm?fuseaction=second.cleanup&id=0204037","suspected_source_link":"https://cumulis.epa.gov/supercpad/SiteProfiles/index.cfm?fuseaction=second.cleanup&id=0204037#bkground","pfas_testing_link":"https://semspub.epa.gov/work/02/704684.pdf","site_ref_link":"https://drive.google.com/drive/folders/15eb7xgN7gy73N_Ya1bhy13VvUN3coc-j?usp=drive_link","state_ref_link":"https://drive.google.com/drive/folders/1DoWldZlE-t71o34AxDz6Ue2QKEOXAGFW?usp=drive_link","ObjectId":4173}},{"type":"Feature","id":4174,"geometry":{"type":"Point","coordinates":[-74.3785,40.4891]},"properties":{"site_name":"Kin-Buc Landfill","other_site_names":null,"state":"New Jersey","industry":"Waste","matrix_type":"Groundwater","matrix":"Groundwater","year":2020,"pfoa":"750","pfos":"5000","total_pfas":5826,"pfas_level":5826,"notes":null,"regulation_gvt_link":null,"resources_link":"https://cumulis.epa.gov/supercpad/SiteProfiles/index.cfm?fuseaction=second.cleanup&id=0200346","suspected_source_link":"https://cumulis.epa.gov/supercpad/SiteProfiles/index.cfm?fuseaction=second.Cleanup&id=0200346#bkground","pfas_testing_link":"https://semspub.epa.gov/work/02/704667.pdf","site_ref_link":"https://drive.google.com/drive/folders/1jz-e47dchnW0F-8KgVYr-LKNOD1khNOB","state_ref_link":"https://drive.google.com/drive/folders/1DoWldZlE-t71o34AxDz6Ue2QKEOXAGFW?usp=drive_link","ObjectId":4174}},{"type":"Feature","id":4175,"geometry":{"type":"Point","coordinates":[-74.6996,40.928944]},"properties":{"site_name":"Mansfield Trail Dump","other_site_names":null,"state":"New Jersey","industry":"Waste","matrix_type":"Other Water","matrix":"Drinking Water","year":2022,"pfoa":"4","pfos":null,"total_pfas":null,"pfas_level":4,"notes":null,"regulation_gvt_link":null,"resources_link":null,"suspected_source_link":"https://cumulis.epa.gov/supercpad/SiteProfiles/index.cfm?fuseaction=second.Cleanup&id=0206345#bkground","pfas_testing_link":"https://semspub.epa.gov/work/02/646437.pdf","site_ref_link":"https://drive.google.com/drive/folders/1GCZOpVFgJwzPLl1kBn7ZFMxrqnkoGO46?usp=drive_link","state_ref_link":"https://drive.google.com/drive/folders/1DoWldZlE-t71o34AxDz6Ue2QKEOXAGFW?usp=drive_link","ObjectId":4175}},{"type":"Feature","id":4176,"geometry":{"type":"Point","coordinates":[-75.1727,39.85559]},"properties":{"site_name":"MATTEO & SONS INC.","other_site_names":null,"state":"New Jersey","industry":"Industry","matrix_type":"Groundwater","matrix":"Groundwater","year":2019,"pfoa":null,"pfos":null,"total_pfas":686,"pfas_level":686,"notes":null,"regulation_gvt_link":null,"resources_link":null,"suspected_source_link":"https://cumulis.epa.gov/supercpad/SiteProfiles/index.cfm?fuseaction=second.cleanup&id=0204061#bkground","pfas_testing_link":"https://www.syensqo.com/sites/g/files/alwlxe161/files/2024-03/20210226_Interim-Remedial-Investigation-Data-Report.pdf","site_ref_link":"https://drive.google.com/drive/folders/1iefW0cJ5IfAs92pTLkME2krxm4wuQTw5?usp=drive_link","state_ref_link":"https://drive.google.com/drive/folders/1DoWldZlE-t71o34AxDz6Ue2QKEOXAGFW?usp=drive_link","ObjectId":4176}},{"type":"Feature","id":4177,"geometry":{"type":"Point","coordinates":[-74.119719,40.185281]},"properties":{"site_name":"Monitor Devices, Inc./Intercircuits, Inc.","other_site_names":null,"state":"New Jersey","industry":"Industry","matrix_type":"Groundwater","matrix":"Groundwater","year":2018,"pfoa":"29","pfos":"15","total_pfas":null,"pfas_level":29,"notes":null,"regulation_gvt_link":null,"resources_link":"https://cumulis.epa.gov/supercpad/SiteProfiles/index.cfm?fuseaction=second.cleanup&id=0200638","suspected_source_link":"https://cumulis.epa.gov/supercpad/SiteProfiles/index.cfm?fuseaction=second.Cleanup&id=0200638#bkground","pfas_testing_link":"https://semspub.epa.gov/work/02/609943.pdf","site_ref_link":"https://drive.google.com/drive/folders/1gli8RVKa4zjpZIU4R-ZqXlHSnMa4vnB1?usp=drive_link","state_ref_link":"https://drive.google.com/drive/folders/1DoWldZlE-t71o34AxDz6Ue2QKEOXAGFW?usp=drive_link","ObjectId":4177}},{"type":"Feature","id":4178,"geometry":{"type":"Point","coordinates":[-74.085561,40.734719]},"properties":{"site_name":"PJP Landfill","other_site_names":null,"state":"New Jersey","industry":"Industry","matrix_type":"Groundwater","matrix":"Groundwater","year":2021,"pfoa":"10800","pfos":"144000","total_pfas":null,"pfas_level":154800,"notes":null,"regulation_gvt_link":null,"resources_link":null,"suspected_source_link":"https://cumulis.epa.gov/supercpad/SiteProfiles/index.cfm?fuseaction=second.Cleanup&id=0200569#bkground","pfas_testing_link":"https://semspub.epa.gov/work/02/642133.pdf","site_ref_link":"https://drive.google.com/drive/folders/1UWJ4saHx-ZccKGReQRo2CTqpvK-3nRRs?usp=drive_link","state_ref_link":"https://drive.google.com/drive/folders/1DoWldZlE-t71o34AxDz6Ue2QKEOXAGFW?usp=drive_link","ObjectId":4178}},{"type":"Feature","id":4179,"geometry":{"type":"Point","coordinates":[-74.447861,40.729528]},"properties":{"site_name":"Rolling Knolls LF","other_site_names":null,"state":"New Jersey","industry":"Waste","matrix_type":"Unknown","matrix":"Pore water","year":2021,"pfoa":"111","pfos":"1130","total_pfas":1303,"pfas_level":1303,"notes":null,"regulation_gvt_link":null,"resources_link":null,"suspected_source_link":"https://cumulis.epa.gov/supercpad/SiteProfiles/index.cfm?fuseaction=second.Cleanup&id=0200542#bkground","pfas_testing_link":"https://www.greatswamp.org/wp-content/uploads/2022/01/FWS-Rolling-Knolls-DGSC-Report-FINAL-w-Tables-Figures-2021.12.14-LR.pdf","site_ref_link":"https://drive.google.com/drive/folders/1Um4v_1zyWtTIs6L0Pq73lhHSbHx0eIl2?usp=drive_link","state_ref_link":"https://drive.google.com/drive/folders/1DoWldZlE-t71o34AxDz6Ue2QKEOXAGFW?usp=drive_link","ObjectId":4179}},{"type":"Feature","id":4180,"geometry":{"type":"Point","coordinates":[-74.114719,40.737781]},"properties":{"site_name":"Syncon Resins","other_site_names":null,"state":"New Jersey","industry":"Industry","matrix_type":"Groundwater","matrix":"Groundwater","year":2020,"pfoa":"86","pfos":"61","total_pfas":null,"pfas_level":86,"notes":null,"regulation_gvt_link":null,"resources_link":null,"suspected_source_link":"https://cumulis.epa.gov/supercpad/SiteProfiles/index.cfm?fuseaction=second.Cleanup&id=0200401#bkground","pfas_testing_link":"https://semspub.epa.gov/work/02/609896.pdf","site_ref_link":"https://drive.google.com/drive/folders/1OJIavQ1uCSK2PByruR6i3ZnsV5Po9LA8?usp=drive_link","state_ref_link":"https://drive.google.com/drive/folders/1DoWldZlE-t71o34AxDz6Ue2QKEOXAGFW?usp=drive_link","ObjectId":4180}}]}