{"type":"FeatureCollection","crs":{"type":"name","properties":{"name":"EPSG:4326"}},"features":[{"type":"Feature","id":40,"geometry":{"type":"Point","coordinates":[-92.529428,31.326325]},"properties":{"site_name":"Former England Air Force Base","other_site_names":null,"state":"Louisiana","industry":"Military","matrix_type":"Groundwater","matrix":"Groundwater","year":2015,"pfoa":"3,820,000","pfos":"7,150,000","total_pfas":33502500,"pfas_level":33502500,"notes":"AFFF used at Former England Air Force Base","regulation_gvt_link":"N/A","resources_link":"https://deq.louisiana.gov/assets/docs/News_Releases/2020/EPAAddsNewPFASDatabase.pdf","suspected_source_link":"https://drive.google.com/file/d/1EUMAiROzk8OxvPAWubv0xGGH9zI6mw4d/view?usp=drive_link ","pfas_testing_link":"https://drive.google.com/file/d/1MTDlzUIxgaixdH2DZxdwmuNMOUlEReyS/view?usp=sharing","site_ref_link":"https://drive.google.com/drive/u/1/folders/1K8IciANWsT7ApjagMkp7-RdbhcRIF9GM","state_ref_link":"https://drive.google.com/drive/u/1/folders/1ygCupZTzLc6YwqRd8B1MjZEvMzedYPaT","ObjectId":40}},{"type":"Feature","id":512,"geometry":{"type":"Point","coordinates":[-93.412831,32.57528]},"properties":{"site_name":"Camp Minden Training Site","other_site_names":null,"state":"Louisiana","industry":"Military","matrix_type":"Other Water","matrix":"Drinking Water","year":2018,"pfoa":null,"pfos":null,"total_pfas":6,"pfas_level":6,"notes":null,"regulation_gvt_link":null,"resources_link":"https://semspub.epa.gov/work/06/100015051.pdf","suspected_source_link":"https://drive.google.com/file/d/1g1t60FsMLcfluvkLqorqlbsHnkF_rNZw/view?usp=sharing","pfas_testing_link":"https://drive.google.com/file/d/1g1t60FsMLcfluvkLqorqlbsHnkF_rNZw/view?usp=sharing","site_ref_link":"https://drive.google.com/drive/u/0/folders/17vc5JX3Gvo92Bih-kg-GABnBbExIJhXg","state_ref_link":"https://drive.google.com/drive/u/1/folders/1ygCupZTzLc6YwqRd8B1MjZEvMzedYPaT","ObjectId":512}},{"type":"Feature","id":809,"geometry":{"type":"Point","coordinates":[-93.657142,32.50186]},"properties":{"site_name":"Barksdale Air Force Base","other_site_names":null,"state":"Louisiana","industry":"Military","matrix_type":"Groundwater","matrix":"Groundwater","year":2018,"pfoa":"200,000","pfos":"1,100,000","total_pfas":null,"pfas_level":1100000,"notes":"AFFF used at Barksdale Air Force Base","regulation_gvt_link":"https://www.barksdale.af.mil/Portals/52/Draft%20EA_BAFB%20WSF%20(4Aug2017)%20small%20file.pdf?ver=2017-08-22-151627-133","resources_link":"https://www.barksdale.af.mil/Portals/52/Draft%20EA_BAFB%20WSF%20(4Aug2017)%20small%20file.pdf?ver=2017-08-22-151627-133","suspected_source_link":"http://afcec.publicadmin-record.us.af.mil","pfas_testing_link":"https://drive.google.com/file/d/1y7POgKXNmttxPJKHlV7VmxeUsHMnJja6/view?usp=sharing","site_ref_link":"https://drive.google.com/drive/u/1/folders/1J7aB4ldUY7QhsHA69b0FJZ9NP1UrQgOb","state_ref_link":"https://drive.google.com/drive/u/1/folders/1ygCupZTzLc6YwqRd8B1MjZEvMzedYPaT","ObjectId":809}},{"type":"Feature","id":2132,"geometry":{"type":"Point","coordinates":[-93.369292,32.572817]},"properties":{"site_name":"Louisiana Army Ammunition Plant","other_site_names":null,"state":"Louisiana","industry":"Military","matrix_type":"Groundwater","matrix":"Groundwater","year":null,"pfoa":"0","pfos":"0","total_pfas":null,"pfas_level":0,"notes":"Identified by the Environmental Protection Agency (EPA) as having PFAS contamination. ","regulation_gvt_link":null,"resources_link":"https://cumulis.epa.gov/supercpad/cursites/cscdocument.cfm?id=0600770&doc=Y&colid=32120","suspected_source_link":"https://www.epw.senate.gov/public/index.cfm/superfund-sites-identified-by-epa-to-have-pfas-contamination","pfas_testing_link":"https://semspub.epa.gov/work/06/90246204.pdf","site_ref_link":null,"state_ref_link":null,"ObjectId":2132}},{"type":"Feature","id":2222,"geometry":{"type":"Point","coordinates":[-92.529428,31.326325]},"properties":{"site_name":"Former England Air Force Base","other_site_names":null,"state":"Louisiana","industry":"Military","matrix_type":"Groundwater","matrix":"Groundwater","year":2015,"pfoa":"3820000","pfos":"7150000","total_pfas":33502500,"pfas_level":33502500,"notes":"AFFF used at Former England Air Force Base","regulation_gvt_link":"N/A","resources_link":"https://deq.louisiana.gov/assets/docs/News_Releases/2020/EPAAddsNewPFASDatabase.pdf","suspected_source_link":"https://drive.google.com/file/d/1EUMAiROzk8OxvPAWubv0xGGH9zI6mw4d/view?usp=drive_link ","pfas_testing_link":"https://drive.google.com/file/d/1MTDlzUIxgaixdH2DZxdwmuNMOUlEReyS/view?usp=sharing","site_ref_link":"https://drive.google.com/drive/u/1/folders/1K8IciANWsT7ApjagMkp7-RdbhcRIF9GM","state_ref_link":"https://drive.google.com/drive/u/1/folders/1ygCupZTzLc6YwqRd8B1MjZEvMzedYPaT","ObjectId":2222}},{"type":"Feature","id":2223,"geometry":{"type":"Point","coordinates":[-93.657142,32.50186]},"properties":{"site_name":"Barksdale Air Force Base","other_site_names":null,"state":"Louisiana","industry":"Military","matrix_type":"Groundwater","matrix":"Groundwater","year":2018,"pfoa":"200000","pfos":"1100000","total_pfas":null,"pfas_level":1100000,"notes":"AFFF used at Barksdale Air Force Base","regulation_gvt_link":"https://www.barksdale.af.mil/Portals/52/Draft%20EA_BAFB%20WSF%20(4Aug2017)%20small%20file.pdf?ver=2017-08-22-151627-133","resources_link":"https://www.barksdale.af.mil/Portals/52/Draft%20EA_BAFB%20WSF%20(4Aug2017)%20small%20file.pdf?ver=2017-08-22-151627-133","suspected_source_link":"http://afcec.publicadmin-record.us.af.mil","pfas_testing_link":"https://drive.google.com/file/d/1y7POgKXNmttxPJKHlV7VmxeUsHMnJja6/view?usp=sharing","site_ref_link":"https://drive.google.com/drive/u/1/folders/1J7aB4ldUY7QhsHA69b0FJZ9NP1UrQgOb","state_ref_link":"https://drive.google.com/drive/u/1/folders/1ygCupZTzLc6YwqRd8B1MjZEvMzedYPaT","ObjectId":2223}},{"type":"Feature","id":2550,"geometry":{"type":"Point","coordinates":[-93.412831,32.57528]},"properties":{"site_name":"Camp Minden Training Site","other_site_names":null,"state":"Louisiana","industry":"Military","matrix_type":"Other Water","matrix":"Drinking Water","year":2018,"pfoa":null,"pfos":null,"total_pfas":6,"pfas_level":6,"notes":null,"regulation_gvt_link":null,"resources_link":"https://semspub.epa.gov/work/06/100015051.pdf","suspected_source_link":"https://drive.google.com/file/d/1g1t60FsMLcfluvkLqorqlbsHnkF_rNZw/view?usp=sharing","pfas_testing_link":"https://drive.google.com/file/d/1g1t60FsMLcfluvkLqorqlbsHnkF_rNZw/view?usp=sharing","site_ref_link":"https://drive.google.com/drive/u/0/folders/17vc5JX3Gvo92Bih-kg-GABnBbExIJhXg","state_ref_link":"https://drive.google.com/drive/u/1/folders/1ygCupZTzLc6YwqRd8B1MjZEvMzedYPaT","ObjectId":2550}},{"type":"Feature","id":2810,"geometry":{"type":"Point","coordinates":[-93.369292,32.572817]},"properties":{"site_name":"Louisiana Army Ammunition Plant","other_site_names":null,"state":"Louisiana","industry":"Military","matrix_type":"Groundwater","matrix":"Groundwater","year":null,"pfoa":"620000000","pfos":"8","total_pfas":null,"pfas_level":620000000,"notes":"Identified by the Environmental Protection Agency (EPA) as having PFAS contamination. ","regulation_gvt_link":null,"resources_link":"https://cumulis.epa.gov/supercpad/cursites/cscdocument.cfm?id=0600770&doc=Y&colid=32120","suspected_source_link":"https://www.epw.senate.gov/public/index.cfm/superfund-sites-identified-by-epa-to-have-pfas-contamination","pfas_testing_link":"https://semspub.epa.gov/work/06/90246204.pdf","site_ref_link":null,"state_ref_link":null,"ObjectId":2810}}]}