{"type":"FeatureCollection","crs":{"type":"name","properties":{"name":"EPSG:4326"}},"features":[{"type":"Feature","id":15,"geometry":{"type":"Point","coordinates":[-81.667875,39.266516]},"properties":{"site_name":"Chemours Company","other_site_names":"DuPont Washington Works ","state":"West Virginia","industry":"Industry","matrix_type":"Groundwater","matrix":"Groundwater","year":2014,"pfoa":null,"pfos":null,"total_pfas":null,"pfas_level":41,"notes":"DuPont Washington Works plant ","regulation_gvt_link":"N/A","resources_link":"https://www.epa.gov/sites/production/files/2018-11/documents/horsham_report_out_final.pdf ","suspected_source_link":"https://www.epa.gov/hwcorrectiveactionsites/hazardous-waste-cleanup-chemours-company-fc-llc-formerly-dupont-washington","pfas_testing_link":"N/A","site_ref_link":"https://drive.google.com/drive/u/0/folders/1DIOmxCxV6kwf8ICaojkQ0EjBBQtMA5U9","state_ref_link":"https://drive.google.com/drive/u/0/folders/1b-iZ3QnAOuPGVee1di7btnZDrMtxSw1H","ObjectId":15}},{"type":"Feature","id":644,"geometry":{"type":"Point","coordinates":[-81.586769,38.372512]},"properties":{"site_name":"McLaughlin Air National Guard Base","other_site_names":"West Virginia Air National Guard 130th Airlift Wing, Yeager Airport","state":"West Virginia","industry":"Military","matrix_type":"Groundwater","matrix":"Groundwater","year":2018,"pfoa":"1,170","pfos":"6,930","total_pfas":20898,"pfas_level":20898,"notes":null,"regulation_gvt_link":null,"resources_link":null,"suspected_source_link":"https://ar.afcec-cloud.af.mil/Search.aspx","pfas_testing_link":"https://drive.google.com/file/d/1fzKJCB-sJ4jaUGrEWZZwl4UygIOWBqew/view?usp=sharing","site_ref_link":null,"state_ref_link":null,"ObjectId":644}},{"type":"Feature","id":1218,"geometry":{"type":"Point","coordinates":[-77.985785,39.405917]},"properties":{"site_name":"Shepherd Field Air National Guard Base","other_site_names":"Eastern West Virginia Regional Airport, Martinsburg Air National Guard Base","state":"West Virginia","industry":"Military","matrix_type":"Groundwater","matrix":"Groundwater","year":2020,"pfoa":"4,100","pfos":"46,000","total_pfas":160162,"pfas_level":160162,"notes":"AFFF used at Shepherd Field Air National Guard Base /  Eastern West Virginia Regional Airport","regulation_gvt_link":"https://www.atsdr.cdc.gov/pfas/activities/assessments/sites/berkeley-county-wv.html?CDC_AA_refVal=https%3A%2F%2Fwww.atsdr.cdc.gov%2Fpfas%2Fcommunities%2FBerkeley-County-WV.html","resources_link":"https://cumulis.epa.gov/supercpad/SiteProfiles/index.cfm?fuseaction=second.cleanup&id=0304760","suspected_source_link":"https://www.heraldmailmedia.com/news/tri_state/west_virginia/air-force-exploring-whether-it-contaminated-berkeley-county-water/article_4d075120-1eed-11e6-812a-ffd59553d727.html","pfas_testing_link":"https://drive.google.com/file/d/1QfKJxQVHEZ3nAuXmPp_hBde_FNwh35pY/view?usp=sharing","site_ref_link":"https://drive.google.com/drive/u/0/folders/1gmtzaLdanNR2K4zxMailUl5BwAj6LaMy","state_ref_link":"https://drive.google.com/drive/u/0/folders/1b-iZ3QnAOuPGVee1di7btnZDrMtxSw1H","ObjectId":1218}},{"type":"Feature","id":1270,"geometry":{"type":"Point","coordinates":[-78.83941,39.55807]},"properties":{"site_name":"Allegany Ballistics Laboratory","other_site_names":null,"state":"West Virginia","industry":"Military","matrix_type":"Groundwater","matrix":"Groundwater","year":2021,"pfoa":"74","pfos":"19","total_pfas":106,"pfas_level":106,"notes":"Identified by the Environmental Protection Agency (EPA) as having PFAS contamination. Provided to the Senate Committee on Environment and Public Works.","regulation_gvt_link":null,"resources_link":"https://cumulis.epa.gov/supercpad/cursites/csitinfo.cfm?id=0303171","suspected_source_link":"https://www.epw.senate.gov/public/index.cfm/superfund-sites-identified-by-epa-to-have-pfas-contamination","pfas_testing_link":"https://drive.google.com/file/d/1LjhoHZNiCjBLfBzusDycmTKyMbjzLILF/view?usp=drive_link","site_ref_link":"https://drive.google.com/drive/folders/1Vatbrdp2HXEpullOdjBtfFGpZU3KmeJm?usp=drive_link","state_ref_link":"https://drive.google.com/drive/folders/15_Ux9tkUXqqMS5uLUtmQoScN8X_S5JtZ?usp=drive_link","ObjectId":1270}},{"type":"Feature","id":2438,"geometry":{"type":"Point","coordinates":[-81.667875,39.266516]},"properties":{"site_name":"Chemours Company","other_site_names":"DuPont Washington Works ","state":"West Virginia","industry":"Industry","matrix_type":"Groundwater","matrix":"Groundwater","year":2014,"pfoa":null,"pfos":null,"total_pfas":null,"pfas_level":41,"notes":"DuPont Washington Works plant ","regulation_gvt_link":"N/A","resources_link":"https://www.epa.gov/sites/production/files/2018-11/documents/horsham_report_out_final.pdf ","suspected_source_link":"https://www.epa.gov/hwcorrectiveactionsites/hazardous-waste-cleanup-chemours-company-fc-llc-formerly-dupont-washington","pfas_testing_link":"N/A","site_ref_link":"https://drive.google.com/drive/u/0/folders/1DIOmxCxV6kwf8ICaojkQ0EjBBQtMA5U9","state_ref_link":"https://drive.google.com/drive/u/0/folders/1b-iZ3QnAOuPGVee1di7btnZDrMtxSw1H","ObjectId":2438}},{"type":"Feature","id":2439,"geometry":{"type":"Point","coordinates":[-77.985785,39.405917]},"properties":{"site_name":"Shepherd Field Air National Guard Base","other_site_names":"Eastern West Virginia Regional Airport, Martinsburg Air National Guard Base","state":"West Virginia","industry":"Military","matrix_type":"Groundwater","matrix":"Groundwater","year":2020,"pfoa":"4100","pfos":"46000","total_pfas":160162,"pfas_level":160162,"notes":"AFFF used at Shepherd Field Air National Guard Base /  Eastern West Virginia Regional Airport","regulation_gvt_link":"https://www.atsdr.cdc.gov/pfas/activities/assessments/sites/berkeley-county-wv.html?CDC_AA_refVal=https%3A%2F%2Fwww.atsdr.cdc.gov%2Fpfas%2Fcommunities%2FBerkeley-County-WV.html","resources_link":"https://cumulis.epa.gov/supercpad/SiteProfiles/index.cfm?fuseaction=second.cleanup&id=0304760","suspected_source_link":"https://www.heraldmailmedia.com/news/tri_state/west_virginia/air-force-exploring-whether-it-contaminated-berkeley-county-water/article_4d075120-1eed-11e6-812a-ffd59553d727.html","pfas_testing_link":"https://drive.google.com/file/d/1QfKJxQVHEZ3nAuXmPp_hBde_FNwh35pY/view?usp=sharing","site_ref_link":"https://drive.google.com/drive/u/0/folders/1gmtzaLdanNR2K4zxMailUl5BwAj6LaMy","state_ref_link":"https://drive.google.com/drive/u/0/folders/1b-iZ3QnAOuPGVee1di7btnZDrMtxSw1H","ObjectId":2439}},{"type":"Feature","id":2910,"geometry":{"type":"Point","coordinates":[-78.83941,39.55807]},"properties":{"site_name":"Allegany Ballistics Laboratory","other_site_names":null,"state":"West Virginia","industry":"Military","matrix_type":"Groundwater","matrix":"Groundwater","year":2021,"pfoa":"74","pfos":"19","total_pfas":106,"pfas_level":106,"notes":"Identified by the Environmental Protection Agency (EPA) as having PFAS contamination. Provided to the Senate Committee on Environment and Public Works.","regulation_gvt_link":null,"resources_link":"https://cumulis.epa.gov/supercpad/cursites/csitinfo.cfm?id=0303171","suspected_source_link":"https://www.epw.senate.gov/public/index.cfm/superfund-sites-identified-by-epa-to-have-pfas-contamination","pfas_testing_link":"https://drive.google.com/file/d/1LjhoHZNiCjBLfBzusDycmTKyMbjzLILF/view?usp=drive_link","site_ref_link":"https://drive.google.com/drive/folders/1Vatbrdp2HXEpullOdjBtfFGpZU3KmeJm?usp=drive_link","state_ref_link":"https://drive.google.com/drive/folders/15_Ux9tkUXqqMS5uLUtmQoScN8X_S5JtZ?usp=drive_link","ObjectId":2910}},{"type":"Feature","id":3030,"geometry":{"type":"Point","coordinates":[-81.586769,38.372512]},"properties":{"site_name":"McLaughlin Air National Guard Base","other_site_names":"West Virginia Air National Guard 130th Airlift Wing, Yeager Airport","state":"West Virginia","industry":"Military","matrix_type":"Groundwater","matrix":"Groundwater","year":2018,"pfoa":"1170","pfos":"6930","total_pfas":20898,"pfas_level":20898,"notes":null,"regulation_gvt_link":null,"resources_link":null,"suspected_source_link":"https://ar.afcec-cloud.af.mil/Search.aspx","pfas_testing_link":"https://drive.google.com/file/d/1fzKJCB-sJ4jaUGrEWZZwl4UygIOWBqew/view?usp=sharing","site_ref_link":null,"state_ref_link":null,"ObjectId":3030}}]}