{"type":"FeatureCollection","crs":{"type":"name","properties":{"name":"EPSG:4326"}},"features":[{"type":"Feature","id":18,"geometry":{"type":"Point","coordinates":[-75.596238,39.663974]},"properties":{"site_name":"Harry Wood Landfill","other_site_names":null,"state":"Delaware","industry":"Landfill","matrix_type":"Groundwater","matrix":"Groundwater","year":2014,"pfoa":"230","pfos":"760","total_pfas":null,"pfas_level":760,"notes":null,"regulation_gvt_link":null,"resources_link":null,"suspected_source_link":"https://dnrec.alpha.delaware.gov/waste-hazardous/remediation/pfas/investigation-sites/","pfas_testing_link":"https://apps.dnrec.delaware.gov/dochandler/handler.ashx?docid=6744d73fd212a86f0kb0rdo810010000","site_ref_link":null,"state_ref_link":null,"ObjectId":18}},{"type":"Feature","id":35,"geometry":{"type":"Point","coordinates":[-75.468435,39.12773]},"properties":{"site_name":"Dover Air Force Base","other_site_names":null,"state":"Delaware","industry":"Military","matrix_type":"Groundwater","matrix":"Groundwater","year":2015,"pfoa":"20,000","pfos":"270,000","total_pfas":335000,"pfas_level":335000,"notes":"AFFF used at Dover Air Force Base","regulation_gvt_link":"https://news.delaware.gov/2019/07/14/usaf-dover-afb-advise-state-agencies-that-pfas-chemicals-exceeding-epa-health-advisory-found-in-four-wells-near-base/","resources_link":"https://dnrec.alpha.delaware.gov/waste-hazardous/remediation/pfas/","suspected_source_link":"http://www.delawareonline.com/story/money/2016/04/01/delaware-c8-contamination-blamed-firefighting-foam/81538418/","pfas_testing_link":"https://drive.google.com/file/d/1hAY3gMUkqQXx9KPoz9wsJxP0wXZ6WRfZ/view?usp=sharing","site_ref_link":"https://drive.google.com/drive/u/1/folders/12cCgUlx1cOS05IlaQUQNs8SGlq3fVB98","state_ref_link":"https://drive.google.com/drive/u/1/folders/1O-EWkWqJmhsdr_BVI_fmrg8s1MiUGBvh","ObjectId":35}},{"type":"Feature","id":47,"geometry":{"type":"Point","coordinates":[-75.693212,39.788532]},"properties":{"site_name":"Hockessin Dry Cleaner","other_site_names":null,"state":"Delaware","industry":"Dry Cleaner","matrix_type":"Groundwater","matrix":"Groundwater","year":2016,"pfoa":"12","pfos":null,"total_pfas":null,"pfas_level":12,"notes":null,"regulation_gvt_link":null,"resources_link":null,"suspected_source_link":"https://dnrec.alpha.delaware.gov/waste-hazardous/remediation/pfas/investigation-sites/","pfas_testing_link":"https://apps.dnrec.delaware.gov/dochandler/handler.ashx?docid=6744d73fd212a86f0kd4r96ge0010000","site_ref_link":null,"state_ref_link":null,"ObjectId":47}},{"type":"Feature","id":143,"geometry":{"type":"Point","coordinates":[-75.610025,38.630209]},"properties":{"site_name":"Procino Plating","other_site_names":null,"state":"Delaware","industry":"Industry","matrix_type":"Groundwater","matrix":"Groundwater","year":2018,"pfoa":"1,100","pfos":"2,820","total_pfas":null,"pfas_level":2820,"notes":null,"regulation_gvt_link":null,"resources_link":null,"suspected_source_link":"https://dnrec.alpha.delaware.gov/waste-hazardous/remediation/pfas/investigation-sites/","pfas_testing_link":"https://apps.dnrec.delaware.gov/dochandler/handler.ashx?docid=6744d73fd212a86f0jwi7f08d0010000","site_ref_link":null,"state_ref_link":null,"ObjectId":143}},{"type":"Feature","id":205,"geometry":{"type":"Point","coordinates":[-75.589574,39.679242]},"properties":{"site_name":"0 E Basin Rd","other_site_names":null,"state":"Delaware","industry":"Unknown","matrix_type":"Groundwater","matrix":"Groundwater","year":2017,"pfoa":"560","pfos":"3,400","total_pfas":6156,"pfas_level":6156,"notes":"Located near the New Castle County Airport and New Castle County Airport Fire Training area","regulation_gvt_link":null,"resources_link":null,"suspected_source_link":"https://dnrec.alpha.delaware.gov/waste-hazardous/remediation/pfas/investigation-sites/","pfas_testing_link":"https://apps.dnrec.delaware.gov/dochandler/handler.ashx?docid=6744d73fd212a86f0koj143e20010000","site_ref_link":null,"state_ref_link":null,"ObjectId":205}},{"type":"Feature","id":223,"geometry":{"type":"Point","coordinates":[-75.597778,39.690133]},"properties":{"site_name":"New Castle Air National Guard Base","other_site_names":"New Castle County Airport","state":"Delaware","industry":"Military","matrix_type":"Groundwater","matrix":"Groundwater","year":2017,"pfoa":"3,950","pfos":"16,900","total_pfas":70848,"pfas_level":70848,"notes":"AFFF used at New Castle ANGB and New Castle County Airport ","regulation_gvt_link":"https://response.epa.gov/site/sitrep_profile.aspx?site_id=9554","resources_link":"N/A","suspected_source_link":"http://www.delawareonline.com/story/money/2016/04/01/delaware-c8-contamination-blamed-firefighting-foam/81538418/","pfas_testing_link":"https://drive.google.com/file/d/1yx9FuZBO65v21I27TIwI9LBMKFVv7EdL/view?usp=sharing","site_ref_link":"https://drive.google.com/drive/folders/1LUl4iGcGZ-JFKrQvCDtbkV9Rfzz0iKM1","state_ref_link":"https://drive.google.com/drive/u/1/folders/1O-EWkWqJmhsdr_BVI_fmrg8s1MiUGBvh","ObjectId":223}},{"type":"Feature","id":479,"geometry":{"type":"Point","coordinates":[-75.61087,39.65465]},"properties":{"site_name":"Army Creek Landfill","other_site_names":null,"state":"Delaware","industry":"Landfill","matrix_type":"Groundwater","matrix":"Groundwater","year":2017,"pfoa":"530","pfos":"130","total_pfas":null,"pfas_level":530,"notes":null,"regulation_gvt_link":null,"resources_link":null,"suspected_source_link":"https://dnrec.alpha.delaware.gov/waste-hazardous/remediation/pfas/investigation-sites/","pfas_testing_link":"https://apps.dnrec.delaware.gov/dochandler/handler.ashx?docid=6744d73fd212a86f0jy64vx6x0010000","site_ref_link":null,"state_ref_link":null,"ObjectId":479}},{"type":"Feature","id":480,"geometry":{"type":"Point","coordinates":[-75.596563,39.647793]},"properties":{"site_name":"Delaware Sand and Gravel","other_site_names":"Delaware Sand & Gravel Landfill","state":"Delaware","industry":"Superfund Site","matrix_type":"Groundwater","matrix":"Groundwater","year":2017,"pfoa":"530","pfos":"130","total_pfas":null,"pfas_level":530,"notes":null,"regulation_gvt_link":null,"resources_link":null,"suspected_source_link":"https://dnrec.alpha.delaware.gov/waste-hazardous/remediation/pfas/investigation-sites/","pfas_testing_link":"https://apps.dnrec.delaware.gov/dochandler/handler.ashx?docid=6744d73fd212a86f0jy64vx6x0010000","site_ref_link":null,"state_ref_link":null,"ObjectId":480}},{"type":"Feature","id":2192,"geometry":{"type":"Point","coordinates":[-75.597778,39.690133]},"properties":{"site_name":"New Castle Air National Guard Base","other_site_names":"New Castle County Airport","state":"Delaware","industry":"Military","matrix_type":"Groundwater","matrix":"Groundwater","year":2017,"pfoa":"3950","pfos":"16900","total_pfas":70848,"pfas_level":70848,"notes":"AFFF used at New Castle ANGB and New Castle County Airport ","regulation_gvt_link":"https://response.epa.gov/site/sitrep_profile.aspx?site_id=9554","resources_link":"N/A","suspected_source_link":"http://www.delawareonline.com/story/money/2016/04/01/delaware-c8-contamination-blamed-firefighting-foam/81538418/","pfas_testing_link":"https://drive.google.com/file/d/1yx9FuZBO65v21I27TIwI9LBMKFVv7EdL/view?usp=sharing","site_ref_link":"https://drive.google.com/drive/folders/1LUl4iGcGZ-JFKrQvCDtbkV9Rfzz0iKM1","state_ref_link":"https://drive.google.com/drive/u/1/folders/1O-EWkWqJmhsdr_BVI_fmrg8s1MiUGBvh","ObjectId":2192}},{"type":"Feature","id":2193,"geometry":{"type":"Point","coordinates":[-75.468435,39.12773]},"properties":{"site_name":"Dover Air Force Base","other_site_names":null,"state":"Delaware","industry":"Military","matrix_type":"Groundwater","matrix":"Groundwater","year":2015,"pfoa":"20000","pfos":"270000","total_pfas":335000,"pfas_level":335000,"notes":"AFFF used at Dover Air Force Base","regulation_gvt_link":"https://news.delaware.gov/2019/07/14/usaf-dover-afb-advise-state-agencies-that-pfas-chemicals-exceeding-epa-health-advisory-found-in-four-wells-near-base/","resources_link":"https://dnrec.alpha.delaware.gov/waste-hazardous/remediation/pfas/","suspected_source_link":"http://www.delawareonline.com/story/money/2016/04/01/delaware-c8-contamination-blamed-firefighting-foam/81538418/","pfas_testing_link":"https://drive.google.com/file/d/1hAY3gMUkqQXx9KPoz9wsJxP0wXZ6WRfZ/view?usp=sharing","site_ref_link":"https://drive.google.com/drive/u/1/folders/12cCgUlx1cOS05IlaQUQNs8SGlq3fVB98","state_ref_link":"https://drive.google.com/drive/u/1/folders/1O-EWkWqJmhsdr_BVI_fmrg8s1MiUGBvh","ObjectId":2193}},{"type":"Feature","id":2738,"geometry":{"type":"Point","coordinates":[-75.589574,39.679242]},"properties":{"site_name":"0 E Basin Rd","other_site_names":null,"state":"Delaware","industry":"Unknown","matrix_type":"Groundwater","matrix":"Groundwater","year":2017,"pfoa":"560","pfos":"3400","total_pfas":6156,"pfas_level":6156,"notes":"Located near the New Castle County Airport and New Castle County Airport Fire Training area","regulation_gvt_link":null,"resources_link":null,"suspected_source_link":"https://dnrec.alpha.delaware.gov/waste-hazardous/remediation/pfas/investigation-sites/","pfas_testing_link":"https://apps.dnrec.delaware.gov/dochandler/handler.ashx?docid=6744d73fd212a86f0koj143e20010000","site_ref_link":null,"state_ref_link":null,"ObjectId":2738}},{"type":"Feature","id":2739,"geometry":{"type":"Point","coordinates":[-75.61087,39.65465]},"properties":{"site_name":"Army Creek Landfill","other_site_names":null,"state":"Delaware","industry":"Landfill","matrix_type":"Groundwater","matrix":"Groundwater","year":2017,"pfoa":"530","pfos":"130","total_pfas":null,"pfas_level":530,"notes":null,"regulation_gvt_link":null,"resources_link":null,"suspected_source_link":"https://dnrec.alpha.delaware.gov/waste-hazardous/remediation/pfas/investigation-sites/","pfas_testing_link":"https://apps.dnrec.delaware.gov/dochandler/handler.ashx?docid=6744d73fd212a86f0jy64vx6x0010000","site_ref_link":null,"state_ref_link":null,"ObjectId":2739}},{"type":"Feature","id":2740,"geometry":{"type":"Point","coordinates":[-75.596563,39.647793]},"properties":{"site_name":"Delaware Sand and Gravel","other_site_names":"Delaware Sand & Gravel Landfill","state":"Delaware","industry":"Superfund Site","matrix_type":"Groundwater","matrix":"Groundwater","year":2017,"pfoa":"530","pfos":"130","total_pfas":null,"pfas_level":530,"notes":null,"regulation_gvt_link":null,"resources_link":null,"suspected_source_link":"https://dnrec.alpha.delaware.gov/waste-hazardous/remediation/pfas/investigation-sites/","pfas_testing_link":"https://apps.dnrec.delaware.gov/dochandler/handler.ashx?docid=6744d73fd212a86f0jy64vx6x0010000","site_ref_link":null,"state_ref_link":null,"ObjectId":2740}},{"type":"Feature","id":2741,"geometry":{"type":"Point","coordinates":[-75.596238,39.663974]},"properties":{"site_name":"Harry Wood Landfill","other_site_names":null,"state":"Delaware","industry":"Landfill","matrix_type":"Groundwater","matrix":"Groundwater","year":2014,"pfoa":"230","pfos":"760","total_pfas":null,"pfas_level":760,"notes":null,"regulation_gvt_link":null,"resources_link":null,"suspected_source_link":"https://dnrec.alpha.delaware.gov/waste-hazardous/remediation/pfas/investigation-sites/","pfas_testing_link":"https://apps.dnrec.delaware.gov/dochandler/handler.ashx?docid=6744d73fd212a86f0kb0rdo810010000","site_ref_link":null,"state_ref_link":null,"ObjectId":2741}},{"type":"Feature","id":2742,"geometry":{"type":"Point","coordinates":[-75.693212,39.788532]},"properties":{"site_name":"Hockessin Dry Cleaner","other_site_names":null,"state":"Delaware","industry":"Dry Cleaner","matrix_type":"Groundwater","matrix":"Groundwater","year":2016,"pfoa":"12","pfos":null,"total_pfas":null,"pfas_level":12,"notes":null,"regulation_gvt_link":null,"resources_link":null,"suspected_source_link":"https://dnrec.alpha.delaware.gov/waste-hazardous/remediation/pfas/investigation-sites/","pfas_testing_link":"https://apps.dnrec.delaware.gov/dochandler/handler.ashx?docid=6744d73fd212a86f0kd4r96ge0010000","site_ref_link":null,"state_ref_link":null,"ObjectId":2742}},{"type":"Feature","id":2743,"geometry":{"type":"Point","coordinates":[-75.610025,38.630209]},"properties":{"site_name":"Procino Plating","other_site_names":null,"state":"Delaware","industry":"Industry","matrix_type":"Groundwater","matrix":"Groundwater","year":2018,"pfoa":"1100","pfos":"2820","total_pfas":null,"pfas_level":2820,"notes":null,"regulation_gvt_link":null,"resources_link":null,"suspected_source_link":"https://dnrec.alpha.delaware.gov/waste-hazardous/remediation/pfas/investigation-sites/","pfas_testing_link":"https://apps.dnrec.delaware.gov/dochandler/handler.ashx?docid=6744d73fd212a86f0jwi7f08d0010000","site_ref_link":null,"state_ref_link":null,"ObjectId":2743}}]}