{"type":"FeatureCollection","crs":{"type":"name","properties":{"name":"EPSG:4326"}},"features":[{"type":"Feature","id":82,"geometry":{"type":"Point","coordinates":[-111.179062,47.504258]},"properties":{"site_name":"Malmstrom Air Force Base","other_site_names":null,"state":"Montana","industry":"Military","matrix_type":"Groundwater","matrix":"Groundwater","year":2016,"pfoa":"5,500","pfos":"1,900","total_pfas":6730,"pfas_level":6730,"notes":"AFFF used at Malmstrom Air Force Base","regulation_gvt_link":"https://deq.mt.gov/Portals/112/DEQAdmin/PFAS/2020_06_30_PFAS_ActionPlan.pdf","resources_link":"https://ar.cce.af.mil/Search","suspected_source_link":"https://ar.afcec-cloud.af.mil/Search.aspx","pfas_testing_link":"https://drive.google.com/file/d/1qzt7ltGXw8LZbL7gAinaLg4qL4VaWHSv/view?usp=sharing","site_ref_link":"https://drive.google.com/drive/u/0/folders/1Kc_woUm-0UrKTx8kFQiVBUlaoUyLu9T3","state_ref_link":"https://drive.google.com/drive/u/1/folders/1AU0kMcRjrJaAu4DUN1_Ytil_iF-T0S-j","ObjectId":82}},{"type":"Feature","id":281,"geometry":{"type":"Point","coordinates":[-111.626085,46.249651]},"properties":{"site_name":"Limestone Hills Training Area","other_site_names":null,"state":"Montana","industry":"Military","matrix_type":"Other Water","matrix":"Drinking Water","year":2018,"pfoa":null,"pfos":null,"total_pfas":2,"pfas_level":2,"notes":null,"regulation_gvt_link":null,"resources_link":null,"suspected_source_link":"https://drive.google.com/file/d/1g1t60FsMLcfluvkLqorqlbsHnkF_rNZw/view?usp=sharing","pfas_testing_link":"https://drive.google.com/file/d/1g1t60FsMLcfluvkLqorqlbsHnkF_rNZw/view?usp=sharing","site_ref_link":"https://drive.google.com/drive/u/0/folders/17vc5JX3Gvo92Bih-kg-GABnBbExIJhXg","state_ref_link":"https://drive.google.com/drive/u/1/folders/1AU0kMcRjrJaAu4DUN1_Ytil_iF-T0S-j","ObjectId":281}},{"type":"Feature","id":509,"geometry":{"type":"Point","coordinates":[-108.644873,45.728354]},"properties":{"site_name":"Billings Field Maintenance Shop 06","other_site_names":null,"state":"Montana","industry":"Military","matrix_type":"Other Water","matrix":"Drinking Water","year":2018,"pfoa":"1","pfos":"2","total_pfas":6,"pfas_level":6,"notes":null,"regulation_gvt_link":null,"resources_link":null,"suspected_source_link":"https://drive.google.com/file/d/1g1t60FsMLcfluvkLqorqlbsHnkF_rNZw/view?usp=sharing","pfas_testing_link":"https://drive.google.com/file/d/1g1t60FsMLcfluvkLqorqlbsHnkF_rNZw/view?usp=sharing","site_ref_link":"https://drive.google.com/drive/u/0/folders/17vc5JX3Gvo92Bih-kg-GABnBbExIJhXg","state_ref_link":"https://drive.google.com/drive/u/1/folders/1AU0kMcRjrJaAu4DUN1_Ytil_iF-T0S-j","ObjectId":509}},{"type":"Feature","id":656,"geometry":{"type":"Point","coordinates":[-111.359857,47.478154]},"properties":{"site_name":"Montana Air National Guard Base","other_site_names":"Great Falls International Airport","state":"Montana","industry":"Military","matrix_type":"Groundwater","matrix":"Groundwater","year":2018,"pfoa":"39,000","pfos":"1,100","total_pfas":null,"pfas_level":39000,"notes":"AFFF used at Great Falls Int. Airport / Montana Air National Guard Base","regulation_gvt_link":"https://deq.mt.gov/Portals/112/DEQAdmin/PFAS/2020_06_30_PFAS_ActionPlan.pdf","resources_link":"https://ar.cce.af.mil/Search","suspected_source_link":null,"pfas_testing_link":"https://www.agri-pulse.com/ext/resources/pdfs/congress/STATUS-OF-NOTIFICATIONS-TO-AGRICULTURAL-OPERATIONS-PURSUANT-TO-SECTION-335-OF-THE-FISCAL-YEAR-2021-NATIONAL-DEFENSE-AUTHORIZATION-ACT-1.pdf","site_ref_link":"https://drive.google.com/drive/u/0/folders/1Kc_woUm-0UrKTx8kFQiVBUlaoUyLu9T3","state_ref_link":"https://drive.google.com/drive/u/1/folders/1AU0kMcRjrJaAu4DUN1_Ytil_iF-T0S-j","ObjectId":656}},{"type":"Feature","id":1285,"geometry":{"type":"Point","coordinates":[-112.097104,46.622567]},"properties":{"site_name":"Fort William Henry Harrison","other_site_names":null,"state":"Montana","industry":"Military","matrix_type":"Other Water","matrix":"Drinking Water","year":2021,"pfoa":"10","pfos":"18","total_pfas":246,"pfas_level":246,"notes":null,"regulation_gvt_link":null,"resources_link":"https://denix.osd.mil/dod-pfas/","suspected_source_link":"https://denix.osd.mil/dod-pfas/section-345-data-search/section-345-data-reporting/section-345-data-reporting-files/fort-william/","pfas_testing_link":"https://drive.google.com/file/d/1XEblnrUedGwvBDNrz_32fyMi8zmN0V3S/view?usp=sharing","site_ref_link":"https://drive.google.com/drive/folders/15W7LF7sPBa4urn-z6HRPy-nYgRFB3ACQ?usp=sharing","state_ref_link":"https://drive.google.com/drive/folders/1-u54H0Ugp4dNMyr2YSsQwgHUZUJWKRXS?usp=sharing","ObjectId":1285}},{"type":"Feature","id":2323,"geometry":{"type":"Point","coordinates":[-111.359857,47.478154]},"properties":{"site_name":"Montana Air National Guard Base","other_site_names":"Great Falls International Airport","state":"Montana","industry":"Military","matrix_type":"Groundwater","matrix":"Groundwater","year":2018,"pfoa":"39000","pfos":"1100","total_pfas":null,"pfas_level":39000,"notes":"AFFF used at Great Falls Int. Airport / Montana Air National Guard Base","regulation_gvt_link":"https://deq.mt.gov/Portals/112/DEQAdmin/PFAS/2020_06_30_PFAS_ActionPlan.pdf","resources_link":"https://ar.cce.af.mil/Search","suspected_source_link":null,"pfas_testing_link":"https://www.agri-pulse.com/ext/resources/pdfs/congress/STATUS-OF-NOTIFICATIONS-TO-AGRICULTURAL-OPERATIONS-PURSUANT-TO-SECTION-335-OF-THE-FISCAL-YEAR-2021-NATIONAL-DEFENSE-AUTHORIZATION-ACT-1.pdf","site_ref_link":"https://drive.google.com/drive/u/0/folders/1Kc_woUm-0UrKTx8kFQiVBUlaoUyLu9T3","state_ref_link":"https://drive.google.com/drive/u/1/folders/1AU0kMcRjrJaAu4DUN1_Ytil_iF-T0S-j","ObjectId":2323}},{"type":"Feature","id":2324,"geometry":{"type":"Point","coordinates":[-111.179062,47.504258]},"properties":{"site_name":"Malmstrom Air Force Base","other_site_names":null,"state":"Montana","industry":"Military","matrix_type":"Groundwater","matrix":"Groundwater","year":2016,"pfoa":"5500","pfos":"1900","total_pfas":6730,"pfas_level":6730,"notes":"AFFF used at Malmstrom Air Force Base","regulation_gvt_link":"https://deq.mt.gov/Portals/112/DEQAdmin/PFAS/2020_06_30_PFAS_ActionPlan.pdf","resources_link":"https://ar.cce.af.mil/Search","suspected_source_link":"https://ar.afcec-cloud.af.mil/Search.aspx","pfas_testing_link":"https://drive.google.com/file/d/1qzt7ltGXw8LZbL7gAinaLg4qL4VaWHSv/view?usp=sharing","site_ref_link":"https://drive.google.com/drive/u/0/folders/1Kc_woUm-0UrKTx8kFQiVBUlaoUyLu9T3","state_ref_link":"https://drive.google.com/drive/u/1/folders/1AU0kMcRjrJaAu4DUN1_Ytil_iF-T0S-j","ObjectId":2324}},{"type":"Feature","id":2567,"geometry":{"type":"Point","coordinates":[-108.644873,45.728354]},"properties":{"site_name":"Billings Field Maintenance Shop 06","other_site_names":null,"state":"Montana","industry":"Military","matrix_type":"Other Water","matrix":"Drinking Water","year":2018,"pfoa":"1","pfos":"2","total_pfas":6,"pfas_level":6,"notes":null,"regulation_gvt_link":null,"resources_link":null,"suspected_source_link":"https://drive.google.com/file/d/1g1t60FsMLcfluvkLqorqlbsHnkF_rNZw/view?usp=sharing","pfas_testing_link":"https://drive.google.com/file/d/1g1t60FsMLcfluvkLqorqlbsHnkF_rNZw/view?usp=sharing","site_ref_link":"https://drive.google.com/drive/u/0/folders/17vc5JX3Gvo92Bih-kg-GABnBbExIJhXg","state_ref_link":"https://drive.google.com/drive/u/1/folders/1AU0kMcRjrJaAu4DUN1_Ytil_iF-T0S-j","ObjectId":2567}},{"type":"Feature","id":2568,"geometry":{"type":"Point","coordinates":[-111.626085,46.249651]},"properties":{"site_name":"Limestone Hills Training Area","other_site_names":null,"state":"Montana","industry":"Military","matrix_type":"Other Water","matrix":"Drinking Water","year":2018,"pfoa":null,"pfos":null,"total_pfas":2,"pfas_level":2,"notes":null,"regulation_gvt_link":null,"resources_link":null,"suspected_source_link":"https://drive.google.com/file/d/1g1t60FsMLcfluvkLqorqlbsHnkF_rNZw/view?usp=sharing","pfas_testing_link":"https://drive.google.com/file/d/1g1t60FsMLcfluvkLqorqlbsHnkF_rNZw/view?usp=sharing","site_ref_link":"https://drive.google.com/drive/u/0/folders/17vc5JX3Gvo92Bih-kg-GABnBbExIJhXg","state_ref_link":"https://drive.google.com/drive/u/1/folders/1AU0kMcRjrJaAu4DUN1_Ytil_iF-T0S-j","ObjectId":2568}},{"type":"Feature","id":3065,"geometry":{"type":"Point","coordinates":[-112.097104,46.622567]},"properties":{"site_name":"Fort William Henry Harrison","other_site_names":null,"state":"Montana","industry":"Military","matrix_type":"Other Water","matrix":"Drinking Water","year":2021,"pfoa":"10","pfos":"18","total_pfas":246,"pfas_level":246,"notes":null,"regulation_gvt_link":null,"resources_link":"https://denix.osd.mil/dod-pfas/","suspected_source_link":"https://denix.osd.mil/dod-pfas/section-345-data-search/section-345-data-reporting/section-345-data-reporting-files/fort-william/","pfas_testing_link":"https://drive.google.com/file/d/1XEblnrUedGwvBDNrz_32fyMi8zmN0V3S/view?usp=sharing","site_ref_link":"https://drive.google.com/drive/folders/15W7LF7sPBa4urn-z6HRPy-nYgRFB3ACQ?usp=sharing","state_ref_link":"https://drive.google.com/drive/folders/1-u54H0Ugp4dNMyr2YSsQwgHUZUJWKRXS?usp=sharing","ObjectId":3065}}]}