{"type":"FeatureCollection","crs":{"type":"name","properties":{"name":"EPSG:4326"}},"features":[{"type":"Feature","id":110,"geometry":{"type":"Point","coordinates":[-103.005279,48.876061]},"properties":{"site_name":"Noonan Landfill","other_site_names":null,"state":"North Dakota","industry":"Landfill","matrix_type":"Other Water","matrix":"Leachate","year":2018,"pfoa":"140","pfos":"15","total_pfas":1499,"pfas_level":1499,"notes":null,"regulation_gvt_link":null,"resources_link":null,"suspected_source_link":null,"pfas_testing_link":"https://drive.google.com/file/d/1GMlyOu26Wz3RfVZxb0ZmcSTEE-z4MLqg/view?usp=sharing","site_ref_link":null,"state_ref_link":null,"ObjectId":110}},{"type":"Feature","id":124,"geometry":{"type":"Point","coordinates":[-103.580401,48.165872]},"properties":{"site_name":"Williston Landfill","other_site_names":null,"state":"North Dakota","industry":"Landfill","matrix_type":"Other Water","matrix":"Leachate","year":2018,"pfoa":"260","pfos":"19","total_pfas":1986,"pfas_level":1986,"notes":null,"regulation_gvt_link":null,"resources_link":null,"suspected_source_link":null,"pfas_testing_link":"https://drive.google.com/file/d/1GMlyOu26Wz3RfVZxb0ZmcSTEE-z4MLqg/view?usp=sharing","site_ref_link":null,"state_ref_link":null,"ObjectId":124}},{"type":"Feature","id":134,"geometry":{"type":"Point","coordinates":[-101.344912,48.212991]},"properties":{"site_name":"Minot Landfill","other_site_names":null,"state":"North Dakota","industry":"Landfill","matrix_type":"Other Water","matrix":"Leachate","year":2018,"pfoa":"250","pfos":"45","total_pfas":2388,"pfas_level":2388,"notes":null,"regulation_gvt_link":null,"resources_link":null,"suspected_source_link":null,"pfas_testing_link":"https://drive.google.com/file/d/1GMlyOu26Wz3RfVZxb0ZmcSTEE-z4MLqg/view?usp=sharing","site_ref_link":null,"state_ref_link":null,"ObjectId":134}},{"type":"Feature","id":138,"geometry":{"type":"Point","coordinates":[-97.694963,46.25852]},"properties":{"site_name":"Big Dipper Landfill","other_site_names":null,"state":"North Dakota","industry":"Landfill","matrix_type":"Other Water","matrix":"Leachate","year":2018,"pfoa":"220","pfos":"25","total_pfas":2658,"pfas_level":2658,"notes":null,"regulation_gvt_link":null,"resources_link":null,"suspected_source_link":null,"pfas_testing_link":"https://drive.google.com/file/d/1GMlyOu26Wz3RfVZxb0ZmcSTEE-z4MLqg/view?usp=sharing","site_ref_link":null,"state_ref_link":null,"ObjectId":138}},{"type":"Feature","id":140,"geometry":{"type":"Point","coordinates":[-99.712767,46.267486]},"properties":{"site_name":"Jahner Landfill","other_site_names":null,"state":"North Dakota","industry":"Landfill","matrix_type":"Other Water","matrix":"Leachate","year":2018,"pfoa":"340","pfos":"43","total_pfas":2764,"pfas_level":2764,"notes":null,"regulation_gvt_link":null,"resources_link":null,"suspected_source_link":null,"pfas_testing_link":"https://drive.google.com/file/d/1GMlyOu26Wz3RfVZxb0ZmcSTEE-z4MLqg/view?usp=sharing","site_ref_link":null,"state_ref_link":null,"ObjectId":140}},{"type":"Feature","id":149,"geometry":{"type":"Point","coordinates":[-97.133044,47.949053]},"properties":{"site_name":"Grand Forks Former Landfill","other_site_names":null,"state":"North Dakota","industry":"Landfill","matrix_type":"Other Water","matrix":"Leachate","year":2018,"pfoa":"720","pfos":"56","total_pfas":3276,"pfas_level":3276,"notes":null,"regulation_gvt_link":null,"resources_link":null,"suspected_source_link":null,"pfas_testing_link":"https://drive.google.com/file/d/1GMlyOu26Wz3RfVZxb0ZmcSTEE-z4MLqg/view?usp=sharing","site_ref_link":null,"state_ref_link":null,"ObjectId":149}},{"type":"Feature","id":192,"geometry":{"type":"Point","coordinates":[-97.905302,48.731989]},"properties":{"site_name":"Cavalier Air Force Station","other_site_names":null,"state":"North Dakota","industry":"Military","matrix_type":"Groundwater","matrix":"Groundwater","year":2018,"pfoa":"1,400","pfos":"4,000","total_pfas":null,"pfas_level":4000,"notes":null,"regulation_gvt_link":null,"resources_link":null,"suspected_source_link":"https://ar.afcec-cloud.af.mil/Search.aspx","pfas_testing_link":"https://drive.google.com/file/d/1zrouM3pZZcVFqQMcDfPo4AXIgDjn99-I/view?usp=sharing","site_ref_link":null,"state_ref_link":null,"ObjectId":192}},{"type":"Feature","id":193,"geometry":{"type":"Point","coordinates":[-102.729284,46.88271]},"properties":{"site_name":"Dickinson Landfill","other_site_names":null,"state":"North Dakota","industry":"Landfill","matrix_type":"Other Water","matrix":"Leachate","year":2018,"pfoa":"580","pfos":"77","total_pfas":4061,"pfas_level":4061,"notes":null,"regulation_gvt_link":null,"resources_link":null,"suspected_source_link":null,"pfas_testing_link":"https://drive.google.com/file/d/1GMlyOu26Wz3RfVZxb0ZmcSTEE-z4MLqg/view?usp=sharing","site_ref_link":null,"state_ref_link":null,"ObjectId":193}},{"type":"Feature","id":282,"geometry":{"type":"Point","coordinates":[-101.415587,47.652097]},"properties":{"site_name":"Garrison Training Center","other_site_names":null,"state":"North Dakota","industry":"Military","matrix_type":"Other Water","matrix":"Drinking Water","year":2018,"pfoa":null,"pfos":null,"total_pfas":2,"pfas_level":2,"notes":null,"regulation_gvt_link":null,"resources_link":null,"suspected_source_link":"https://drive.google.com/file/d/1g1t60FsMLcfluvkLqorqlbsHnkF_rNZw/view?usp=sharing","pfas_testing_link":"https://drive.google.com/file/d/1g1t60FsMLcfluvkLqorqlbsHnkF_rNZw/view?usp=sharing","site_ref_link":"https://drive.google.com/drive/u/0/folders/17vc5JX3Gvo92Bih-kg-GABnBbExIJhXg","state_ref_link":"https://drive.google.com/drive/folders/1K5bz5z6kLSFgEXbBTp7tvdU8lvPIbWYP?usp=sharing","ObjectId":282}},{"type":"Feature","id":289,"geometry":{"type":"Point","coordinates":[-98.012367,47.092476]},"properties":{"site_name":"Camp Davis","other_site_names":null,"state":"North Dakota","industry":"Military","matrix_type":"Other Water","matrix":"Drinking Water","year":2018,"pfoa":"1","pfos":null,"total_pfas":3,"pfas_level":3,"notes":null,"regulation_gvt_link":null,"resources_link":null,"suspected_source_link":"https://drive.google.com/file/d/1g1t60FsMLcfluvkLqorqlbsHnkF_rNZw/view?usp=sharing","pfas_testing_link":"https://drive.google.com/file/d/1g1t60FsMLcfluvkLqorqlbsHnkF_rNZw/view?usp=sharing","site_ref_link":"https://drive.google.com/drive/u/0/folders/17vc5JX3Gvo92Bih-kg-GABnBbExIJhXg","state_ref_link":"https://drive.google.com/drive/folders/1K5bz5z6kLSFgEXbBTp7tvdU8lvPIbWYP?usp=sharing","ObjectId":289}},{"type":"Feature","id":312,"geometry":{"type":"Point","coordinates":[-100.820019,46.814079]},"properties":{"site_name":"Bismarck Wastewater Treatment Plant","other_site_names":null,"state":"North Dakota","industry":"WWTP","matrix_type":"Other Water","matrix":"Wastewater","year":2018,"pfoa":"3","pfos":"4","total_pfas":41,"pfas_level":41,"notes":null,"regulation_gvt_link":null,"resources_link":null,"suspected_source_link":null,"pfas_testing_link":"https://drive.google.com/file/d/1GMlyOu26Wz3RfVZxb0ZmcSTEE-z4MLqg/view?usp=sharing","site_ref_link":null,"state_ref_link":null,"ObjectId":312}},{"type":"Feature","id":338,"geometry":{"type":"Point","coordinates":[-97.9099,48.916225]},"properties":{"site_name":"Walhalla Wastewater Treatment Plant","other_site_names":null,"state":"North Dakota","industry":"WWTP","matrix_type":"Other Water","matrix":"Wastewater","year":2018,"pfoa":"9","pfos":"5","total_pfas":56,"pfas_level":56,"notes":null,"regulation_gvt_link":null,"resources_link":null,"suspected_source_link":null,"pfas_testing_link":"https://drive.google.com/file/d/1GMlyOu26Wz3RfVZxb0ZmcSTEE-z4MLqg/view?usp=sharing","site_ref_link":null,"state_ref_link":null,"ObjectId":338}},{"type":"Feature","id":353,"geometry":{"type":"Point","coordinates":[-98.649172,46.888969]},"properties":{"site_name":"Jamestown Cell D Wastewater Treatment Plant","other_site_names":null,"state":"North Dakota","industry":"WWTP","matrix_type":"Other Water","matrix":"Wastewater","year":2018,"pfoa":"8","pfos":"7","total_pfas":65,"pfas_level":65,"notes":null,"regulation_gvt_link":null,"resources_link":null,"suspected_source_link":null,"pfas_testing_link":"https://drive.google.com/file/d/1GMlyOu26Wz3RfVZxb0ZmcSTEE-z4MLqg/view?usp=sharing","site_ref_link":null,"state_ref_link":null,"ObjectId":353}},{"type":"Feature","id":365,"geometry":{"type":"Point","coordinates":[-102.729044,46.860645]},"properties":{"site_name":"Dickinson Wastewater Treatment Plant","other_site_names":null,"state":"North Dakota","industry":"WWTP","matrix_type":"Other Water","matrix":"Wastewater","year":2018,"pfoa":"6","pfos":"3","total_pfas":79,"pfas_level":79,"notes":null,"regulation_gvt_link":null,"resources_link":null,"suspected_source_link":null,"pfas_testing_link":"https://drive.google.com/file/d/1GMlyOu26Wz3RfVZxb0ZmcSTEE-z4MLqg/view?usp=sharing","site_ref_link":null,"state_ref_link":null,"ObjectId":365}},{"type":"Feature","id":367,"geometry":{"type":"Point","coordinates":[-96.786071,46.860621]},"properties":{"site_name":"Fargo Wastewater Treatment Plant","other_site_names":null,"state":"North Dakota","industry":"WWTP","matrix_type":"Other Water","matrix":"Wastewater","year":2018,"pfoa":"6","pfos":"7","total_pfas":80,"pfas_level":80,"notes":null,"regulation_gvt_link":null,"resources_link":null,"suspected_source_link":null,"pfas_testing_link":"https://drive.google.com/file/d/1GMlyOu26Wz3RfVZxb0ZmcSTEE-z4MLqg/view?usp=sharing","site_ref_link":null,"state_ref_link":null,"ObjectId":367}},{"type":"Feature","id":531,"geometry":{"type":"Point","coordinates":[-98.926368,48.060663]},"properties":{"site_name":"Camp Grafton","other_site_names":null,"state":"North Dakota","industry":"Military","matrix_type":"Other Water","matrix":"Drinking Water","year":2018,"pfoa":"6","pfos":null,"total_pfas":9,"pfas_level":9,"notes":null,"regulation_gvt_link":null,"resources_link":null,"suspected_source_link":"https://drive.google.com/file/d/1g1t60FsMLcfluvkLqorqlbsHnkF_rNZw/view?usp=sharing","pfas_testing_link":"https://drive.google.com/file/d/1g1t60FsMLcfluvkLqorqlbsHnkF_rNZw/view?usp=sharing","site_ref_link":"https://drive.google.com/drive/u/0/folders/17vc5JX3Gvo92Bih-kg-GABnBbExIJhXg","state_ref_link":"https://drive.google.com/drive/folders/1K5bz5z6kLSFgEXbBTp7tvdU8lvPIbWYP?usp=sharing","ObjectId":531}},{"type":"Feature","id":551,"geometry":{"type":"Point","coordinates":[-99.7812,47.136075]},"properties":{"site_name":"Robinson Wastewater Treatment Plant","other_site_names":null,"state":"North Dakota","industry":"WWTP","matrix_type":"Other Water","matrix":"Wastewater","year":2018,"pfoa":"3","pfos":"2","total_pfas":13,"pfas_level":13,"notes":null,"regulation_gvt_link":null,"resources_link":null,"suspected_source_link":null,"pfas_testing_link":"https://drive.google.com/file/d/1GMlyOu26Wz3RfVZxb0ZmcSTEE-z4MLqg/view?usp=sharing","site_ref_link":null,"state_ref_link":null,"ObjectId":551}},{"type":"Feature","id":596,"geometry":{"type":"Point","coordinates":[-98.649224,46.888856]},"properties":{"site_name":"Jamestown Wastewater Treatment Plant","other_site_names":null,"state":"North Dakota","industry":"WWTP","matrix_type":"Other Water","matrix":"Wastewater","year":2018,"pfoa":"2","pfos":"3","total_pfas":30,"pfas_level":30,"notes":null,"regulation_gvt_link":null,"resources_link":null,"suspected_source_link":null,"pfas_testing_link":"https://drive.google.com/file/d/1GMlyOu26Wz3RfVZxb0ZmcSTEE-z4MLqg/view?usp=sharing","site_ref_link":null,"state_ref_link":null,"ObjectId":596}},{"type":"Feature","id":602,"geometry":{"type":"Point","coordinates":[-97.144833,47.953079]},"properties":{"site_name":"Grand Forks Wastewater Treatment Plant","other_site_names":null,"state":"North Dakota","industry":"WWTP","matrix_type":"Other Water","matrix":"Wastewater","year":2018,"pfoa":"10","pfos":"15","total_pfas":127,"pfas_level":127,"notes":null,"regulation_gvt_link":null,"resources_link":null,"suspected_source_link":null,"pfas_testing_link":"https://drive.google.com/file/d/1GMlyOu26Wz3RfVZxb0ZmcSTEE-z4MLqg/view?usp=sharing","site_ref_link":null,"state_ref_link":null,"ObjectId":602}},{"type":"Feature","id":611,"geometry":{"type":"Point","coordinates":[-97.133365,47.947997]},"properties":{"site_name":"Grand Forks Current Landfill","other_site_names":null,"state":"North Dakota","industry":"Landfill","matrix_type":"Other Water","matrix":"Leachate","year":2018,"pfoa":"1,000","pfos":"180","total_pfas":7022,"pfas_level":7022,"notes":null,"regulation_gvt_link":null,"resources_link":null,"suspected_source_link":null,"pfas_testing_link":"https://drive.google.com/file/d/1GMlyOu26Wz3RfVZxb0ZmcSTEE-z4MLqg/view?usp=sharing","site_ref_link":null,"state_ref_link":null,"ObjectId":611}},{"type":"Feature","id":617,"geometry":{"type":"Point","coordinates":[-96.863085,46.884132]},"properties":{"site_name":"Fargo Landfill","other_site_names":null,"state":"North Dakota","industry":"Landfill","matrix_type":"Other Water","matrix":"Leachate","year":2018,"pfoa":"1,200","pfos":"190","total_pfas":7451,"pfas_level":7451,"notes":null,"regulation_gvt_link":null,"resources_link":null,"suspected_source_link":null,"pfas_testing_link":"https://drive.google.com/file/d/1GMlyOu26Wz3RfVZxb0ZmcSTEE-z4MLqg/view?usp=sharing","site_ref_link":null,"state_ref_link":null,"ObjectId":617}},{"type":"Feature","id":622,"geometry":{"type":"Point","coordinates":[-101.099888,47.976792]},"properties":{"site_name":"McDaniel Landfill","other_site_names":null,"state":"North Dakota","industry":"Landfill","matrix_type":"Other Water","matrix":"Leachate","year":2018,"pfoa":"1,700","pfos":"310","total_pfas":8134,"pfas_level":8134,"notes":null,"regulation_gvt_link":null,"resources_link":null,"suspected_source_link":null,"pfas_testing_link":"https://drive.google.com/file/d/1GMlyOu26Wz3RfVZxb0ZmcSTEE-z4MLqg/view?usp=sharing","site_ref_link":null,"state_ref_link":null,"ObjectId":622}},{"type":"Feature","id":623,"geometry":{"type":"Point","coordinates":[-100.709116,46.832248]},"properties":{"site_name":"Bismarck Landfill","other_site_names":null,"state":"North Dakota","industry":"Landfill","matrix_type":"Other Water","matrix":"Leachate","year":2018,"pfoa":"720","pfos":"40","total_pfas":8157,"pfas_level":8157,"notes":null,"regulation_gvt_link":null,"resources_link":null,"suspected_source_link":null,"pfas_testing_link":"https://drive.google.com/file/d/1GMlyOu26Wz3RfVZxb0ZmcSTEE-z4MLqg/view?usp=sharing","site_ref_link":null,"state_ref_link":null,"ObjectId":623}},{"type":"Feature","id":631,"geometry":{"type":"Point","coordinates":[-101.099754,47.978758]},"properties":{"site_name":"Sawyer Landfill Facility","other_site_names":null,"state":"North Dakota","industry":"Landfill","matrix_type":"Other Water","matrix":"Leachate","year":2018,"pfoa":"160","pfos":"95","total_pfas":11367,"pfas_level":11367,"notes":"Testing included five areas of the landfill facility: S Pond Evap Basin 1 Landfill, S Pond Evap Basin 2 Landfill, S Pond Evap Basin 3 Landfill, N Pond West Landfill, N Pond East Landfill","regulation_gvt_link":null,"resources_link":null,"suspected_source_link":null,"pfas_testing_link":"https://drive.google.com/file/d/1GMlyOu26Wz3RfVZxb0ZmcSTEE-z4MLqg/view?usp=sharing","site_ref_link":null,"state_ref_link":null,"ObjectId":631}},{"type":"Feature","id":669,"geometry":{"type":"Point","coordinates":[-97.382449,47.95252]},"properties":{"site_name":"Grand Forks Air Force Base","other_site_names":null,"state":"North Dakota","industry":"Military","matrix_type":"Groundwater","matrix":"Groundwater","year":2018,"pfoa":"40,000","pfos":"35,000","total_pfas":83500,"pfas_level":83500,"notes":"Firefighting foam used at Grand Forks Air Force Base","regulation_gvt_link":"N/A","resources_link":"http://afcec.publicadmin-record.us.af.mil/","suspected_source_link":"http://www.valleynewslive.com/home/headlines/Tests-ordered-after-possible-drinking-water-contamination-at-North-Dakota-military-bases-371844792.html?device=phone&c=y","pfas_testing_link":"https://drive.google.com/file/d/1X9c0pI7BmqmbAI5cqfJmE7uLKiAHij3Z/view?usp=sharing","site_ref_link":"https://drive.google.com/drive/u/0/folders/1_SIlq_Acaah6TCiaqYHpS7Xfly5jlYIv","state_ref_link":"https://drive.google.com/drive/folders/1K5bz5z6kLSFgEXbBTp7tvdU8lvPIbWYP?usp=sharing","ObjectId":669}},{"type":"Feature","id":687,"geometry":{"type":"Point","coordinates":[-96.804153,46.909607]},"properties":{"site_name":"Hector Field Air National Guard Base","other_site_names":"Hector Field International Airport","state":"North Dakota","industry":"Military","matrix_type":"Groundwater","matrix":"Groundwater","year":2018,"pfoa":"16,000","pfos":"58,000","total_pfas":172429,"pfas_level":172429,"notes":"AFFF used at Hector Field International Airport / Air National Guard Base","regulation_gvt_link":"N/A","resources_link":"http://afcec.publicadmin-record.us.af.mil/","suspected_source_link":"http://www.valleynewslive.com/home/headlines/Tests-ordered-after-possible-drinking-water-contamination-at-North-Dakota-military-bases-371844792.html?device=phone&c=y","pfas_testing_link":"https://drive.google.com/file/d/1WeK5nNImqxsqHzhG40P-HlOrcbjejIfs/view?usp=sharing","site_ref_link":"https://drive.google.com/drive/u/0/folders/1ZyKaZ7I3AcPvNBrbRX3XuUw9FUBF8pcx","state_ref_link":"https://drive.google.com/drive/folders/1K5bz5z6kLSFgEXbBTp7tvdU8lvPIbWYP?usp=sharing","ObjectId":687}},{"type":"Feature","id":699,"geometry":{"type":"Point","coordinates":[-101.338672,48.415751]},"properties":{"site_name":"Minot Air Force Base","other_site_names":null,"state":"North Dakota","industry":"Military","matrix_type":"Groundwater","matrix":"Groundwater","year":2018,"pfoa":"20,000","pfos":"440,000","total_pfas":null,"pfas_level":453000,"notes":"AFFF used at Minot Air Force Base","regulation_gvt_link":"N/A","resources_link":"http://afcec.publicadmin-record.us.af.mil/","suspected_source_link":"https://ar.afcec-cloud.af.mil/Search.aspx","pfas_testing_link":"https://drive.google.com/file/d/19qHU3zeXWcXqJajNNtt9ndmBRekaPe3Y/view?usp=sharing","site_ref_link":"https://drive.google.com/drive/u/0/folders/1X8eJqYtNOEYh5HzPn80uuHfjTi-cZCGI","state_ref_link":"https://drive.google.com/drive/folders/1K5bz5z6kLSFgEXbBTp7tvdU8lvPIbWYP?usp=sharing","ObjectId":699}},{"type":"Feature","id":709,"geometry":{"type":"Point","coordinates":[-98.86357,48.091941]},"properties":{"site_name":"Devils Lake Wastewater Treatment Plant","other_site_names":null,"state":"North Dakota","industry":"WWTP","matrix_type":"Other Water","matrix":"Wastewater","year":2018,"pfoa":"22","pfos":"29","total_pfas":154,"pfas_level":154,"notes":null,"regulation_gvt_link":null,"resources_link":null,"suspected_source_link":null,"pfas_testing_link":"https://drive.google.com/file/d/1GMlyOu26Wz3RfVZxb0ZmcSTEE-z4MLqg/view?usp=sharing","site_ref_link":null,"state_ref_link":null,"ObjectId":709}},{"type":"Feature","id":716,"geometry":{"type":"Point","coordinates":[-101.314929,48.227343]},"properties":{"site_name":"Minot Wastewater Treatment Plant","other_site_names":null,"state":"North Dakota","industry":"WWTP","matrix_type":"Other Water","matrix":"Wastewater","year":2018,"pfoa":"29","pfos":"12","total_pfas":177,"pfas_level":177,"notes":null,"regulation_gvt_link":null,"resources_link":null,"suspected_source_link":null,"pfas_testing_link":"https://drive.google.com/file/d/1GMlyOu26Wz3RfVZxb0ZmcSTEE-z4MLqg/view?usp=sharing","site_ref_link":null,"state_ref_link":null,"ObjectId":716}},{"type":"Feature","id":724,"geometry":{"type":"Point","coordinates":[-102.618153,45.989496]},"properties":{"site_name":"Hettinger Wastewater Treatment Plant","other_site_names":null,"state":"North Dakota","industry":"WWTP","matrix_type":"Other Water","matrix":"Wastewater","year":2018,"pfoa":"35","pfos":"23","total_pfas":190,"pfas_level":190,"notes":null,"regulation_gvt_link":null,"resources_link":null,"suspected_source_link":null,"pfas_testing_link":"https://drive.google.com/file/d/1GMlyOu26Wz3RfVZxb0ZmcSTEE-z4MLqg/view?usp=sharing","site_ref_link":null,"state_ref_link":null,"ObjectId":724}},{"type":"Feature","id":774,"geometry":{"type":"Point","coordinates":[-103.420361,47.775732]},"properties":{"site_name":"McKenzie County Landfill","other_site_names":null,"state":"North Dakota","industry":"Landfill","matrix_type":"Other Water","matrix":"Leachate","year":2018,"pfoa":"52","pfos":"6","total_pfas":677,"pfas_level":677,"notes":null,"regulation_gvt_link":null,"resources_link":null,"suspected_source_link":null,"pfas_testing_link":"https://drive.google.com/file/d/1GMlyOu26Wz3RfVZxb0ZmcSTEE-z4MLqg/view?usp=sharing","site_ref_link":null,"state_ref_link":null,"ObjectId":774}},{"type":"Feature","id":2374,"geometry":{"type":"Point","coordinates":[-96.804153,46.909607]},"properties":{"site_name":"Hector Field Air National Guard Base","other_site_names":"Hector Field International Airport","state":"North Dakota","industry":"Military","matrix_type":"Groundwater","matrix":"Groundwater","year":2018,"pfoa":"16000","pfos":"58000","total_pfas":172429,"pfas_level":172429,"notes":"AFFF used at Hector Field International Airport / Air National Guard Base","regulation_gvt_link":"N/A","resources_link":"http://afcec.publicadmin-record.us.af.mil/","suspected_source_link":"http://www.valleynewslive.com/home/headlines/Tests-ordered-after-possible-drinking-water-contamination-at-North-Dakota-military-bases-371844792.html?device=phone&c=y","pfas_testing_link":"https://drive.google.com/file/d/1WeK5nNImqxsqHzhG40P-HlOrcbjejIfs/view?usp=sharing","site_ref_link":"https://drive.google.com/drive/u/0/folders/1ZyKaZ7I3AcPvNBrbRX3XuUw9FUBF8pcx","state_ref_link":"https://drive.google.com/drive/folders/1K5bz5z6kLSFgEXbBTp7tvdU8lvPIbWYP?usp=sharing","ObjectId":2374}},{"type":"Feature","id":2375,"geometry":{"type":"Point","coordinates":[-97.382449,47.95252]},"properties":{"site_name":"Grand Forks Air Force Base","other_site_names":null,"state":"North Dakota","industry":"Military","matrix_type":"Groundwater","matrix":"Groundwater","year":2018,"pfoa":"40000","pfos":"35000","total_pfas":83500,"pfas_level":83500,"notes":"Firefighting foam used at Grand Forks Air Force Base","regulation_gvt_link":"N/A","resources_link":"http://afcec.publicadmin-record.us.af.mil/","suspected_source_link":"http://www.valleynewslive.com/home/headlines/Tests-ordered-after-possible-drinking-water-contamination-at-North-Dakota-military-bases-371844792.html?device=phone&c=y","pfas_testing_link":"https://drive.google.com/file/d/1X9c0pI7BmqmbAI5cqfJmE7uLKiAHij3Z/view?usp=sharing","site_ref_link":"https://drive.google.com/drive/u/0/folders/1_SIlq_Acaah6TCiaqYHpS7Xfly5jlYIv","state_ref_link":"https://drive.google.com/drive/folders/1K5bz5z6kLSFgEXbBTp7tvdU8lvPIbWYP?usp=sharing","ObjectId":2375}},{"type":"Feature","id":2376,"geometry":{"type":"Point","coordinates":[-101.338672,48.415751]},"properties":{"site_name":"Minot Air Force Base","other_site_names":null,"state":"North Dakota","industry":"Military","matrix_type":"Groundwater","matrix":"Groundwater","year":2018,"pfoa":"20000","pfos":"440000","total_pfas":null,"pfas_level":453000,"notes":"AFFF used at Minot Air Force Base","regulation_gvt_link":"N/A","resources_link":"http://afcec.publicadmin-record.us.af.mil/","suspected_source_link":"https://ar.afcec-cloud.af.mil/Search.aspx","pfas_testing_link":"https://drive.google.com/file/d/19qHU3zeXWcXqJajNNtt9ndmBRekaPe3Y/view?usp=sharing","site_ref_link":"https://drive.google.com/drive/u/0/folders/1X8eJqYtNOEYh5HzPn80uuHfjTi-cZCGI","state_ref_link":"https://drive.google.com/drive/folders/1K5bz5z6kLSFgEXbBTp7tvdU8lvPIbWYP?usp=sharing","ObjectId":2376}},{"type":"Feature","id":2586,"geometry":{"type":"Point","coordinates":[-98.012367,47.092476]},"properties":{"site_name":"Camp Davis","other_site_names":null,"state":"North Dakota","industry":"Military","matrix_type":"Other Water","matrix":"Drinking Water","year":2018,"pfoa":"1","pfos":null,"total_pfas":3,"pfas_level":3,"notes":null,"regulation_gvt_link":null,"resources_link":null,"suspected_source_link":"https://drive.google.com/file/d/1g1t60FsMLcfluvkLqorqlbsHnkF_rNZw/view?usp=sharing","pfas_testing_link":"https://drive.google.com/file/d/1g1t60FsMLcfluvkLqorqlbsHnkF_rNZw/view?usp=sharing","site_ref_link":"https://drive.google.com/drive/u/0/folders/17vc5JX3Gvo92Bih-kg-GABnBbExIJhXg","state_ref_link":"https://drive.google.com/drive/folders/1K5bz5z6kLSFgEXbBTp7tvdU8lvPIbWYP?usp=sharing","ObjectId":2586}},{"type":"Feature","id":2587,"geometry":{"type":"Point","coordinates":[-98.926368,48.060663]},"properties":{"site_name":"Camp Grafton","other_site_names":null,"state":"North Dakota","industry":"Military","matrix_type":"Other Water","matrix":"Drinking Water","year":2018,"pfoa":"6","pfos":null,"total_pfas":9,"pfas_level":9,"notes":null,"regulation_gvt_link":null,"resources_link":null,"suspected_source_link":"https://drive.google.com/file/d/1g1t60FsMLcfluvkLqorqlbsHnkF_rNZw/view?usp=sharing","pfas_testing_link":"https://drive.google.com/file/d/1g1t60FsMLcfluvkLqorqlbsHnkF_rNZw/view?usp=sharing","site_ref_link":"https://drive.google.com/drive/u/0/folders/17vc5JX3Gvo92Bih-kg-GABnBbExIJhXg","state_ref_link":"https://drive.google.com/drive/folders/1K5bz5z6kLSFgEXbBTp7tvdU8lvPIbWYP?usp=sharing","ObjectId":2587}},{"type":"Feature","id":2588,"geometry":{"type":"Point","coordinates":[-101.415587,47.652097]},"properties":{"site_name":"Garrison Training Center","other_site_names":null,"state":"North Dakota","industry":"Military","matrix_type":"Other Water","matrix":"Drinking Water","year":2018,"pfoa":null,"pfos":null,"total_pfas":2,"pfas_level":2,"notes":null,"regulation_gvt_link":null,"resources_link":null,"suspected_source_link":"https://drive.google.com/file/d/1g1t60FsMLcfluvkLqorqlbsHnkF_rNZw/view?usp=sharing","pfas_testing_link":"https://drive.google.com/file/d/1g1t60FsMLcfluvkLqorqlbsHnkF_rNZw/view?usp=sharing","site_ref_link":"https://drive.google.com/drive/u/0/folders/17vc5JX3Gvo92Bih-kg-GABnBbExIJhXg","state_ref_link":"https://drive.google.com/drive/folders/1K5bz5z6kLSFgEXbBTp7tvdU8lvPIbWYP?usp=sharing","ObjectId":2588}},{"type":"Feature","id":2958,"geometry":{"type":"Point","coordinates":[-97.694963,46.25852]},"properties":{"site_name":"Big Dipper Landfill","other_site_names":null,"state":"North Dakota","industry":"Landfill","matrix_type":"Other Water","matrix":"Leachate","year":2018,"pfoa":"220","pfos":"25","total_pfas":2658,"pfas_level":2658,"notes":null,"regulation_gvt_link":null,"resources_link":null,"suspected_source_link":null,"pfas_testing_link":"https://drive.google.com/file/d/1GMlyOu26Wz3RfVZxb0ZmcSTEE-z4MLqg/view?usp=sharing","site_ref_link":null,"state_ref_link":null,"ObjectId":2958}},{"type":"Feature","id":2959,"geometry":{"type":"Point","coordinates":[-100.709116,46.832248]},"properties":{"site_name":"Bismarck Landfill","other_site_names":null,"state":"North Dakota","industry":"Landfill","matrix_type":"Other Water","matrix":"Leachate","year":2018,"pfoa":"720","pfos":"40","total_pfas":8157,"pfas_level":8157,"notes":null,"regulation_gvt_link":null,"resources_link":null,"suspected_source_link":null,"pfas_testing_link":"https://drive.google.com/file/d/1GMlyOu26Wz3RfVZxb0ZmcSTEE-z4MLqg/view?usp=sharing","site_ref_link":null,"state_ref_link":null,"ObjectId":2959}},{"type":"Feature","id":2960,"geometry":{"type":"Point","coordinates":[-100.820019,46.814079]},"properties":{"site_name":"Bismarck Wastewater Treatment Plant","other_site_names":null,"state":"North Dakota","industry":"WWTP","matrix_type":"Other Water","matrix":"Wastewater","year":2018,"pfoa":"3","pfos":"4","total_pfas":41,"pfas_level":41,"notes":null,"regulation_gvt_link":null,"resources_link":null,"suspected_source_link":null,"pfas_testing_link":"https://drive.google.com/file/d/1GMlyOu26Wz3RfVZxb0ZmcSTEE-z4MLqg/view?usp=sharing","site_ref_link":null,"state_ref_link":null,"ObjectId":2960}},{"type":"Feature","id":2961,"geometry":{"type":"Point","coordinates":[-97.905302,48.731989]},"properties":{"site_name":"Cavalier Air Force Station","other_site_names":null,"state":"North Dakota","industry":"Military","matrix_type":"Groundwater","matrix":"Groundwater","year":2018,"pfoa":"1400","pfos":"4000","total_pfas":null,"pfas_level":4000,"notes":null,"regulation_gvt_link":null,"resources_link":null,"suspected_source_link":"https://ar.afcec-cloud.af.mil/Search.aspx","pfas_testing_link":"https://drive.google.com/file/d/1zrouM3pZZcVFqQMcDfPo4AXIgDjn99-I/view?usp=sharing","site_ref_link":null,"state_ref_link":null,"ObjectId":2961}},{"type":"Feature","id":2962,"geometry":{"type":"Point","coordinates":[-98.86357,48.091941]},"properties":{"site_name":"Devils Lake Wastewater Treatment Plant","other_site_names":null,"state":"North Dakota","industry":"WWTP","matrix_type":"Other Water","matrix":"Wastewater","year":2018,"pfoa":"22","pfos":"29","total_pfas":154,"pfas_level":154,"notes":null,"regulation_gvt_link":null,"resources_link":null,"suspected_source_link":null,"pfas_testing_link":"https://drive.google.com/file/d/1GMlyOu26Wz3RfVZxb0ZmcSTEE-z4MLqg/view?usp=sharing","site_ref_link":null,"state_ref_link":null,"ObjectId":2962}},{"type":"Feature","id":2963,"geometry":{"type":"Point","coordinates":[-102.729284,46.88271]},"properties":{"site_name":"Dickinson Landfill","other_site_names":null,"state":"North Dakota","industry":"Landfill","matrix_type":"Other Water","matrix":"Leachate","year":2018,"pfoa":"580","pfos":"77","total_pfas":4061,"pfas_level":4061,"notes":null,"regulation_gvt_link":null,"resources_link":null,"suspected_source_link":null,"pfas_testing_link":"https://drive.google.com/file/d/1GMlyOu26Wz3RfVZxb0ZmcSTEE-z4MLqg/view?usp=sharing","site_ref_link":null,"state_ref_link":null,"ObjectId":2963}},{"type":"Feature","id":2964,"geometry":{"type":"Point","coordinates":[-102.729044,46.860645]},"properties":{"site_name":"Dickinson Wastewater Treatment Plant","other_site_names":null,"state":"North Dakota","industry":"WWTP","matrix_type":"Other Water","matrix":"Wastewater","year":2018,"pfoa":"6","pfos":"3","total_pfas":79,"pfas_level":79,"notes":null,"regulation_gvt_link":null,"resources_link":null,"suspected_source_link":null,"pfas_testing_link":"https://drive.google.com/file/d/1GMlyOu26Wz3RfVZxb0ZmcSTEE-z4MLqg/view?usp=sharing","site_ref_link":null,"state_ref_link":null,"ObjectId":2964}},{"type":"Feature","id":2965,"geometry":{"type":"Point","coordinates":[-96.863085,46.884132]},"properties":{"site_name":"Fargo Landfill","other_site_names":null,"state":"North Dakota","industry":"Landfill","matrix_type":"Other Water","matrix":"Leachate","year":2018,"pfoa":"1200","pfos":"190","total_pfas":7451,"pfas_level":7451,"notes":null,"regulation_gvt_link":null,"resources_link":null,"suspected_source_link":null,"pfas_testing_link":"https://drive.google.com/file/d/1GMlyOu26Wz3RfVZxb0ZmcSTEE-z4MLqg/view?usp=sharing","site_ref_link":null,"state_ref_link":null,"ObjectId":2965}},{"type":"Feature","id":2966,"geometry":{"type":"Point","coordinates":[-96.786071,46.860621]},"properties":{"site_name":"Fargo Wastewater Treatment Plant","other_site_names":null,"state":"North Dakota","industry":"WWTP","matrix_type":"Other Water","matrix":"Wastewater","year":2018,"pfoa":"6","pfos":"7","total_pfas":80,"pfas_level":80,"notes":null,"regulation_gvt_link":null,"resources_link":null,"suspected_source_link":null,"pfas_testing_link":"https://drive.google.com/file/d/1GMlyOu26Wz3RfVZxb0ZmcSTEE-z4MLqg/view?usp=sharing","site_ref_link":null,"state_ref_link":null,"ObjectId":2966}},{"type":"Feature","id":2967,"geometry":{"type":"Point","coordinates":[-97.133365,47.947997]},"properties":{"site_name":"Grand Forks Current Landfill","other_site_names":null,"state":"North Dakota","industry":"Landfill","matrix_type":"Other Water","matrix":"Leachate","year":2018,"pfoa":"1000","pfos":"180","total_pfas":7022,"pfas_level":7022,"notes":null,"regulation_gvt_link":null,"resources_link":null,"suspected_source_link":null,"pfas_testing_link":"https://drive.google.com/file/d/1GMlyOu26Wz3RfVZxb0ZmcSTEE-z4MLqg/view?usp=sharing","site_ref_link":null,"state_ref_link":null,"ObjectId":2967}},{"type":"Feature","id":2968,"geometry":{"type":"Point","coordinates":[-97.133044,47.949053]},"properties":{"site_name":"Grand Forks Former Landfill","other_site_names":null,"state":"North Dakota","industry":"Landfill","matrix_type":"Other Water","matrix":"Leachate","year":2018,"pfoa":"720","pfos":"56","total_pfas":3276,"pfas_level":3276,"notes":null,"regulation_gvt_link":null,"resources_link":null,"suspected_source_link":null,"pfas_testing_link":"https://drive.google.com/file/d/1GMlyOu26Wz3RfVZxb0ZmcSTEE-z4MLqg/view?usp=sharing","site_ref_link":null,"state_ref_link":null,"ObjectId":2968}},{"type":"Feature","id":2969,"geometry":{"type":"Point","coordinates":[-97.144833,47.953079]},"properties":{"site_name":"Grand Forks Wastewater Treatment Plant","other_site_names":null,"state":"North Dakota","industry":"WWTP","matrix_type":"Other Water","matrix":"Wastewater","year":2018,"pfoa":"10","pfos":"15","total_pfas":127,"pfas_level":127,"notes":null,"regulation_gvt_link":null,"resources_link":null,"suspected_source_link":null,"pfas_testing_link":"https://drive.google.com/file/d/1GMlyOu26Wz3RfVZxb0ZmcSTEE-z4MLqg/view?usp=sharing","site_ref_link":null,"state_ref_link":null,"ObjectId":2969}},{"type":"Feature","id":2970,"geometry":{"type":"Point","coordinates":[-102.618153,45.989496]},"properties":{"site_name":"Hettinger Wastewater Treatment Plant","other_site_names":null,"state":"North Dakota","industry":"WWTP","matrix_type":"Other Water","matrix":"Wastewater","year":2018,"pfoa":"35","pfos":"23","total_pfas":190,"pfas_level":190,"notes":null,"regulation_gvt_link":null,"resources_link":null,"suspected_source_link":null,"pfas_testing_link":"https://drive.google.com/file/d/1GMlyOu26Wz3RfVZxb0ZmcSTEE-z4MLqg/view?usp=sharing","site_ref_link":null,"state_ref_link":null,"ObjectId":2970}},{"type":"Feature","id":2971,"geometry":{"type":"Point","coordinates":[-99.712767,46.267486]},"properties":{"site_name":"Jahner Landfill","other_site_names":null,"state":"North Dakota","industry":"Landfill","matrix_type":"Other Water","matrix":"Leachate","year":2018,"pfoa":"340","pfos":"43","total_pfas":2764,"pfas_level":2764,"notes":null,"regulation_gvt_link":null,"resources_link":null,"suspected_source_link":null,"pfas_testing_link":"https://drive.google.com/file/d/1GMlyOu26Wz3RfVZxb0ZmcSTEE-z4MLqg/view?usp=sharing","site_ref_link":null,"state_ref_link":null,"ObjectId":2971}},{"type":"Feature","id":2972,"geometry":{"type":"Point","coordinates":[-98.649172,46.888969]},"properties":{"site_name":"Jamestown Cell D Wastewater Treatment Plant","other_site_names":null,"state":"North Dakota","industry":"WWTP","matrix_type":"Other Water","matrix":"Wastewater","year":2018,"pfoa":"8","pfos":"7","total_pfas":65,"pfas_level":65,"notes":null,"regulation_gvt_link":null,"resources_link":null,"suspected_source_link":null,"pfas_testing_link":"https://drive.google.com/file/d/1GMlyOu26Wz3RfVZxb0ZmcSTEE-z4MLqg/view?usp=sharing","site_ref_link":null,"state_ref_link":null,"ObjectId":2972}},{"type":"Feature","id":2973,"geometry":{"type":"Point","coordinates":[-98.649224,46.888856]},"properties":{"site_name":"Jamestown Wastewater Treatment Plant","other_site_names":null,"state":"North Dakota","industry":"WWTP","matrix_type":"Other Water","matrix":"Wastewater","year":2018,"pfoa":"2","pfos":"3","total_pfas":30,"pfas_level":30,"notes":null,"regulation_gvt_link":null,"resources_link":null,"suspected_source_link":null,"pfas_testing_link":"https://drive.google.com/file/d/1GMlyOu26Wz3RfVZxb0ZmcSTEE-z4MLqg/view?usp=sharing","site_ref_link":null,"state_ref_link":null,"ObjectId":2973}},{"type":"Feature","id":2974,"geometry":{"type":"Point","coordinates":[-101.099888,47.976792]},"properties":{"site_name":"McDaniel Landfill","other_site_names":null,"state":"North Dakota","industry":"Landfill","matrix_type":"Other Water","matrix":"Leachate","year":2018,"pfoa":"1700","pfos":"310","total_pfas":8134,"pfas_level":8134,"notes":null,"regulation_gvt_link":null,"resources_link":null,"suspected_source_link":null,"pfas_testing_link":"https://drive.google.com/file/d/1GMlyOu26Wz3RfVZxb0ZmcSTEE-z4MLqg/view?usp=sharing","site_ref_link":null,"state_ref_link":null,"ObjectId":2974}},{"type":"Feature","id":2975,"geometry":{"type":"Point","coordinates":[-103.420361,47.775732]},"properties":{"site_name":"McKenzie County Landfill","other_site_names":null,"state":"North Dakota","industry":"Landfill","matrix_type":"Other Water","matrix":"Leachate","year":2018,"pfoa":"52","pfos":"6","total_pfas":677,"pfas_level":677,"notes":null,"regulation_gvt_link":null,"resources_link":null,"suspected_source_link":null,"pfas_testing_link":"https://drive.google.com/file/d/1GMlyOu26Wz3RfVZxb0ZmcSTEE-z4MLqg/view?usp=sharing","site_ref_link":null,"state_ref_link":null,"ObjectId":2975}},{"type":"Feature","id":2976,"geometry":{"type":"Point","coordinates":[-101.344912,48.212991]},"properties":{"site_name":"Minot Landfill","other_site_names":null,"state":"North Dakota","industry":"Landfill","matrix_type":"Other Water","matrix":"Leachate","year":2018,"pfoa":"250","pfos":"45","total_pfas":2388,"pfas_level":2388,"notes":null,"regulation_gvt_link":null,"resources_link":null,"suspected_source_link":null,"pfas_testing_link":"https://drive.google.com/file/d/1GMlyOu26Wz3RfVZxb0ZmcSTEE-z4MLqg/view?usp=sharing","site_ref_link":null,"state_ref_link":null,"ObjectId":2976}},{"type":"Feature","id":2977,"geometry":{"type":"Point","coordinates":[-101.314929,48.227343]},"properties":{"site_name":"Minot Wastewater Treatment Plant","other_site_names":null,"state":"North Dakota","industry":"WWTP","matrix_type":"Other Water","matrix":"Wastewater","year":2018,"pfoa":"29","pfos":"12","total_pfas":177,"pfas_level":177,"notes":null,"regulation_gvt_link":null,"resources_link":null,"suspected_source_link":null,"pfas_testing_link":"https://drive.google.com/file/d/1GMlyOu26Wz3RfVZxb0ZmcSTEE-z4MLqg/view?usp=sharing","site_ref_link":null,"state_ref_link":null,"ObjectId":2977}},{"type":"Feature","id":2978,"geometry":{"type":"Point","coordinates":[-103.005279,48.876061]},"properties":{"site_name":"Noonan Landfill","other_site_names":null,"state":"North Dakota","industry":"Landfill","matrix_type":"Other Water","matrix":"Leachate","year":2018,"pfoa":"140","pfos":"15","total_pfas":1499,"pfas_level":1499,"notes":null,"regulation_gvt_link":null,"resources_link":null,"suspected_source_link":null,"pfas_testing_link":"https://drive.google.com/file/d/1GMlyOu26Wz3RfVZxb0ZmcSTEE-z4MLqg/view?usp=sharing","site_ref_link":null,"state_ref_link":null,"ObjectId":2978}},{"type":"Feature","id":2979,"geometry":{"type":"Point","coordinates":[-99.7812,47.136075]},"properties":{"site_name":"Robinson Wastewater Treatment Plant","other_site_names":null,"state":"North Dakota","industry":"WWTP","matrix_type":"Other Water","matrix":"Wastewater","year":2018,"pfoa":"3","pfos":"2","total_pfas":13,"pfas_level":13,"notes":null,"regulation_gvt_link":null,"resources_link":null,"suspected_source_link":null,"pfas_testing_link":"https://drive.google.com/file/d/1GMlyOu26Wz3RfVZxb0ZmcSTEE-z4MLqg/view?usp=sharing","site_ref_link":null,"state_ref_link":null,"ObjectId":2979}},{"type":"Feature","id":2980,"geometry":{"type":"Point","coordinates":[-101.099754,47.978758]},"properties":{"site_name":"Sawyer Landfill Facility","other_site_names":null,"state":"North Dakota","industry":"Landfill","matrix_type":"Other Water","matrix":"Leachate","year":2018,"pfoa":"160","pfos":"95","total_pfas":11367,"pfas_level":11367,"notes":"Testing included five areas of the landfill facility: S Pond Evap Basin 1 Landfill, S Pond Evap Basin 2 Landfill, S Pond Evap Basin 3 Landfill, N Pond West Landfill, N Pond East Landfill","regulation_gvt_link":null,"resources_link":null,"suspected_source_link":null,"pfas_testing_link":"https://drive.google.com/file/d/1GMlyOu26Wz3RfVZxb0ZmcSTEE-z4MLqg/view?usp=sharing","site_ref_link":null,"state_ref_link":null,"ObjectId":2980}},{"type":"Feature","id":2981,"geometry":{"type":"Point","coordinates":[-97.9099,48.916225]},"properties":{"site_name":"Walhalla Wastewater Treatment Plant","other_site_names":null,"state":"North Dakota","industry":"WWTP","matrix_type":"Other Water","matrix":"Wastewater","year":2018,"pfoa":"9","pfos":"5","total_pfas":56,"pfas_level":56,"notes":null,"regulation_gvt_link":null,"resources_link":null,"suspected_source_link":null,"pfas_testing_link":"https://drive.google.com/file/d/1GMlyOu26Wz3RfVZxb0ZmcSTEE-z4MLqg/view?usp=sharing","site_ref_link":null,"state_ref_link":null,"ObjectId":2981}},{"type":"Feature","id":2982,"geometry":{"type":"Point","coordinates":[-103.580401,48.165872]},"properties":{"site_name":"Williston Landfill","other_site_names":null,"state":"North Dakota","industry":"Landfill","matrix_type":"Other Water","matrix":"Leachate","year":2018,"pfoa":"260","pfos":"19","total_pfas":1986,"pfas_level":1986,"notes":null,"regulation_gvt_link":null,"resources_link":null,"suspected_source_link":null,"pfas_testing_link":"https://drive.google.com/file/d/1GMlyOu26Wz3RfVZxb0ZmcSTEE-z4MLqg/view?usp=sharing","site_ref_link":null,"state_ref_link":null,"ObjectId":2982}}]}