{"type":"FeatureCollection","crs":{"type":"name","properties":{"name":"EPSG:4326"}},"features":[{"type":"Feature","id":101,"geometry":{"type":"Point","coordinates":[-115.861978,43.044413]},"properties":{"site_name":"Mountain Home Air Force Base","other_site_names":null,"state":"Idaho","industry":"Military","matrix_type":"Groundwater","matrix":"Groundwater","year":2018,"pfoa":"160","pfos":"118","total_pfas":1240,"pfas_level":1240,"notes":"AFFF used on Mountain Home Air Force Base","regulation_gvt_link":"https://www.mountainhome.af.mil/News/Article-Display/Article/954734/mountain-home-afb-drinking-water-health-advisory/","resources_link":"MHAFB: https://www.mountainhome.af.mil/News/Article-Display/Article/954734/mountain-home-afb-drinking-water-health-advisory/","suspected_source_link":"https://drive.google.com/file/d/1EUMAiROzk8OxvPAWubv0xGGH9zI6mw4d/view?usp=drive_link ","pfas_testing_link":"https://drive.google.com/file/d/1N7fxhPADBafyI5cNtqRU_E3TFODuyXQy/view?usp=sharing","site_ref_link":"https://drive.google.com/drive/u/0/folders/1ryUysikIuACSTJMxmdIyjPceAxglEG4E","state_ref_link":"https://drive.google.com/drive/u/1/folders/1JrOuHF55I2R1qLgFxC2uFk1bc-qon9hj","ObjectId":101}},{"type":"Feature","id":115,"geometry":{"type":"Point","coordinates":[-116.230522,43.559692]},"properties":{"site_name":"Boise Air Terminal","other_site_names":"Gowen Field Air National Guard Base","state":"Idaho","industry":"Military","matrix_type":"Other Water","matrix":"Surface Water","year":2018,"pfoa":"130","pfos":"590","total_pfas":1693,"pfas_level":1693,"notes":"AFFF used at Gowen Field Air National Guard Base","regulation_gvt_link":"N/A","resources_link":"IDEQ: http://deq.idaho.gov/water-quality/drinking-water/drinking-water-health-advisories/","suspected_source_link":"https://drive.google.com/drive/folders/1q2Pxgl5Hm8zblk0QlYUNdj2mNbXiCYUR","pfas_testing_link":null,"site_ref_link":"https://drive.google.com/drive/u/0/folders/1q2Pxgl5Hm8zblk0QlYUNdj2mNbXiCYUR","state_ref_link":"https://drive.google.com/file/d/1NuAuVFnHIQXFHOexC1kzNInZ3v69gjiC/view?usp=sharing","ObjectId":115}},{"type":"Feature","id":1225,"geometry":{"type":"Point","coordinates":[-112.933334,43.572224]},"properties":{"site_name":"Idaho National Laboratory","other_site_names":"Idaho National Engineering Laboratory","state":"Idaho","industry":"Industry","matrix_type":"Groundwater","matrix":"Groundwater","year":2021,"pfoa":"1","pfos":"2","total_pfas":null,"pfas_level":2,"notes":null,"regulation_gvt_link":"https://www.energy.gov/sites/default/files/2022-11/DOE%20Initial%20PFAS%20Assessment%20-508.pdf","resources_link":null,"suspected_source_link":null,"pfas_testing_link":null,"site_ref_link":"DOE Initial PFAS Assessment -508.pdf","state_ref_link":null,"ObjectId":1225}},{"type":"Feature","id":2212,"geometry":{"type":"Point","coordinates":[-115.861978,43.044413]},"properties":{"site_name":"Mountain Home Air Force Base","other_site_names":null,"state":"Idaho","industry":"Military","matrix_type":"Groundwater","matrix":"Groundwater","year":2018,"pfoa":"160","pfos":"118","total_pfas":1240,"pfas_level":1240,"notes":"AFFF used on Mountain Home Air Force Base","regulation_gvt_link":"https://www.mountainhome.af.mil/News/Article-Display/Article/954734/mountain-home-afb-drinking-water-health-advisory/","resources_link":"MHAFB: https://www.mountainhome.af.mil/News/Article-Display/Article/954734/mountain-home-afb-drinking-water-health-advisory/","suspected_source_link":"https://drive.google.com/file/d/1EUMAiROzk8OxvPAWubv0xGGH9zI6mw4d/view?usp=drive_link ","pfas_testing_link":"https://drive.google.com/file/d/1N7fxhPADBafyI5cNtqRU_E3TFODuyXQy/view?usp=sharing","site_ref_link":"https://drive.google.com/drive/u/0/folders/1ryUysikIuACSTJMxmdIyjPceAxglEG4E","state_ref_link":"https://drive.google.com/drive/u/1/folders/1JrOuHF55I2R1qLgFxC2uFk1bc-qon9hj","ObjectId":2212}},{"type":"Feature","id":2213,"geometry":{"type":"Point","coordinates":[-116.230522,43.559692]},"properties":{"site_name":"Boise Air Terminal","other_site_names":"Gowen Field Air National Guard Base","state":"Idaho","industry":"Military","matrix_type":"Other Water","matrix":"Surface Water","year":2018,"pfoa":"130","pfos":"590","total_pfas":1693,"pfas_level":1693,"notes":"AFFF used at Gowen Field Air National Guard Base","regulation_gvt_link":"N/A","resources_link":"IDEQ: http://deq.idaho.gov/water-quality/drinking-water/drinking-water-health-advisories/","suspected_source_link":"https://drive.google.com/drive/folders/1q2Pxgl5Hm8zblk0QlYUNdj2mNbXiCYUR","pfas_testing_link":null,"site_ref_link":"https://drive.google.com/drive/u/0/folders/1q2Pxgl5Hm8zblk0QlYUNdj2mNbXiCYUR","state_ref_link":"https://drive.google.com/file/d/1NuAuVFnHIQXFHOexC1kzNInZ3v69gjiC/view?usp=sharing","ObjectId":2213}},{"type":"Feature","id":4137,"geometry":{"type":"Point","coordinates":[-112.933334,43.572224]},"properties":{"site_name":"Idaho National Laboratory","other_site_names":"Idaho National Engineering Laboratory","state":"Idaho","industry":"Industry","matrix_type":"Groundwater","matrix":"Groundwater","year":2021,"pfoa":"1","pfos":"2","total_pfas":null,"pfas_level":2,"notes":null,"regulation_gvt_link":"https://www.energy.gov/sites/default/files/2022-11/DOE%20Initial%20PFAS%20Assessment%20-508.pdf","resources_link":null,"suspected_source_link":null,"pfas_testing_link":null,"site_ref_link":"DOE Initial PFAS Assessment -508.pdf","state_ref_link":null,"ObjectId":4137}}]}