{"type":"FeatureCollection","crs":{"type":"name","properties":{"name":"EPSG:4326"}},"features":[{"type":"Feature","id":250,"geometry":{"type":"Point","coordinates":[-86.345656,32.375406]},"properties":{"site_name":"Maxwell-Gunter Air Force Base","other_site_names":null,"state":"Alabama","industry":"Military","matrix_type":"Groundwater","matrix":"Groundwater","year":2017,"pfoa":"84,000","pfos":"38,000","total_pfas":540637,"pfas_level":540637,"notes":"PFOS, PFOA, and PFOS+PFOA exceeded the USEPA HA value during the 2013 sampling event within FTA No. 2, while PFOS+PFOA exceeded the USEPA HA value during the November 2017 SI re-sampling event in one monitoring well installed adjacent to FTA No. 2 along the installation boundary. \n\nHuman groundwater receptors via the ingestion pathway are not present for AFFF Release Area 1 since the installation utilizes drinking water supplied by city of Montgomery (CH2M HILL, 2016), and historical documents reviewed indicated that the only private/public wells identified downgradient of the installation to the north were located across a hydrogeologic divide [the Alabama River].  (Air Force, 1.16.2019)","regulation_gvt_link":"N/A","resources_link":"https://ar.afcec-cloud.af.mil/Search.aspx","suspected_source_link":null,"pfas_testing_link":"https://drive.google.com/file/d/1vDzjU9g2heBhe6R3X-uL8zjOebYiXVA1/view?usp=sharing","site_ref_link":"https://drive.google.com/drive/u/1/folders/1udCap1SXpVt2Rg8ln9Na0g0bZ60Mtkaq","state_ref_link":"https://drive.google.com/file/d/14VfL2r043-Fko8ZEawWob-iKFjZCm2UW/view?usp=sharing","ObjectId":250}},{"type":"Feature","id":626,"geometry":{"type":"Point","coordinates":[-86.396328,32.302148]},"properties":{"site_name":"Montgomery Air National Guard Base","other_site_names":"Montgomery Regional Airport, Dannelly Field, Gunter Army Airfield Auxiliary #6","state":"Alabama","industry":"Military","matrix_type":"Groundwater","matrix":"Groundwater","year":2018,"pfoa":"1,200","pfos":"260","total_pfas":9564,"pfas_level":9564,"notes":null,"regulation_gvt_link":null,"resources_link":null,"suspected_source_link":"https://ar.afcec-cloud.af.mil/Search.aspx","pfas_testing_link":"https://drive.google.com/file/d/1pb9LlaNKR9Isor-qMT7zr1Uw4c8TTK1-/view?usp=sharing","site_ref_link":null,"state_ref_link":"https://drive.google.com/file/d/14VfL2r043-Fko8ZEawWob-iKFjZCm2UW/view?usp=sharing","ObjectId":626}},{"type":"Feature","id":670,"geometry":{"type":"Point","coordinates":[-86.75325,33.575291]},"properties":{"site_name":"Sumpter Smith Joint National Guard Base","other_site_names":"Birmingham International Airport, Birmingham Air National Guard 117th Refueling Wing, Alabama Air National Guard Base","state":"Alabama","industry":"Military","matrix_type":"Groundwater","matrix":"Groundwater","year":2018,"pfoa":"230","pfos":"45,000","total_pfas":86060,"pfas_level":86060,"notes":"Firefighting foam used at Birmingham International Airport/ANGB","regulation_gvt_link":"N/A","resources_link":null,"suspected_source_link":null,"pfas_testing_link":"https://drive.google.com/file/d/1NYEDz1EzIC2w7lBfuVS9Gm08v3EjWDDQ/view?usp=sharing","site_ref_link":"https://drive.google.com/drive/u/0/folders/1i1z1AzDjKC_2iCNvJt2m24Pam0tMZF2s","state_ref_link":"https://drive.google.com/file/d/14VfL2r043-Fko8ZEawWob-iKFjZCm2UW/view?usp=sharing","ObjectId":670}},{"type":"Feature","id":1216,"geometry":{"type":"Point","coordinates":[-86.673055,34.646944]},"properties":{"site_name":"USARMY/NASA REDSTONE ARSENAL","other_site_names":"US NASA Marshall Space Flight Center","state":"Alabama","industry":"Military","matrix_type":"Groundwater","matrix":"Groundwater","year":2020,"pfoa":"110,000","pfos":"1,900","total_pfas":115000,"pfas_level":115000,"notes":null,"regulation_gvt_link":"https://aec.army.mil/Portals/115/PFAS/RSA_PFAS_PA-SI.pdf?ver=Ln-XzNlIa8c1JYIqm-oF5A%3D%3D","resources_link":"https://cumulis.epa.gov/supercpad/SiteProfiles/index.cfm?fuseaction=second.cleanup&id=0405545","suspected_source_link":"https://drive.google.com/file/d/1TTPPGeykZHNtlXTxXqBcrgX2wM4Wq_23/view?usp=drive_link","pfas_testing_link":"https://drive.google.com/file/d/1TTPPGeykZHNtlXTxXqBcrgX2wM4Wq_23/view?usp=drive_link","site_ref_link":"https://drive.google.com/file/d/1TTPPGeykZHNtlXTxXqBcrgX2wM4Wq_23/view?usp=drive_link","state_ref_link":"https://drive.google.com/drive/folders/1zJ2VdXVTrW18ziUZk03XdJL6H8kRw5GY?dmr=1&ec=wgc-drive-hero-goto","ObjectId":1216}},{"type":"Feature","id":1317,"geometry":{"type":"Point","coordinates":[-87.072856,34.533918]},"properties":{"site_name":"Mud Tavern Landfill","other_site_names":"Old Moulton Road, Morgan County Landfill","state":"Alabama","industry":"Landfill","matrix_type":"Groundwater","matrix":"Groundwater","year":2019,"pfoa":"67,200","pfos":"25,000","total_pfas":69675,"pfas_level":69675,"notes":"Disposal of PFAS chemicals in landfill from 3M manufacturing facility in Decatur ","regulation_gvt_link":"N/A","resources_link":"http://adem.alabama.gov/programs/water/drinkingwater/pfaspage.cnt","suspected_source_link":"https://www.waaytv.com/content/news/Environmental-group-says-alarming-levels-of-PFAS-chemicals-found-in-Morgan-County--571443371.html","pfas_testing_link":"https://whnt.com/news/decatur/3m-study-finds-high-concentrations-of-pfas-chemicals-at-3-closed-morgan-county-landfills/","site_ref_link":"https://drive.google.com/drive/folders/1k6a7_97ZeyTIu82WPLDuuqYe2V1TBPqJ","state_ref_link":"https://drive.google.com/file/d/14VfL2r043-Fko8ZEawWob-iKFjZCm2UW/view?usp=sharing","ObjectId":1317}},{"type":"Feature","id":1334,"geometry":{"type":"Point","coordinates":[-87.127713,34.605737]},"properties":{"site_name":"Deer Springs Landfill","other_site_names":null,"state":"Alabama","industry":"Landfill","matrix_type":"Groundwater","matrix":"Groundwater","year":2019,"pfoa":null,"pfos":null,"total_pfas":236000,"pfas_level":236000,"notes":null,"regulation_gvt_link":null,"resources_link":"http://adem.alabama.gov/programs/water/drinkingwater/pfaspage.cnt","suspected_source_link":"https://whnt.com/news/decatur/3m-study-finds-high-concentrations-of-pfas-chemicals-at-3-closed-morgan-county-landfills/","pfas_testing_link":"https://whnt.com/news/decatur/3m-study-finds-high-concentrations-of-pfas-chemicals-at-3-closed-morgan-county-landfills/","site_ref_link":null,"state_ref_link":"https://drive.google.com/file/d/14VfL2r043-Fko8ZEawWob-iKFjZCm2UW/view?usp=sharing","ObjectId":1334}},{"type":"Feature","id":1621,"geometry":{"type":"Point","coordinates":[-86.993673,34.586558]},"properties":{"site_name":"Brookhaven/Aquadome Landfill","other_site_names":null,"state":"Alabama","industry":"Landfill","matrix_type":"Groundwater","matrix":"Groundwater","year":2019,"pfoa":null,"pfos":"3,770","total_pfas":null,"pfas_level":3770,"notes":null,"regulation_gvt_link":null,"resources_link":"http://adem.alabama.gov/programs/water/drinkingwater/pfaspage.cnt","suspected_source_link":"https://whnt.com/news/decatur/3m-study-finds-high-concentrations-of-pfas-chemicals-at-3-closed-morgan-county-landfills/","pfas_testing_link":"https://whnt.com/news/decatur/3m-study-finds-high-concentrations-of-pfas-chemicals-at-3-closed-morgan-county-landfills/","site_ref_link":null,"state_ref_link":"https://drive.google.com/file/d/14VfL2r043-Fko8ZEawWob-iKFjZCm2UW/view?usp=sharing","ObjectId":1621}},{"type":"Feature","id":1824,"geometry":{"type":"Point","coordinates":[-85.969439,33.659439]},"properties":{"site_name":"Anniston Army Depot","other_site_names":"Anniston Army Depot (Southeast Industrial Area)","state":"Alabama","industry":"Military","matrix_type":"Groundwater","matrix":"Groundwater","year":2021,"pfoa":"160","pfos":"3,600","total_pfas":4140,"pfas_level":4140,"notes":null,"regulation_gvt_link":"https://aec.army.mil/PFAS/AL/ANAD/","resources_link":null,"suspected_source_link":"https://cumulis.epa.gov/supercpad/cursites/csitinfo.cfm?id=0400443","pfas_testing_link":"https://aec.army.mil/PFAS/AL/ANAD/","site_ref_link":"https://drive.google.com/drive/folders/1Szvc4he1UetfWFMLOcWB-12ZC064cV62?usp=drive_link","state_ref_link":"https://drive.google.com/drive/folders/1zJ2VdXVTrW18ziUZk03XdJL6H8kRw5GY?usp=drive_link","ObjectId":1824}},{"type":"Feature","id":2133,"geometry":{"type":"Point","coordinates":[-86.75325,33.575291]},"properties":{"site_name":"Sumpter Smith Joint National Guard Base","other_site_names":"Birmingham International Airport, Birmingham Air National Guard 117th Refueling Wing, Alabama Air National Guard Base","state":"Alabama","industry":"Military","matrix_type":"Groundwater","matrix":"Groundwater","year":2018,"pfoa":"230","pfos":"45000","total_pfas":86060,"pfas_level":86060,"notes":"Firefighting foam used at Birmingham International Airport/ANGB","regulation_gvt_link":"N/A","resources_link":null,"suspected_source_link":null,"pfas_testing_link":"https://drive.google.com/file/d/1NYEDz1EzIC2w7lBfuVS9Gm08v3EjWDDQ/view?usp=sharing","site_ref_link":"https://drive.google.com/drive/u/0/folders/1i1z1AzDjKC_2iCNvJt2m24Pam0tMZF2s","state_ref_link":"https://drive.google.com/file/d/14VfL2r043-Fko8ZEawWob-iKFjZCm2UW/view?usp=sharing","ObjectId":2133}},{"type":"Feature","id":2134,"geometry":{"type":"Point","coordinates":[-86.345656,32.375406]},"properties":{"site_name":"Maxwell-Gunter Air Force Base","other_site_names":null,"state":"Alabama","industry":"Military","matrix_type":"Groundwater","matrix":"Groundwater","year":2017,"pfoa":"84000","pfos":"38000","total_pfas":540637,"pfas_level":540637,"notes":"PFOS, PFOA, and PFOS+PFOA exceeded the USEPA HA value during the 2013 sampling event within FTA No. 2, while PFOS+PFOA exceeded the USEPA HA value during the November 2017 SI re-sampling event in one monitoring well installed adjacent to FTA No. 2 along the installation boundary. \n\nHuman groundwater receptors via the ingestion pathway are not present for AFFF Release Area 1 since the installation utilizes drinking water supplied by city of Montgomery (CH2M HILL, 2016), and historical documents reviewed indicated that the only private/public wells identified downgradient of the installation to the north were located across a hydrogeologic divide [the Alabama River].  (Air Force, 1.16.2019)","regulation_gvt_link":"N/A","resources_link":"https://ar.afcec-cloud.af.mil/Search.aspx","suspected_source_link":null,"pfas_testing_link":"https://drive.google.com/file/d/1vDzjU9g2heBhe6R3X-uL8zjOebYiXVA1/view?usp=sharing","site_ref_link":"https://drive.google.com/drive/u/1/folders/1udCap1SXpVt2Rg8ln9Na0g0bZ60Mtkaq","state_ref_link":"https://drive.google.com/file/d/14VfL2r043-Fko8ZEawWob-iKFjZCm2UW/view?usp=sharing","ObjectId":2134}},{"type":"Feature","id":2447,"geometry":{"type":"Point","coordinates":[-87.072856,34.533918]},"properties":{"site_name":"Mud Tavern Landfill","other_site_names":"Old Moulton Road, Morgan County Landfill","state":"Alabama","industry":"Landfill","matrix_type":"Groundwater","matrix":"Groundwater","year":2019,"pfoa":"67200","pfos":"25000","total_pfas":69675,"pfas_level":69675,"notes":"Disposal of PFAS chemicals in landfill from 3M manufacturing facility in Decatur ","regulation_gvt_link":"N/A","resources_link":"http://adem.alabama.gov/programs/water/drinkingwater/pfaspage.cnt","suspected_source_link":"https://www.waaytv.com/content/news/Environmental-group-says-alarming-levels-of-PFAS-chemicals-found-in-Morgan-County--571443371.html","pfas_testing_link":"https://whnt.com/news/decatur/3m-study-finds-high-concentrations-of-pfas-chemicals-at-3-closed-morgan-county-landfills/","site_ref_link":"https://drive.google.com/drive/folders/1k6a7_97ZeyTIu82WPLDuuqYe2V1TBPqJ","state_ref_link":"https://drive.google.com/file/d/14VfL2r043-Fko8ZEawWob-iKFjZCm2UW/view?usp=sharing","ObjectId":2447}},{"type":"Feature","id":2911,"geometry":{"type":"Point","coordinates":[-86.396328,32.302148]},"properties":{"site_name":"Montgomery Air National Guard Base","other_site_names":"Montgomery Regional Airport, Dannelly Field, Gunter Army Airfield Auxiliary #6","state":"Alabama","industry":"Military","matrix_type":"Groundwater","matrix":"Groundwater","year":2018,"pfoa":"1200","pfos":"260","total_pfas":9564,"pfas_level":9564,"notes":null,"regulation_gvt_link":null,"resources_link":null,"suspected_source_link":"https://ar.afcec-cloud.af.mil/Search.aspx","pfas_testing_link":"https://drive.google.com/file/d/1pb9LlaNKR9Isor-qMT7zr1Uw4c8TTK1-/view?usp=sharing","site_ref_link":null,"state_ref_link":"https://drive.google.com/file/d/14VfL2r043-Fko8ZEawWob-iKFjZCm2UW/view?usp=sharing","ObjectId":2911}},{"type":"Feature","id":3310,"geometry":{"type":"Point","coordinates":[-85.969439,33.659439]},"properties":{"site_name":"Anniston Army Depot","other_site_names":"Anniston Army Depot (Southeast Industrial Area)","state":"Alabama","industry":"Military","matrix_type":"Groundwater","matrix":"Groundwater","year":2021,"pfoa":"160","pfos":"3600","total_pfas":4140,"pfas_level":4140,"notes":null,"regulation_gvt_link":"https://aec.army.mil/PFAS/AL/ANAD/","resources_link":null,"suspected_source_link":"https://cumulis.epa.gov/supercpad/cursites/csitinfo.cfm?id=0400443","pfas_testing_link":"https://aec.army.mil/PFAS/AL/ANAD/","site_ref_link":"https://drive.google.com/drive/folders/1Szvc4he1UetfWFMLOcWB-12ZC064cV62?usp=drive_link","state_ref_link":"https://drive.google.com/drive/folders/1zJ2VdXVTrW18ziUZk03XdJL6H8kRw5GY?usp=drive_link","ObjectId":3310}},{"type":"Feature","id":3311,"geometry":{"type":"Point","coordinates":[-86.673055,34.646944]},"properties":{"site_name":"USARMY/NASA REDSTONE ARSENAL","other_site_names":"US NASA Marshall Space Flight Center","state":"Alabama","industry":"Military","matrix_type":"Groundwater","matrix":"Groundwater","year":2020,"pfoa":"110000","pfos":"1900","total_pfas":115000,"pfas_level":115000,"notes":null,"regulation_gvt_link":"https://aec.army.mil/Portals/115/PFAS/RSA_PFAS_PA-SI.pdf?ver=Ln-XzNlIa8c1JYIqm-oF5A%3D%3D","resources_link":"https://cumulis.epa.gov/supercpad/SiteProfiles/index.cfm?fuseaction=second.cleanup&id=0405545","suspected_source_link":"https://drive.google.com/file/d/1TTPPGeykZHNtlXTxXqBcrgX2wM4Wq_23/view?usp=drive_link","pfas_testing_link":"https://drive.google.com/file/d/1TTPPGeykZHNtlXTxXqBcrgX2wM4Wq_23/view?usp=drive_link","site_ref_link":"https://drive.google.com/file/d/1TTPPGeykZHNtlXTxXqBcrgX2wM4Wq_23/view?usp=drive_link","state_ref_link":"https://drive.google.com/drive/folders/1zJ2VdXVTrW18ziUZk03XdJL6H8kRw5GY?dmr=1&ec=wgc-drive-hero-goto","ObjectId":3311}},{"type":"Feature","id":3360,"geometry":{"type":"Point","coordinates":[-86.993673,34.586558]},"properties":{"site_name":"Brookhaven/Aquadome Landfill","other_site_names":null,"state":"Alabama","industry":"Landfill","matrix_type":"Groundwater","matrix":"Groundwater","year":2019,"pfoa":null,"pfos":"3770","total_pfas":null,"pfas_level":3770,"notes":null,"regulation_gvt_link":null,"resources_link":"http://adem.alabama.gov/programs/water/drinkingwater/pfaspage.cnt","suspected_source_link":"https://whnt.com/news/decatur/3m-study-finds-high-concentrations-of-pfas-chemicals-at-3-closed-morgan-county-landfills/","pfas_testing_link":"https://whnt.com/news/decatur/3m-study-finds-high-concentrations-of-pfas-chemicals-at-3-closed-morgan-county-landfills/","site_ref_link":null,"state_ref_link":"https://drive.google.com/file/d/14VfL2r043-Fko8ZEawWob-iKFjZCm2UW/view?usp=sharing","ObjectId":3360}},{"type":"Feature","id":3361,"geometry":{"type":"Point","coordinates":[-87.127713,34.605737]},"properties":{"site_name":"Deer Springs Landfill","other_site_names":null,"state":"Alabama","industry":"Landfill","matrix_type":"Groundwater","matrix":"Groundwater","year":2019,"pfoa":null,"pfos":null,"total_pfas":236000,"pfas_level":236000,"notes":null,"regulation_gvt_link":null,"resources_link":"http://adem.alabama.gov/programs/water/drinkingwater/pfaspage.cnt","suspected_source_link":"https://whnt.com/news/decatur/3m-study-finds-high-concentrations-of-pfas-chemicals-at-3-closed-morgan-county-landfills/","pfas_testing_link":"https://whnt.com/news/decatur/3m-study-finds-high-concentrations-of-pfas-chemicals-at-3-closed-morgan-county-landfills/","site_ref_link":null,"state_ref_link":"https://drive.google.com/file/d/14VfL2r043-Fko8ZEawWob-iKFjZCm2UW/view?usp=sharing","ObjectId":3361}}]}