{"type":"FeatureCollection","crs":{"type":"name","properties":{"name":"EPSG:4326"}},"features":[{"type":"Feature","id":46,"geometry":{"type":"Point","coordinates":[-106.41966,32.943896]},"properties":{"site_name":"White Sands Missile Range","other_site_names":null,"state":"New Mexico","industry":"Military","matrix_type":"Other Water","matrix":"Drinking Water","year":2016,"pfoa":null,"pfos":null,"total_pfas":11,"pfas_level":11,"notes":null,"regulation_gvt_link":null,"resources_link":null,"suspected_source_link":null,"pfas_testing_link":"https://cdn3.ewg.org/sites/default/files/u352/EWG_PFASTable-Army_C01.pdf","site_ref_link":"https://drive.google.com/drive/u/0/folders/17vc5JX3Gvo92Bih-kg-GABnBbExIJhXg","state_ref_link":"https://drive.google.com/drive/folders/1zhMVxqwDv6IWsIf1ibFX_qYh5GE6jAfw?usp=sharing","ObjectId":46}},{"type":"Feature","id":215,"geometry":{"type":"Point","coordinates":[-103.318304,34.389784]},"properties":{"site_name":"Cannon Air Force Base","other_site_names":null,"state":"New Mexico","industry":"Military","matrix_type":"Groundwater","matrix":"Groundwater","year":2017,"pfoa":"2,200","pfos":"24,000","total_pfas":27040,"pfas_level":27040,"notes":"AFFF used at Cannon Air Force Base","regulation_gvt_link":"https://www.env.nm.gov/pfas/main/","resources_link":"https://www.env.nm.gov/pfas/main/","suspected_source_link":"http://www.krwg.org/post/cannon-air-force-base-groundwater-contamination","pfas_testing_link":"https://drive.google.com/file/d/1N0_Ty2FSawoKLufmt3ov4c2RsGwR8RyH/view?usp=sharing","site_ref_link":"https://drive.google.com/drive/u/1/folders/11ktgggpemymmpOGCAnk5z4ZvxclHt-Iv","state_ref_link":"https://drive.google.com/drive/u/1/folders/1S7TxvbgEeIga6RhHP0qHd0Wdt4ebhZVO","ObjectId":215}},{"type":"Feature","id":808,"geometry":{"type":"Point","coordinates":[-106.099291,32.84404]},"properties":{"site_name":"Holloman Air Force Base","other_site_names":null,"state":"New Mexico","industry":"Military","matrix_type":"Groundwater","matrix":"Groundwater","year":2018,"pfoa":"254,000","pfos":"1,040,000","total_pfas":1094300,"pfas_level":1094300,"notes":"AFFF used at Holloman Air Force Base","regulation_gvt_link":"https://www.env.nm.gov/pfas/main/","resources_link":"http://afcec.publicadmin-record.us.af.mil/","suspected_source_link":null,"pfas_testing_link":"https://drive.google.com/file/d/1ias6lRHpcUzqfusRwuEKWV2imaPBOoJo/view?usp=sharing","site_ref_link":"https://drive.google.com/drive/u/0/folders/1-mfqyCbmiEfxUpHY1oNa2P_sS1qyW1zW","state_ref_link":"https://drive.google.com/drive/u/1/folders/1S7TxvbgEeIga6RhHP0qHd0Wdt4ebhZVO","ObjectId":808}},{"type":"Feature","id":1052,"geometry":{"type":"Point","coordinates":[-106.083074,35.617884]},"properties":{"site_name":"Army National Guard Santa Fe Readiness Center","other_site_names":"Santa Fe Readiness Center","state":"New Mexico","industry":"Military","matrix_type":"Groundwater","matrix":"Groundwater","year":2023,"pfoa":"25","pfos":"25","total_pfas":null,"pfas_level":50,"notes":"PFAS found in groundwater from private wells tested on site. 3 out of 6 wells had PFAS above the current EPA health advisory level; PFHxS, PFBS, PFNA, and GenX also tested for in wells but specific measurements not available because information on a calculated \"Hazard Index\" was provided instead. Total Hazard Index: 5.2","regulation_gvt_link":null,"resources_link":"https://www.santafecountynm.gov/news/detail/santa-fe-county-announces-grant-to-investigate-pfas-in-la-cienega-and-la-cieneguilla-areas-and-limited-well-water-test-results-from-those-areas","suspected_source_link":"https://www.santafecountynm.gov/news/detail/santa-fe-county-announces-grant-to-investigate-pfas-in-la-cienega-and-la-cieneguilla-areas-and-limited-well-water-test-results-from-those-areas","pfas_testing_link":"https://www.santafecountynm.gov/news/detail/santa-fe-county-announces-grant-to-investigate-pfas-in-la-cienega-and-la-cieneguilla-areas-and-limited-well-water-test-results-from-those-areas","site_ref_link":"https://drive.google.com/file/d/1ZA6HmTghMNcmZz3H0gyIlUhIjV0eOAgj/view?usp=drive_link","state_ref_link":"https://drive.google.com/drive/folders/1S7TxvbgEeIga6RhHP0qHd0Wdt4ebhZVO?usp=drive_link","ObjectId":1052}},{"type":"Feature","id":1704,"geometry":{"type":"Point","coordinates":[-106.3195,35.873967]},"properties":{"site_name":"Los Alamos National Laboratory","other_site_names":null,"state":"New Mexico","industry":"Industry","matrix_type":"Groundwater","matrix":"Groundwater","year":2025,"pfoa":"8","pfos":"4","total_pfas":9,"pfas_level":9,"notes":null,"regulation_gvt_link":"https://www.energy.gov/sites/default/files/2022-11/DOE%20Initial%20PFAS%20Assessment%20-508.pdf","resources_link":"DOE Initial PFAS Assessment -508.pdf","suspected_source_link":null,"pfas_testing_link":"Los Alamos Grounwater Query EIM_EXPORT_05_17_2025.csv","site_ref_link":null,"state_ref_link":"https://www.intellusnm.com/reporting/quick-search/quick-search.cfm","ObjectId":1704}},{"type":"Feature","id":1808,"geometry":{"type":"Point","coordinates":[-106.55057,35.048851]},"properties":{"site_name":"Kirtland Air Force Base","other_site_names":null,"state":"New Mexico","industry":"Military","matrix_type":"Groundwater","matrix":"Groundwater","year":2021,"pfoa":"9","pfos":"980","total_pfas":993,"pfas_level":993,"notes":"AFFF used at Kirtman Air Force Base","regulation_gvt_link":"https://www.env.nm.gov/pfas/main/","resources_link":"https://www.env.nm.gov/pfas/main/","suspected_source_link":"https://www.sfreporter.com/news/2020/03/24/pentagon-ids-four-more-nm-sites-at-risk-of-pfas-contamination/","pfas_testing_link":"https://drive.google.com/file/d/1Qm5P_qNYjV4De8UYLdvACIjdq5kN-MvF/view?usp=sharing","site_ref_link":"https://drive.google.com/drive/u/0/folders/1BtnPC9psGyxx7ZcR4-85tUeQh4d0G2JS","state_ref_link":"https://drive.google.com/drive/u/1/folders/1S7TxvbgEeIga6RhHP0qHd0Wdt4ebhZVO","ObjectId":1808}},{"type":"Feature","id":2349,"geometry":{"type":"Point","coordinates":[-103.318304,34.389784]},"properties":{"site_name":"Cannon Air Force Base","other_site_names":null,"state":"New Mexico","industry":"Military","matrix_type":"Groundwater","matrix":"Groundwater","year":2017,"pfoa":"2200","pfos":"24000","total_pfas":27040,"pfas_level":27040,"notes":"AFFF used at Cannon Air Force Base","regulation_gvt_link":"https://www.env.nm.gov/pfas/main/","resources_link":"https://www.env.nm.gov/pfas/main/","suspected_source_link":"http://www.krwg.org/post/cannon-air-force-base-groundwater-contamination","pfas_testing_link":"https://drive.google.com/file/d/1N0_Ty2FSawoKLufmt3ov4c2RsGwR8RyH/view?usp=sharing","site_ref_link":"https://drive.google.com/drive/u/1/folders/11ktgggpemymmpOGCAnk5z4ZvxclHt-Iv","state_ref_link":"https://drive.google.com/drive/u/1/folders/1S7TxvbgEeIga6RhHP0qHd0Wdt4ebhZVO","ObjectId":2349}},{"type":"Feature","id":2350,"geometry":{"type":"Point","coordinates":[-106.099291,32.84404]},"properties":{"site_name":"Holloman Air Force Base","other_site_names":null,"state":"New Mexico","industry":"Military","matrix_type":"Groundwater","matrix":"Groundwater","year":2018,"pfoa":"254000","pfos":"1040000","total_pfas":1094300,"pfas_level":1094300,"notes":"AFFF used at Holloman Air Force Base","regulation_gvt_link":"https://www.env.nm.gov/pfas/main/","resources_link":"http://afcec.publicadmin-record.us.af.mil/","suspected_source_link":null,"pfas_testing_link":"https://drive.google.com/file/d/1ias6lRHpcUzqfusRwuEKWV2imaPBOoJo/view?usp=sharing","site_ref_link":"https://drive.google.com/drive/u/0/folders/1-mfqyCbmiEfxUpHY1oNa2P_sS1qyW1zW","state_ref_link":"https://drive.google.com/drive/u/1/folders/1S7TxvbgEeIga6RhHP0qHd0Wdt4ebhZVO","ObjectId":2350}},{"type":"Feature","id":2580,"geometry":{"type":"Point","coordinates":[-106.41966,32.943896]},"properties":{"site_name":"White Sands Missile Range","other_site_names":null,"state":"New Mexico","industry":"Military","matrix_type":"Other Water","matrix":"Drinking Water","year":2016,"pfoa":null,"pfos":null,"total_pfas":11,"pfas_level":11,"notes":null,"regulation_gvt_link":null,"resources_link":null,"suspected_source_link":null,"pfas_testing_link":"https://cdn3.ewg.org/sites/default/files/u352/EWG_PFASTable-Army_C01.pdf","site_ref_link":"https://drive.google.com/drive/u/0/folders/17vc5JX3Gvo92Bih-kg-GABnBbExIJhXg","state_ref_link":"https://drive.google.com/drive/folders/1zhMVxqwDv6IWsIf1ibFX_qYh5GE6jAfw?usp=sharing","ObjectId":2580}},{"type":"Feature","id":3306,"geometry":{"type":"Point","coordinates":[-106.083074,35.617884]},"properties":{"site_name":"Army National Guard Santa Fe Readiness Center","other_site_names":"Santa Fe Readiness Center","state":"New Mexico","industry":"Military","matrix_type":"Groundwater","matrix":"Groundwater","year":2023,"pfoa":"25","pfos":"25","total_pfas":null,"pfas_level":50,"notes":"PFAS found in groundwater from private wells tested on site. 3 out of 6 wells had PFAS above the current EPA health advisory level; PFHxS, PFBS, PFNA, and GenX also tested for in wells but specific measurements not available because information on a calculated \"Hazard Index\" was provided instead. Total Hazard Index: 5.2","regulation_gvt_link":null,"resources_link":"https://www.santafecountynm.gov/news/detail/santa-fe-county-announces-grant-to-investigate-pfas-in-la-cienega-and-la-cieneguilla-areas-and-limited-well-water-test-results-from-those-areas","suspected_source_link":"https://www.santafecountynm.gov/news/detail/santa-fe-county-announces-grant-to-investigate-pfas-in-la-cienega-and-la-cieneguilla-areas-and-limited-well-water-test-results-from-those-areas","pfas_testing_link":"https://www.santafecountynm.gov/news/detail/santa-fe-county-announces-grant-to-investigate-pfas-in-la-cienega-and-la-cieneguilla-areas-and-limited-well-water-test-results-from-those-areas","site_ref_link":"https://drive.google.com/file/d/1ZA6HmTghMNcmZz3H0gyIlUhIjV0eOAgj/view?usp=drive_link","state_ref_link":"https://drive.google.com/drive/folders/1S7TxvbgEeIga6RhHP0qHd0Wdt4ebhZVO?usp=drive_link","ObjectId":3306}},{"type":"Feature","id":3338,"geometry":{"type":"Point","coordinates":[-106.55057,35.048851]},"properties":{"site_name":"Kirtland Air Force Base","other_site_names":null,"state":"New Mexico","industry":"Military","matrix_type":"Groundwater","matrix":"Groundwater","year":2021,"pfoa":"9","pfos":"980","total_pfas":993,"pfas_level":993,"notes":"AFFF used at Kirtman Air Force Base","regulation_gvt_link":"https://www.env.nm.gov/pfas/main/","resources_link":"https://www.env.nm.gov/pfas/main/","suspected_source_link":"https://www.sfreporter.com/news/2020/03/24/pentagon-ids-four-more-nm-sites-at-risk-of-pfas-contamination/","pfas_testing_link":"https://drive.google.com/file/d/1Qm5P_qNYjV4De8UYLdvACIjdq5kN-MvF/view?usp=sharing","site_ref_link":"https://drive.google.com/drive/u/0/folders/1BtnPC9psGyxx7ZcR4-85tUeQh4d0G2JS","state_ref_link":"https://drive.google.com/drive/u/1/folders/1S7TxvbgEeIga6RhHP0qHd0Wdt4ebhZVO","ObjectId":3338}},{"type":"Feature","id":4181,"geometry":{"type":"Point","coordinates":[-106.3195,35.873967]},"properties":{"site_name":"Los Alamos National Laboratory","other_site_names":null,"state":"New Mexico","industry":"Industry","matrix_type":"Groundwater","matrix":"Groundwater","year":2025,"pfoa":"8","pfos":"4","total_pfas":9,"pfas_level":9,"notes":null,"regulation_gvt_link":"https://www.energy.gov/sites/default/files/2022-11/DOE%20Initial%20PFAS%20Assessment%20-508.pdf","resources_link":"DOE Initial PFAS Assessment -508.pdf","suspected_source_link":null,"pfas_testing_link":"Los Alamos Grounwater Query EIM_EXPORT_05_17_2025.csv","site_ref_link":null,"state_ref_link":"https://www.intellusnm.com/reporting/quick-search/quick-search.cfm","ObjectId":4181}}]}