{"type":"FeatureCollection","crs":{"type":"name","properties":{"name":"EPSG:4326"}},"features":[{"type":"Feature","id":57,"geometry":{"type":"Point","coordinates":[-71.552641,42.447114]},"properties":{"site_name":"Fort Devens-Sudbury Training Annex","other_site_names":null,"state":"Massachusetts","industry":"Military","matrix_type":"Groundwater","matrix":"Groundwater","year":2016,"pfoa":"27","pfos":"27","total_pfas":60,"pfas_level":60,"notes":"Identified by the Environmental Protection Agency (EPA) as having PFAS contamination. ","regulation_gvt_link":null,"resources_link":"https://semspub.epa.gov/src/collections/01/SC/MAD980520670","suspected_source_link":"https://www.epw.senate.gov/public/index.cfm/superfund-sites-identified-by-epa-to-have-pfas-contamination","pfas_testing_link":"https://semspub.epa.gov/work/01/100018992.pdf","site_ref_link":null,"state_ref_link":null,"ObjectId":57}},{"type":"Feature","id":63,"geometry":{"type":"Point","coordinates":[-70.285365,41.679016]},"properties":{"site_name":"Barnstable County Fire Rescue Training Academy","other_site_names":"Barnstable Municipal Airport","state":"Massachusetts","industry":"Airport","matrix_type":"Groundwater","matrix":"Groundwater","year":2016,"pfoa":"33","pfos":"120","total_pfas":null,"pfas_level":120,"notes":"AFFF used by Barnstable County Fire Rescue Training Academy  and Barnstable Municipal Airport","regulation_gvt_link":"http://eeaonline.eea.state.ma.us/EEA/fileviewer/Default.aspx?formdataid=0&documentid=526261","resources_link":"https://www.mass.gov/info-details/per-and-polyfluoroalkyl-substances-pfas","suspected_source_link":"http://www.townofbarnstable.us/PublicWorks/2016-06-21%20Hyannis%20Water%20PFOS%20Update.pdf ","pfas_testing_link":null,"site_ref_link":"https://drive.google.com/drive/u/1/folders/14m5BGj9l9pOHAg62qn4i58EoN5zufips","state_ref_link":"https://drive.google.com/drive/u/1/folders/1VgdMu6_x_kxf36q2eAIhAEnCpniomQ1Y","ObjectId":63}},{"type":"Feature","id":103,"geometry":{"type":"Point","coordinates":[-71.449751,42.669451]},"properties":{"site_name":"Charles George Reclamation Trust Landfill","other_site_names":null,"state":"Massachusetts","industry":"Landfill","matrix_type":"Groundwater","matrix":"Groundwater","year":2018,"pfoa":null,"pfos":"1,318","total_pfas":null,"pfas_level":1318,"notes":"Identified by the Environmental Protection Agency (EPA) as having PFAS contamination. ","regulation_gvt_link":null,"resources_link":"https://ofmpub.epa.gov/frs_public2/fii_query_detail.disp_program_facility?p_registry_id=110024304028","suspected_source_link":"https://www.epw.senate.gov/public/index.cfm/superfund-sites-identified-by-epa-to-have-pfas-contamination","pfas_testing_link":"https://semspub.epa.gov/work/01/100014131.pdf","site_ref_link":null,"state_ref_link":null,"ObjectId":103}},{"type":"Feature","id":211,"geometry":{"type":"Point","coordinates":[-71.613935,42.545503]},"properties":{"site_name":"Fort Devens","other_site_names":"Devens Reserve Forces Training Area","state":"Massachusetts","industry":"Military","matrix_type":"Groundwater","matrix":"Groundwater","year":2017,"pfoa":null,"pfos":null,"total_pfas":null,"pfas_level":19000,"notes":"AFFF used at Former Fort Devens; currently Devens Reserve Forces Training Area","regulation_gvt_link":"https://www.nae.usace.army.mil/missions/projects-topics/former-fort-devens-environmental-cleanup/","resources_link":"https://www.mass.gov/info-details/per-and-polyfluoroalkyl-substances-pfas","suspected_source_link":"https://drive.google.com/file/d/1EUMAiROzk8OxvPAWubv0xGGH9zI6mw4d/view?usp=drive_link ","pfas_testing_link":null,"site_ref_link":"https://drive.google.com/drive/u/1/folders/1nal1CLtJSN5v6R7NhqxO4FoJcbFf2hk-","state_ref_link":"https://drive.google.com/drive/u/1/folders/1VgdMu6_x_kxf36q2eAIhAEnCpniomQ1Y","ObjectId":211}},{"type":"Feature","id":230,"geometry":{"type":"Point","coordinates":[-70.570095,41.671773]},"properties":{"site_name":"Joint Base Cape Cod","other_site_names":"Otis Air National Guard Base, Coast Guard Air Station Cape Cod, Camp Edwards, Cape Cod Space Force Station, OTIS AIR NATIONAL GUARD BASE/CAMP EDWARDS","state":"Massachusetts","industry":"Military","matrix_type":"Groundwater","matrix":"Groundwater","year":2017,"pfoa":null,"pfos":null,"total_pfas":null,"pfas_level":130000,"notes":"AFFF used at Joint Air Force Base Cape Cod ","regulation_gvt_link":"N/A","resources_link":"https://www.mass.gov/info-details/per-and-polyfluoroalkyl-substances-pfas","suspected_source_link":"http://www.capecodtimes.com/news/20160520/air-force-reacts-to-contaminated-falmouth-water-wells ","pfas_testing_link":"https://www.townofbourne.com/sites/g/files/vyhlif316/f/agendas/5_pfos.pfoa_.pdf","site_ref_link":"https://drive.google.com/drive/u/1/folders/1aopR_iu_3njcBZ9REhuhN5x5l_NVka5j","state_ref_link":"https://drive.google.com/drive/u/1/folders/1VgdMu6_x_kxf36q2eAIhAEnCpniomQ1Y","ObjectId":230}},{"type":"Feature","id":291,"geometry":{"type":"Point","coordinates":[-71.216385,41.877964]},"properties":{"site_name":"Rehoboth National Guard Site","other_site_names":null,"state":"Massachusetts","industry":"Military","matrix_type":"Other Water","matrix":"Drinking Water","year":2018,"pfoa":"1","pfos":"2","total_pfas":null,"pfas_level":3,"notes":null,"regulation_gvt_link":null,"resources_link":"https://www.mass.gov/info-details/per-and-polyfluoroalkyl-substances-pfas","suspected_source_link":"https://drive.google.com/file/d/1g1t60FsMLcfluvkLqorqlbsHnkF_rNZw/view?usp=sharing","pfas_testing_link":"https://drive.google.com/file/d/1g1t60FsMLcfluvkLqorqlbsHnkF_rNZw/view?usp=sharing","site_ref_link":"https://drive.google.com/drive/u/0/folders/17vc5JX3Gvo92Bih-kg-GABnBbExIJhXg","state_ref_link":"https://drive.google.com/drive/u/1/folders/1VgdMu6_x_kxf36q2eAIhAEnCpniomQ1Y","ObjectId":291}},{"type":"Feature","id":459,"geometry":{"type":"Point","coordinates":[-71.289755,42.478418]},"properties":{"site_name":"Bedford Naval Weapons Industrial Reserve Plant","other_site_names":"Naval Weapons Industrial Reserve Plant","state":"Massachusetts","industry":"Military","matrix_type":"Groundwater","matrix":"Groundwater","year":2017,"pfoa":null,"pfos":null,"total_pfas":null,"pfas_level":167,"notes":"AFFF used Bedford Naval Weapons Industrial Reserve Plant","regulation_gvt_link":"N/A","resources_link":"https://www.mass.gov/info-details/per-and-polyfluoroalkyl-substances-pfas","suspected_source_link":"https://drive.google.com/file/d/1EUMAiROzk8OxvPAWubv0xGGH9zI6mw4d/view?usp=drive_link ","pfas_testing_link":null,"site_ref_link":"https://drive.google.com/drive/u/1/folders/10RBDL0T_AipxmnoBDCkSZMw8HqyrtzwD","state_ref_link":"https://drive.google.com/drive/u/1/folders/1VgdMu6_x_kxf36q2eAIhAEnCpniomQ1Y","ObjectId":459}},{"type":"Feature","id":589,"geometry":{"type":"Point","coordinates":[-71.034328,41.68831]},"properties":{"site_name":"Re-Solve, Inc.","other_site_names":null,"state":"Massachusetts","industry":"Superfund Site","matrix_type":"Groundwater","matrix":"Groundwater","year":2018,"pfoa":"13","pfos":"3","total_pfas":27,"pfas_level":27,"notes":"Identified by the Environmental Protection Agency (EPA) as having PFAS contamination. ","regulation_gvt_link":null,"resources_link":"https://cumulis.epa.gov/supercpad/SiteProfiles/index.cfm?fuseaction=second.docdata&id=0100682","suspected_source_link":"https://www.epw.senate.gov/public/index.cfm/superfund-sites-identified-by-epa-to-have-pfas-contamination","pfas_testing_link":"https://semspub.epa.gov/work/01/100026995.pdf","site_ref_link":"https://drive.google.com/drive/u/0/folders/1SlVhuIOH5o4Ypl7aq8tXGXMd38eGjPvA","state_ref_link":"https://drive.google.com/drive/u/0/folders/1QAg9u2Ut7qd61Uu2GxrCY3AUnFBQBuWn","ObjectId":589}},{"type":"Feature","id":606,"geometry":{"type":"Point","coordinates":[-70.612206,41.389271]},"properties":{"site_name":"Martha's Vineyard Airport","other_site_names":null,"state":"Massachusetts","industry":"Airport","matrix_type":"Groundwater","matrix":"Groundwater","year":2018,"pfoa":"1,760","pfos":"219","total_pfas":4896,"pfas_level":4896,"notes":"AFFF used at Martha's Vineyard Airport","regulation_gvt_link":"N/A","resources_link":"https://www.mass.gov/info-details/per-and-polyfluoroalkyl-substances-pfas","suspected_source_link":"https://www.mvtimes.com/2018/12/03/airport-hold-briefing-water-contamination/","pfas_testing_link":null,"site_ref_link":"https://drive.google.com/drive/u/1/folders/1ZSnfCjEVgjSoquBvZp4VC9YJmXxpWJHm","state_ref_link":"https://drive.google.com/drive/u/1/folders/1VgdMu6_x_kxf36q2eAIhAEnCpniomQ1Y","ObjectId":606}},{"type":"Feature","id":632,"geometry":{"type":"Point","coordinates":[-70.942635,42.149387]},"properties":{"site_name":"Naval Air Station South Weymouth","other_site_names":"South Weymouth Naval Air Station","state":"Massachusetts","industry":"Military","matrix_type":"Groundwater","matrix":"Groundwater","year":2018,"pfoa":"2,400","pfos":"3,400","total_pfas":12541,"pfas_level":12541,"notes":"AFFF used at Naval Air Station South Weymouth","regulation_gvt_link":"https://cumulis.epa.gov/supercpad/SiteProfiles/index.cfm?fuseaction=second.Healthenv&id=0101826","resources_link":"https://www.mass.gov/info-details/per-and-polyfluoroalkyl-substances-pfas","suspected_source_link":"https://www.navfac.navy.mil/products_and_services/ev/products_and_services/env_restoration/pfas_reading_room.html","pfas_testing_link":null,"site_ref_link":"https://drive.google.com/drive/u/1/folders/1MK8yT90HSiM7GQ2H6qniWIzSAiG-3Y2u","state_ref_link":"https://drive.google.com/drive/u/1/folders/1VgdMu6_x_kxf36q2eAIhAEnCpniomQ1Y","ObjectId":632}},{"type":"Feature","id":647,"geometry":{"type":"Point","coordinates":[-71.042043,42.744442]},"properties":{"site_name":"Groveland Wells","other_site_names":"Former Valley Manufacturing Products Company","state":"Massachusetts","industry":"Industry","matrix_type":"Groundwater","matrix":"Groundwater","year":2018,"pfoa":"7,900","pfos":"5,000","total_pfas":23000,"pfas_level":23000,"notes":"Identified by the Environmental Protection Agency (EPA) as having PFAS contamination. ","regulation_gvt_link":null,"resources_link":"https://cumulis.epa.gov/supercpad/SiteProfiles/index.cfm?fuseaction=second.docdata&id=0100750","suspected_source_link":"https://www.epw.senate.gov/public/index.cfm/superfund-sites-identified-by-epa-to-have-pfas-contamination","pfas_testing_link":"https://semspub.epa.gov/work/01/100014142.pdf","site_ref_link":null,"state_ref_link":null,"ObjectId":647}},{"type":"Feature","id":660,"geometry":{"type":"Point","coordinates":[-71.276685,42.457231]},"properties":{"site_name":"Hanscom Air Force Base","other_site_names":"Hanscom field/hanscom air force base","state":"Massachusetts","industry":"Military","matrix_type":"Groundwater","matrix":"Groundwater","year":2018,"pfoa":"11,000","pfos":"44,000","total_pfas":44900,"pfas_level":44900,"notes":"AFFF used at Hanscom Air Force Base","regulation_gvt_link":"https://cumulis.epa.gov/supercpad/SiteProfiles/index.cfm?fuseaction=second.cleanup&id=0100967","resources_link":"http://afcec.publicadmin-record.us.af.mil\n\nhttps://www.mass.gov/info-details/per-and-polyfluoroalkyl-substances-pfas","suspected_source_link":null,"pfas_testing_link":"https://drive.google.com/file/d/1UK6_28VZ7uMH9bIHO49-2VKSBl4KKj0h/view?usp=sharing","site_ref_link":"https://drive.google.com/drive/u/0/folders/1_HKf_uJ37xnLDvCCPrEWgfMJy4X325Sf","state_ref_link":"https://drive.google.com/drive/u/1/folders/1VgdMu6_x_kxf36q2eAIhAEnCpniomQ1Y","ObjectId":660}},{"type":"Feature","id":694,"geometry":{"type":"Point","coordinates":[-72.543626,42.199116]},"properties":{"site_name":"Westover Air Reserve Base","other_site_names":null,"state":"Massachusetts","industry":"Military","matrix_type":"Groundwater","matrix":"Groundwater","year":2018,"pfoa":"270,000","pfos":"140,000","total_pfas":313000,"pfas_level":313000,"notes":"AFFF used at Westover Air Reserve Base","regulation_gvt_link":"N/A","resources_link":"http://afcec.publicadmin-record.us.af.mil\n\nhttps://www.mass.gov/info-details/per-and-polyfluoroalkyl-substances-pfas","suspected_source_link":null,"pfas_testing_link":"https://drive.google.com/file/d/1CA8zd1dvmIR0TWOxJ7K3hoTw-FN57Y6s/view?usp=sharing","site_ref_link":"https://drive.google.com/drive/u/0/folders/1ijbOsBd7YL2BpF8p-Aebt2gGvv5hREzB","state_ref_link":"https://drive.google.com/drive/u/1/folders/1VgdMu6_x_kxf36q2eAIhAEnCpniomQ1Y","ObjectId":694}},{"type":"Feature","id":836,"geometry":{"type":"Point","coordinates":[-70.959817,42.842396]},"properties":{"site_name":"MicroFab Inc (Former)","other_site_names":null,"state":"Massachusetts","industry":"Industry","matrix_type":"Groundwater","matrix":"Groundwater","year":2019,"pfoa":"5","pfos":null,"total_pfas":null,"pfas_level":5,"notes":"Identified by the Environmental Protection Agency (EPA) as having PFAS contamination. ","regulation_gvt_link":null,"resources_link":"https://cumulis.epa.gov/supercpad/SiteProfiles/index.cfm?fuseaction=second.docdata&id=0100442","suspected_source_link":"https://www.epw.senate.gov/public/index.cfm/superfund-sites-identified-by-epa-to-have-pfas-contamination","pfas_testing_link":"https://semspub.epa.gov/work/01/100013817.pdf","site_ref_link":null,"state_ref_link":null,"ObjectId":836}},{"type":"Feature","id":855,"geometry":{"type":"Point","coordinates":[-71.410496,42.075197]},"properties":{"site_name":"BJAT LLC","other_site_names":null,"state":"Massachusetts","industry":"Industry","matrix_type":"Unknown","matrix":null,"year":2019,"pfoa":"3","pfos":"4","total_pfas":12,"pfas_level":12,"notes":"Identified by the Environmental Protection Agency (EPA) as having PFAS contamination. ","regulation_gvt_link":null,"resources_link":"https://cumulis.epa.gov/supercpad/SiteProfiles/index.cfm?fuseaction=second.docdata&id=0106144","suspected_source_link":"https://www.epw.senate.gov/public/index.cfm/superfund-sites-identified-by-epa-to-have-pfas-contamination","pfas_testing_link":"https://www.oakbluffsma.gov/DocumentCenter/View/8136/Kristen-Mello-WRAFT---Mar-31-2022","site_ref_link":null,"state_ref_link":null,"ObjectId":855}},{"type":"Feature","id":876,"geometry":{"type":"Point","coordinates":[-71.153785,42.528364]},"properties":{"site_name":"Olin Chemical","other_site_names":null,"state":"Massachusetts","industry":"Industry","matrix_type":"Groundwater","matrix":"Groundwater","year":2019,"pfoa":"11","pfos":"8","total_pfas":20,"pfas_level":20,"notes":"Identified by the Environmental Protection Agency (EPA) as having PFAS contamination. ","regulation_gvt_link":null,"resources_link":"https://cumulis.epa.gov/supercpad/SiteProfiles/index.cfm?fuseaction=second.docdata&id=0100438","suspected_source_link":"https://www.epw.senate.gov/public/index.cfm/superfund-sites-identified-by-epa-to-have-pfas-contamination","pfas_testing_link":"https://semspub.epa.gov/work/01/643158.pdf","site_ref_link":null,"state_ref_link":null,"ObjectId":876}},{"type":"Feature","id":877,"geometry":{"type":"Point","coordinates":[-70.063751,41.256952]},"properties":{"site_name":"Nantucket Memorial Airport","other_site_names":null,"state":"Massachusetts","industry":"Airport","matrix_type":"Groundwater","matrix":"Groundwater","year":2019,"pfoa":null,"pfos":null,"total_pfas":null,"pfas_level":20,"notes":"AFFF use Nantucket Memorial Airport","regulation_gvt_link":"https://nantucket-ma.gov/1574/PFAS","resources_link":"https://www.mass.gov/info-details/per-and-polyfluoroalkyl-substances-pfas","suspected_source_link":"https://www.capecodtimes.com/news/20200712/carcinogenic-chemicals-found-in-nantucket-well-water","pfas_testing_link":"https://www.ack-pfas.com/","site_ref_link":null,"state_ref_link":"https://drive.google.com/drive/u/1/folders/1VgdMu6_x_kxf36q2eAIhAEnCpniomQ1Y","ObjectId":877}},{"type":"Feature","id":939,"geometry":{"type":"Point","coordinates":[-71.49561,42.385432]},"properties":{"site_name":"Precision Coating Facility in Hudson","other_site_names":null,"state":"Massachusetts","industry":"Industry","matrix_type":"Other Water","matrix":"Drinking Water","year":2019,"pfoa":"59","pfos":"10","total_pfas":null,"pfas_level":59,"notes":"Chemicals used at Precision Coating Company Facility ","regulation_gvt_link":"N/A","resources_link":"https://www.mass.gov/info-details/per-and-polyfluoroalkyl-substances-pfas","suspected_source_link":"https://www.mass.gov/doc/map-of-public-drinking-water-supplies-tested-for-pfas-chemicals/download","pfas_testing_link":null,"site_ref_link":"https://drive.google.com/drive/u/0/folders/1_hXV7dfES_aLST9BipHKOund3fj4vmVV","state_ref_link":"https://drive.google.com/drive/u/1/folders/1VgdMu6_x_kxf36q2eAIhAEnCpniomQ1Y","ObjectId":939}},{"type":"Feature","id":1050,"geometry":{"type":"Point","coordinates":[-70.953402,41.661227]},"properties":{"site_name":"Sullivan's Ledge","other_site_names":null,"state":"Massachusetts","industry":"Industry","matrix_type":"Groundwater","matrix":"Groundwater","year":2023,"pfoa":"29","pfos":"10","total_pfas":39,"pfas_level":39,"notes":"Identified by the Environmental Protection Agency (EPA) as having PFAS contamination. ","regulation_gvt_link":null,"resources_link":"https://semspub.epa.gov/src/collections/01/AR/MAD980731343","suspected_source_link":"https://www.epw.senate.gov/public/index.cfm/superfund-sites-identified-by-epa-to-have-pfas-contamination","pfas_testing_link":"https://semspub.epa.gov/work/01/100026857.pdf","site_ref_link":"https://drive.google.com/drive/u/0/folders/1nR9cX_TD9sa5zs5j0lfK2be0YSXp07iE","state_ref_link":"https://drive.google.com/drive/u/0/folders/1QAg9u2Ut7qd61Uu2GxrCY3AUnFBQBuWn","ObjectId":1050}},{"type":"Feature","id":1051,"geometry":{"type":"Point","coordinates":[-71.027908,42.148882]},"properties":{"site_name":"Baird and McQuire Chemical","other_site_names":null,"state":"Massachusetts","industry":"Industry","matrix_type":"Groundwater","matrix":"Groundwater","year":2023,"pfoa":"12","pfos":"24","total_pfas":40,"pfas_level":40,"notes":"Identified by the Environmental Protection Agency (EPA) as having PFAS contamination. ","regulation_gvt_link":null,"resources_link":"https://cumulis.epa.gov/supercpad/cursites/csitinfo.cfm?id=0100392","suspected_source_link":"https://www.epw.senate.gov/public/index.cfm/superfund-sites-identified-by-epa-to-have-pfas-contamination","pfas_testing_link":"https://semspub.epa.gov/work/01/100030928.pdf","site_ref_link":null,"state_ref_link":null,"ObjectId":1051}},{"type":"Feature","id":1062,"geometry":{"type":"Point","coordinates":[-71.468682,42.260108]},"properties":{"site_name":"Nyanza Chemical Waste Dump","other_site_names":"Nyacol Products Inc","state":"Massachusetts","industry":"Waste","matrix_type":"Groundwater","matrix":"Groundwater","year":2023,"pfoa":"3","pfos":"44","total_pfas":83,"pfas_level":83,"notes":"Identified by the Environmental Protection Agency (EPA) as having PFAS contamination. ","regulation_gvt_link":null,"resources_link":"https://semspub.epa.gov/src/collections/01/SC/MAD990685422","suspected_source_link":"https://www.epw.senate.gov/public/index.cfm/superfund-sites-identified-by-epa-to-have-pfas-contamination","pfas_testing_link":"https://semspub.epa.gov/work/01/100029780.pdf","site_ref_link":"https://drive.google.com/drive/u/0/folders/1ybSxab7OAls9OTjRd-JZdexyLH3q8ha3","state_ref_link":"https://drive.google.com/drive/u/0/folders/1QAg9u2Ut7qd61Uu2GxrCY3AUnFBQBuWn","ObjectId":1062}},{"type":"Feature","id":1073,"geometry":{"type":"Point","coordinates":[-71.26771,42.583828]},"properties":{"site_name":"Iron Horse Park","other_site_names":null,"state":"Massachusetts","industry":"Industry","matrix_type":"Groundwater","matrix":"Groundwater","year":2023,"pfoa":"57","pfos":"72","total_pfas":323,"pfas_level":323,"notes":"Identified by the Environmental Protection Agency (EPA) as having PFAS contamination. ","regulation_gvt_link":null,"resources_link":"https://cumulis.epa.gov/supercpad/cursites/cadminrecord.cfm?id=0100524&doc=Y&colid=3765","suspected_source_link":"https://www.epw.senate.gov/public/index.cfm/superfund-sites-identified-by-epa-to-have-pfas-contamination","pfas_testing_link":"https://semspub.epa.gov/work/01/100026903.pdf","site_ref_link":"https://drive.google.com/drive/u/0/folders/1vK56FThH2gjw2ff_Mf9aQjG2ViSZ2PLB","state_ref_link":"https://drive.google.com/drive/u/0/folders/1QAg9u2Ut7qd61Uu2GxrCY3AUnFBQBuWn","ObjectId":1073}},{"type":"Feature","id":1258,"geometry":{"type":"Point","coordinates":[-71.131244,42.495289]},"properties":{"site_name":"Wells G&H","other_site_names":null,"state":"Massachusetts","industry":"Industry","matrix_type":"Groundwater","matrix":"Groundwater","year":2021,"pfoa":"22","pfos":"32","total_pfas":54,"pfas_level":54,"notes":"Identified by the Environmental Protection Agency (EPA) as having PFAS contamination. ","regulation_gvt_link":null,"resources_link":"https://cumulis.epa.gov/supercpad/cursites/csitinfo.cfm?id=0100749","suspected_source_link":"https://www.epw.senate.gov/public/index.cfm/superfund-sites-identified-by-epa-to-have-pfas-contamination","pfas_testing_link":"https://semspub.epa.gov/work/01/682585.pdf","site_ref_link":"https://drive.google.com/drive/u/0/folders/1WMRL8ymhSjZxFfP8JRpzYN1XP5X5b4nm","state_ref_link":"https://drive.google.com/drive/u/0/folders/1QAg9u2Ut7qd61Uu2GxrCY3AUnFBQBuWn","ObjectId":1258}},{"type":"Feature","id":1366,"geometry":{"type":"Point","coordinates":[-73.2748,42.5055]},"properties":{"site_name":"ROSE DISPOSAL PIT","other_site_names":null,"state":"Massachusetts","industry":"Waste","matrix_type":"Groundwater","matrix":"Groundwater","year":2020,"pfoa":"3","pfos":"5","total_pfas":7,"pfas_level":7,"notes":null,"regulation_gvt_link":"https://cumulis.epa.gov/supercpad/SiteProfiles/index.cfm?fuseaction=second.Cleanup&id=0100721#bkground","resources_link":"https://cumulis.epa.gov/supercpad/SiteProfiles/index.cfm?fuseaction=second.Cleanup&id=0100721#bkground","suspected_source_link":"https://semspub.epa.gov/work/01/100031694.pdf","pfas_testing_link":"2024 - Sixth 5-year Review Report.pdf","site_ref_link":"Berkshire County - Rose Disposal Pit - Superfund Site","state_ref_link":"MA","ObjectId":1366}},{"type":"Feature","id":1419,"geometry":{"type":"Point","coordinates":[-71.138987,42.517778]},"properties":{"site_name":"Industri-Plex","other_site_names":null,"state":"Massachusetts","industry":"Industry","matrix_type":"Groundwater","matrix":"Groundwater","year":2020,"pfoa":"27","pfos":"13","total_pfas":56,"pfas_level":56,"notes":"Identified by the Environmental Protection Agency (EPA) as having PFAS contamination. ","regulation_gvt_link":null,"resources_link":"https://cumulis.epa.gov/supercpad/cursites/csitinfo.cfm?id=0100580","suspected_source_link":"https://www.epw.senate.gov/public/index.cfm/superfund-sites-identified-by-epa-to-have-pfas-contamination","pfas_testing_link":"https://semspub.epa.gov/work/01/682503.pdf","site_ref_link":null,"state_ref_link":null,"ObjectId":1419}},{"type":"Feature","id":1603,"geometry":{"type":"Point","coordinates":[-72.718144,42.173596]},"properties":{"site_name":"Barnes Air National Guard Base","other_site_names":"Westfield-Barnes Regional Airport","state":"Massachusetts","industry":"Military","matrix_type":"Groundwater","matrix":"Groundwater","year":2019,"pfoa":"280","pfos":"1,600","total_pfas":3375,"pfas_level":3375,"notes":"AFFF used at Barnes Air National Guard Base and the Westfield-Barnes Regional Airport","regulation_gvt_link":"N/A","resources_link":"https://www.mass.gov/info-details/per-and-polyfluoroalkyl-substances-pfas","suspected_source_link":"http://www.gazettenet.com/Barnes-Aquifer-Protection-Committee-discusses-private-well-testing-in-Westfield-due-recent-findings-of-contamination-7966841","pfas_testing_link":"https://drive.google.com/file/d/1Op6dTP60VvhsUKjs2dMuZbbb4568OgNf/view?usp=sharing","site_ref_link":"https://drive.google.com/drive/folders/16MeBe4g9w_pulQuoERI_jhKkpUrtlang?usp=sharing","state_ref_link":"https://drive.google.com/drive/u/1/folders/1VgdMu6_x_kxf36q2eAIhAEnCpniomQ1Y","ObjectId":1603}},{"type":"Feature","id":1770,"geometry":{"type":"Point","coordinates":[-71.364726,42.271413]},"properties":{"site_name":"Springvale H&T Water Treatment Plant","other_site_names":null,"state":"Massachusetts","industry":"WWTP","matrix_type":"Other Water","matrix":"Drinking Water","year":null,"pfoa":null,"pfos":null,"total_pfas":22,"pfas_level":22,"notes":null,"regulation_gvt_link":null,"resources_link":"https://www.mass.gov/info-details/per-and-polyfluoroalkyl-substances-pfas","suspected_source_link":"https://www.metrowestdailynews.com/story/news/2021/06/16/pfas-natick-drinking-water-massachusetts-contamination-environment/7700915002/","pfas_testing_link":null,"site_ref_link":"https://drive.google.com/file/d/1FH_0spNpO02KvKpBdaa79bQ3xnSXOuj0/view?usp=sharing","state_ref_link":"https://drive.google.com/drive/folders/1VgdMu6_x_kxf36q2eAIhAEnCpniomQ1Y?usp=sharing","ObjectId":1770}},{"type":"Feature","id":1807,"geometry":{"type":"Point","coordinates":[-71.376711,42.628984]},"properties":{"site_name":"54 Richardson Road","other_site_names":null,"state":"Massachusetts","industry":"Unknown","matrix_type":"Groundwater","matrix":"Groundwater","year":2021,"pfoa":null,"pfos":null,"total_pfas":952,"pfas_level":952,"notes":"15/16 wells contained PFAS, 11 were above 20 ppt","regulation_gvt_link":null,"resources_link":null,"suspected_source_link":"https://www.lowellsun.com/2021/05/06/analysis-finds-multiple-areas-of-pfas-at-site-of-temporary-chelmsford-fire-station/","pfas_testing_link":"https://www.townofchelmsford.us/AgendaCenter/ViewFile/Item/3038?fileID=5355","site_ref_link":"https://drive.google.com/drive/folders/1YVtIIZUQI6O_Lsb0O40kUXP6GuJwU-mR?usp=sharing","state_ref_link":"https://drive.google.com/drive/folders/1VgdMu6_x_kxf36q2eAIhAEnCpniomQ1Y?usp=sharing","ObjectId":1807}},{"type":"Feature","id":1890,"geometry":{"type":"Point","coordinates":[-71.251667,42.138749]},"properties":{"site_name":"BLACKBURN & UNION PRIVILEGES","other_site_names":null,"state":"Massachusetts","industry":"Industry","matrix_type":"Groundwater","matrix":"Groundwater","year":2022,"pfoa":"17","pfos":"20","total_pfas":129,"pfas_level":129,"notes":null,"regulation_gvt_link":"https://cumulis.epa.gov/supercpad/cursites/csitinfo.cfm?id=0101713","resources_link":"https://cumulis.epa.gov/supercpad/cursites/csitinfo.cfm?id=0101713","suspected_source_link":"https://semspub.epa.gov/work/01/100033748.pdf","pfas_testing_link":"2025 - SECOND FIVE-YEAR REVIEW REPORT FOR BLACKBURN AND UNION PRIVILEGES SUPERFUND SITE NORFOLK COUNTY, WALPOLE, MASSACHUSETTS.pdf","site_ref_link":"Norfolk County - Blackburn and Union Privileges - Superfund Site ","state_ref_link":"MA","ObjectId":1890}},{"type":"Feature","id":2236,"geometry":{"type":"Point","coordinates":[-70.570095,41.671773]},"properties":{"site_name":"Joint Base Cape Cod","other_site_names":"Otis Air National Guard Base, Coast Guard Air Station Cape Cod, Camp Edwards, Cape Cod Space Force Station, OTIS AIR NATIONAL GUARD BASE/CAMP EDWARDS","state":"Massachusetts","industry":"Military","matrix_type":"Groundwater","matrix":"Groundwater","year":2017,"pfoa":null,"pfos":null,"total_pfas":null,"pfas_level":130000,"notes":"AFFF used at Joint Air Force Base Cape Cod ","regulation_gvt_link":"N/A","resources_link":"https://www.mass.gov/info-details/per-and-polyfluoroalkyl-substances-pfas","suspected_source_link":"http://www.capecodtimes.com/news/20160520/air-force-reacts-to-contaminated-falmouth-water-wells ","pfas_testing_link":"https://www.townofbourne.com/sites/g/files/vyhlif316/f/agendas/5_pfos.pfoa_.pdf","site_ref_link":"https://drive.google.com/drive/u/1/folders/1aopR_iu_3njcBZ9REhuhN5x5l_NVka5j","state_ref_link":"https://drive.google.com/drive/u/1/folders/1VgdMu6_x_kxf36q2eAIhAEnCpniomQ1Y","ObjectId":2236}},{"type":"Feature","id":2237,"geometry":{"type":"Point","coordinates":[-70.285365,41.679016]},"properties":{"site_name":"Barnstable County Fire Rescue Training Academy","other_site_names":"Barnstable Municipal Airport","state":"Massachusetts","industry":"Airport","matrix_type":"Groundwater","matrix":"Groundwater","year":2016,"pfoa":"33","pfos":"120","total_pfas":null,"pfas_level":120,"notes":"AFFF used by Barnstable County Fire Rescue Training Academy  and Barnstable Municipal Airport","regulation_gvt_link":"http://eeaonline.eea.state.ma.us/EEA/fileviewer/Default.aspx?formdataid=0&documentid=526261","resources_link":"https://www.mass.gov/info-details/per-and-polyfluoroalkyl-substances-pfas","suspected_source_link":"http://www.townofbarnstable.us/PublicWorks/2016-06-21%20Hyannis%20Water%20PFOS%20Update.pdf ","pfas_testing_link":null,"site_ref_link":"https://drive.google.com/drive/u/1/folders/14m5BGj9l9pOHAg62qn4i58EoN5zufips","state_ref_link":"https://drive.google.com/drive/u/1/folders/1VgdMu6_x_kxf36q2eAIhAEnCpniomQ1Y","ObjectId":2237}},{"type":"Feature","id":2238,"geometry":{"type":"Point","coordinates":[-72.718144,42.173596]},"properties":{"site_name":"Barnes Air National Guard Base","other_site_names":"Westfield-Barnes Regional Airport","state":"Massachusetts","industry":"Military","matrix_type":"Groundwater","matrix":"Groundwater","year":2019,"pfoa":"280","pfos":"1600","total_pfas":3375,"pfas_level":3375,"notes":"AFFF used at Barnes Air National Guard Base and the Westfield-Barnes Regional Airport","regulation_gvt_link":"N/A","resources_link":"https://www.mass.gov/info-details/per-and-polyfluoroalkyl-substances-pfas","suspected_source_link":"http://www.gazettenet.com/Barnes-Aquifer-Protection-Committee-discusses-private-well-testing-in-Westfield-due-recent-findings-of-contamination-7966841","pfas_testing_link":"https://drive.google.com/file/d/1Op6dTP60VvhsUKjs2dMuZbbb4568OgNf/view?usp=sharing","site_ref_link":"https://drive.google.com/drive/folders/16MeBe4g9w_pulQuoERI_jhKkpUrtlang?usp=sharing","state_ref_link":"https://drive.google.com/drive/u/1/folders/1VgdMu6_x_kxf36q2eAIhAEnCpniomQ1Y","ObjectId":2238}},{"type":"Feature","id":2239,"geometry":{"type":"Point","coordinates":[-71.613935,42.545503]},"properties":{"site_name":"Fort Devens","other_site_names":"Devens Reserve Forces Training Area","state":"Massachusetts","industry":"Military","matrix_type":"Groundwater","matrix":"Groundwater","year":2017,"pfoa":null,"pfos":null,"total_pfas":null,"pfas_level":19000,"notes":"AFFF used at Former Fort Devens; currently Devens Reserve Forces Training Area","regulation_gvt_link":"https://www.nae.usace.army.mil/missions/projects-topics/former-fort-devens-environmental-cleanup/","resources_link":"https://www.mass.gov/info-details/per-and-polyfluoroalkyl-substances-pfas","suspected_source_link":"https://drive.google.com/file/d/1EUMAiROzk8OxvPAWubv0xGGH9zI6mw4d/view?usp=drive_link ","pfas_testing_link":null,"site_ref_link":"https://drive.google.com/drive/u/1/folders/1nal1CLtJSN5v6R7NhqxO4FoJcbFf2hk-","state_ref_link":"https://drive.google.com/drive/u/1/folders/1VgdMu6_x_kxf36q2eAIhAEnCpniomQ1Y","ObjectId":2239}},{"type":"Feature","id":2240,"geometry":{"type":"Point","coordinates":[-71.289755,42.478418]},"properties":{"site_name":"Bedford Naval Weapons Industrial Reserve Plant","other_site_names":"Naval Weapons Industrial Reserve Plant","state":"Massachusetts","industry":"Military","matrix_type":"Groundwater","matrix":"Groundwater","year":2017,"pfoa":null,"pfos":null,"total_pfas":null,"pfas_level":167,"notes":"AFFF used Bedford Naval Weapons Industrial Reserve Plant","regulation_gvt_link":"N/A","resources_link":"https://www.mass.gov/info-details/per-and-polyfluoroalkyl-substances-pfas","suspected_source_link":"https://drive.google.com/file/d/1EUMAiROzk8OxvPAWubv0xGGH9zI6mw4d/view?usp=drive_link ","pfas_testing_link":null,"site_ref_link":"https://drive.google.com/drive/u/1/folders/10RBDL0T_AipxmnoBDCkSZMw8HqyrtzwD","state_ref_link":"https://drive.google.com/drive/u/1/folders/1VgdMu6_x_kxf36q2eAIhAEnCpniomQ1Y","ObjectId":2240}},{"type":"Feature","id":2241,"geometry":{"type":"Point","coordinates":[-70.942635,42.149387]},"properties":{"site_name":"Naval Air Station South Weymouth","other_site_names":"South Weymouth Naval Air Station","state":"Massachusetts","industry":"Military","matrix_type":"Groundwater","matrix":"Groundwater","year":2018,"pfoa":"2400","pfos":"3400","total_pfas":12541,"pfas_level":12541,"notes":"AFFF used at Naval Air Station South Weymouth","regulation_gvt_link":"https://cumulis.epa.gov/supercpad/SiteProfiles/index.cfm?fuseaction=second.Healthenv&id=0101826","resources_link":"https://www.mass.gov/info-details/per-and-polyfluoroalkyl-substances-pfas","suspected_source_link":"https://www.navfac.navy.mil/products_and_services/ev/products_and_services/env_restoration/pfas_reading_room.html","pfas_testing_link":null,"site_ref_link":"https://drive.google.com/drive/u/1/folders/1MK8yT90HSiM7GQ2H6qniWIzSAiG-3Y2u","state_ref_link":"https://drive.google.com/drive/u/1/folders/1VgdMu6_x_kxf36q2eAIhAEnCpniomQ1Y","ObjectId":2241}},{"type":"Feature","id":2242,"geometry":{"type":"Point","coordinates":[-71.276685,42.457231]},"properties":{"site_name":"Hanscom Air Force Base","other_site_names":"Hanscom field/hanscom air force base","state":"Massachusetts","industry":"Military","matrix_type":"Groundwater","matrix":"Groundwater","year":2018,"pfoa":"11000","pfos":"44000","total_pfas":44900,"pfas_level":44900,"notes":"AFFF used at Hanscom Air Force Base","regulation_gvt_link":"https://cumulis.epa.gov/supercpad/SiteProfiles/index.cfm?fuseaction=second.cleanup&id=0100967","resources_link":"http://afcec.publicadmin-record.us.af.mil\n\nhttps://www.mass.gov/info-details/per-and-polyfluoroalkyl-substances-pfas","suspected_source_link":null,"pfas_testing_link":"https://drive.google.com/file/d/1UK6_28VZ7uMH9bIHO49-2VKSBl4KKj0h/view?usp=sharing","site_ref_link":"https://drive.google.com/drive/u/0/folders/1_HKf_uJ37xnLDvCCPrEWgfMJy4X325Sf","state_ref_link":"https://drive.google.com/drive/u/1/folders/1VgdMu6_x_kxf36q2eAIhAEnCpniomQ1Y","ObjectId":2242}},{"type":"Feature","id":2243,"geometry":{"type":"Point","coordinates":[-72.543626,42.199116]},"properties":{"site_name":"Westover Air Reserve Base","other_site_names":null,"state":"Massachusetts","industry":"Military","matrix_type":"Groundwater","matrix":"Groundwater","year":2018,"pfoa":"270000","pfos":"140000","total_pfas":313000,"pfas_level":313000,"notes":"AFFF used at Westover Air Reserve Base","regulation_gvt_link":"N/A","resources_link":"http://afcec.publicadmin-record.us.af.mil\n\nhttps://www.mass.gov/info-details/per-and-polyfluoroalkyl-substances-pfas","suspected_source_link":null,"pfas_testing_link":"https://drive.google.com/file/d/1CA8zd1dvmIR0TWOxJ7K3hoTw-FN57Y6s/view?usp=sharing","site_ref_link":"https://drive.google.com/drive/u/0/folders/1ijbOsBd7YL2BpF8p-Aebt2gGvv5hREzB","state_ref_link":"https://drive.google.com/drive/u/1/folders/1VgdMu6_x_kxf36q2eAIhAEnCpniomQ1Y","ObjectId":2243}},{"type":"Feature","id":2244,"geometry":{"type":"Point","coordinates":[-70.612206,41.389271]},"properties":{"site_name":"Martha's Vineyard Airport","other_site_names":null,"state":"Massachusetts","industry":"Airport","matrix_type":"Groundwater","matrix":"Groundwater","year":2018,"pfoa":"1760","pfos":"219","total_pfas":4896,"pfas_level":4896,"notes":"AFFF used at Martha's Vineyard Airport","regulation_gvt_link":"N/A","resources_link":"https://www.mass.gov/info-details/per-and-polyfluoroalkyl-substances-pfas","suspected_source_link":"https://www.mvtimes.com/2018/12/03/airport-hold-briefing-water-contamination/","pfas_testing_link":null,"site_ref_link":"https://drive.google.com/drive/u/1/folders/1ZSnfCjEVgjSoquBvZp4VC9YJmXxpWJHm","state_ref_link":"https://drive.google.com/drive/u/1/folders/1VgdMu6_x_kxf36q2eAIhAEnCpniomQ1Y","ObjectId":2244}},{"type":"Feature","id":2245,"geometry":{"type":"Point","coordinates":[-71.49561,42.385432]},"properties":{"site_name":"Precision Coating Facility in Hudson","other_site_names":null,"state":"Massachusetts","industry":"Industry","matrix_type":"Other Water","matrix":"Drinking Water","year":2019,"pfoa":"59","pfos":"10","total_pfas":null,"pfas_level":59,"notes":"Chemicals used at Precision Coating Company Facility ","regulation_gvt_link":"N/A","resources_link":"https://www.mass.gov/info-details/per-and-polyfluoroalkyl-substances-pfas","suspected_source_link":"https://www.mass.gov/doc/map-of-public-drinking-water-supplies-tested-for-pfas-chemicals/download","pfas_testing_link":null,"site_ref_link":"https://drive.google.com/drive/u/0/folders/1_hXV7dfES_aLST9BipHKOund3fj4vmVV","state_ref_link":"https://drive.google.com/drive/u/1/folders/1VgdMu6_x_kxf36q2eAIhAEnCpniomQ1Y","ObjectId":2245}},{"type":"Feature","id":2558,"geometry":{"type":"Point","coordinates":[-71.216385,41.877964]},"properties":{"site_name":"Rehoboth National Guard Site","other_site_names":null,"state":"Massachusetts","industry":"Military","matrix_type":"Other Water","matrix":"Drinking Water","year":2018,"pfoa":"1","pfos":"2","total_pfas":null,"pfas_level":3,"notes":null,"regulation_gvt_link":null,"resources_link":"https://www.mass.gov/info-details/per-and-polyfluoroalkyl-substances-pfas","suspected_source_link":"https://drive.google.com/file/d/1g1t60FsMLcfluvkLqorqlbsHnkF_rNZw/view?usp=sharing","pfas_testing_link":"https://drive.google.com/file/d/1g1t60FsMLcfluvkLqorqlbsHnkF_rNZw/view?usp=sharing","site_ref_link":"https://drive.google.com/drive/u/0/folders/17vc5JX3Gvo92Bih-kg-GABnBbExIJhXg","state_ref_link":"https://drive.google.com/drive/u/1/folders/1VgdMu6_x_kxf36q2eAIhAEnCpniomQ1Y","ObjectId":2558}},{"type":"Feature","id":2559,"geometry":{"type":"Point","coordinates":[-71.364726,42.271413]},"properties":{"site_name":"Springvale H&T Water Treatment Plant","other_site_names":null,"state":"Massachusetts","industry":"WWTP","matrix_type":"Other Water","matrix":"Drinking Water","year":null,"pfoa":null,"pfos":null,"total_pfas":22,"pfas_level":22,"notes":null,"regulation_gvt_link":null,"resources_link":"https://www.mass.gov/info-details/per-and-polyfluoroalkyl-substances-pfas","suspected_source_link":"https://www.metrowestdailynews.com/story/news/2021/06/16/pfas-natick-drinking-water-massachusetts-contamination-environment/7700915002/","pfas_testing_link":null,"site_ref_link":"https://drive.google.com/file/d/1FH_0spNpO02KvKpBdaa79bQ3xnSXOuj0/view?usp=sharing","state_ref_link":"https://drive.google.com/drive/folders/1VgdMu6_x_kxf36q2eAIhAEnCpniomQ1Y?usp=sharing","ObjectId":2559}},{"type":"Feature","id":2621,"geometry":{"type":"Point","coordinates":[-71.376711,42.628984]},"properties":{"site_name":"54 Richardson Road","other_site_names":null,"state":"Massachusetts","industry":"Unknown","matrix_type":"Groundwater","matrix":"Groundwater","year":2021,"pfoa":null,"pfos":null,"total_pfas":952,"pfas_level":952,"notes":"15/16 wells contained PFAS, 11 were above 20 ppt","regulation_gvt_link":null,"resources_link":null,"suspected_source_link":"https://www.lowellsun.com/2021/05/06/analysis-finds-multiple-areas-of-pfas-at-site-of-temporary-chelmsford-fire-station/","pfas_testing_link":"https://www.townofchelmsford.us/AgendaCenter/ViewFile/Item/3038?fileID=5355","site_ref_link":"https://drive.google.com/drive/folders/1YVtIIZUQI6O_Lsb0O40kUXP6GuJwU-mR?usp=sharing","state_ref_link":"https://drive.google.com/drive/folders/1VgdMu6_x_kxf36q2eAIhAEnCpniomQ1Y?usp=sharing","ObjectId":2621}},{"type":"Feature","id":2815,"geometry":{"type":"Point","coordinates":[-71.027908,42.148882]},"properties":{"site_name":"Baird and McQuire Chemical","other_site_names":null,"state":"Massachusetts","industry":"Industry","matrix_type":"Groundwater","matrix":"Groundwater","year":2023,"pfoa":"12","pfos":"24","total_pfas":40,"pfas_level":40,"notes":"Identified by the Environmental Protection Agency (EPA) as having PFAS contamination. ","regulation_gvt_link":null,"resources_link":"https://cumulis.epa.gov/supercpad/cursites/csitinfo.cfm?id=0100392","suspected_source_link":"https://www.epw.senate.gov/public/index.cfm/superfund-sites-identified-by-epa-to-have-pfas-contamination","pfas_testing_link":"https://semspub.epa.gov/work/01/100030928.pdf","site_ref_link":null,"state_ref_link":null,"ObjectId":2815}},{"type":"Feature","id":2816,"geometry":{"type":"Point","coordinates":[-71.410496,42.075197]},"properties":{"site_name":"BJAT LLC","other_site_names":null,"state":"Massachusetts","industry":"Industry","matrix_type":"Unknown","matrix":null,"year":2019,"pfoa":"3","pfos":"4","total_pfas":12,"pfas_level":12,"notes":"Identified by the Environmental Protection Agency (EPA) as having PFAS contamination. ","regulation_gvt_link":null,"resources_link":"https://cumulis.epa.gov/supercpad/SiteProfiles/index.cfm?fuseaction=second.docdata&id=0106144","suspected_source_link":"https://www.epw.senate.gov/public/index.cfm/superfund-sites-identified-by-epa-to-have-pfas-contamination","pfas_testing_link":"https://www.oakbluffsma.gov/DocumentCenter/View/8136/Kristen-Mello-WRAFT---Mar-31-2022","site_ref_link":null,"state_ref_link":null,"ObjectId":2816}},{"type":"Feature","id":2817,"geometry":{"type":"Point","coordinates":[-71.449751,42.669451]},"properties":{"site_name":"Charles George Reclamation Trust Landfill","other_site_names":null,"state":"Massachusetts","industry":"Landfill","matrix_type":"Groundwater","matrix":"Groundwater","year":2018,"pfoa":null,"pfos":"1318","total_pfas":null,"pfas_level":1318,"notes":"Identified by the Environmental Protection Agency (EPA) as having PFAS contamination. ","regulation_gvt_link":null,"resources_link":"https://ofmpub.epa.gov/frs_public2/fii_query_detail.disp_program_facility?p_registry_id=110024304028","suspected_source_link":"https://www.epw.senate.gov/public/index.cfm/superfund-sites-identified-by-epa-to-have-pfas-contamination","pfas_testing_link":"https://semspub.epa.gov/work/01/100014131.pdf","site_ref_link":null,"state_ref_link":null,"ObjectId":2817}},{"type":"Feature","id":2818,"geometry":{"type":"Point","coordinates":[-71.552641,42.447114]},"properties":{"site_name":"Fort Devens-Sudbury Training Annex","other_site_names":null,"state":"Massachusetts","industry":"Military","matrix_type":"Groundwater","matrix":"Groundwater","year":2016,"pfoa":"27","pfos":"27","total_pfas":60,"pfas_level":60,"notes":"Identified by the Environmental Protection Agency (EPA) as having PFAS contamination. ","regulation_gvt_link":null,"resources_link":"https://semspub.epa.gov/src/collections/01/SC/MAD980520670","suspected_source_link":"https://www.epw.senate.gov/public/index.cfm/superfund-sites-identified-by-epa-to-have-pfas-contamination","pfas_testing_link":"https://semspub.epa.gov/work/01/100018992.pdf","site_ref_link":null,"state_ref_link":null,"ObjectId":2818}},{"type":"Feature","id":2819,"geometry":{"type":"Point","coordinates":[-71.042043,42.744442]},"properties":{"site_name":"Groveland Wells","other_site_names":"Former Valley Manufacturing Products Company","state":"Massachusetts","industry":"Industry","matrix_type":"Groundwater","matrix":"Groundwater","year":2018,"pfoa":"7900","pfos":"5000","total_pfas":23000,"pfas_level":23000,"notes":"Identified by the Environmental Protection Agency (EPA) as having PFAS contamination. ","regulation_gvt_link":null,"resources_link":"https://cumulis.epa.gov/supercpad/SiteProfiles/index.cfm?fuseaction=second.docdata&id=0100750","suspected_source_link":"https://www.epw.senate.gov/public/index.cfm/superfund-sites-identified-by-epa-to-have-pfas-contamination","pfas_testing_link":"https://semspub.epa.gov/work/01/100014142.pdf","site_ref_link":null,"state_ref_link":null,"ObjectId":2819}},{"type":"Feature","id":2820,"geometry":{"type":"Point","coordinates":[-71.138987,42.517778]},"properties":{"site_name":"Industri-Plex","other_site_names":null,"state":"Massachusetts","industry":"Industry","matrix_type":"Groundwater","matrix":"Groundwater","year":2020,"pfoa":"27","pfos":"13","total_pfas":56,"pfas_level":56,"notes":"Identified by the Environmental Protection Agency (EPA) as having PFAS contamination. ","regulation_gvt_link":null,"resources_link":"https://cumulis.epa.gov/supercpad/cursites/csitinfo.cfm?id=0100580","suspected_source_link":"https://www.epw.senate.gov/public/index.cfm/superfund-sites-identified-by-epa-to-have-pfas-contamination","pfas_testing_link":"https://semspub.epa.gov/work/01/682503.pdf","site_ref_link":null,"state_ref_link":null,"ObjectId":2820}},{"type":"Feature","id":2821,"geometry":{"type":"Point","coordinates":[-71.26771,42.583828]},"properties":{"site_name":"Iron Horse Park","other_site_names":null,"state":"Massachusetts","industry":"Industry","matrix_type":"Groundwater","matrix":"Groundwater","year":2023,"pfoa":"57","pfos":"72","total_pfas":323,"pfas_level":323,"notes":"Identified by the Environmental Protection Agency (EPA) as having PFAS contamination. ","regulation_gvt_link":null,"resources_link":"https://cumulis.epa.gov/supercpad/cursites/cadminrecord.cfm?id=0100524&doc=Y&colid=3765","suspected_source_link":"https://www.epw.senate.gov/public/index.cfm/superfund-sites-identified-by-epa-to-have-pfas-contamination","pfas_testing_link":"https://semspub.epa.gov/work/01/100026903.pdf","site_ref_link":"https://drive.google.com/drive/u/0/folders/1vK56FThH2gjw2ff_Mf9aQjG2ViSZ2PLB","state_ref_link":"https://drive.google.com/drive/u/0/folders/1QAg9u2Ut7qd61Uu2GxrCY3AUnFBQBuWn","ObjectId":2821}},{"type":"Feature","id":2822,"geometry":{"type":"Point","coordinates":[-70.959817,42.842396]},"properties":{"site_name":"MicroFab Inc (Former)","other_site_names":null,"state":"Massachusetts","industry":"Industry","matrix_type":"Groundwater","matrix":"Groundwater","year":2019,"pfoa":"5","pfos":null,"total_pfas":null,"pfas_level":5,"notes":"Identified by the Environmental Protection Agency (EPA) as having PFAS contamination. ","regulation_gvt_link":null,"resources_link":"https://cumulis.epa.gov/supercpad/SiteProfiles/index.cfm?fuseaction=second.docdata&id=0100442","suspected_source_link":"https://www.epw.senate.gov/public/index.cfm/superfund-sites-identified-by-epa-to-have-pfas-contamination","pfas_testing_link":"https://semspub.epa.gov/work/01/100013817.pdf","site_ref_link":null,"state_ref_link":null,"ObjectId":2822}},{"type":"Feature","id":2823,"geometry":{"type":"Point","coordinates":[-71.468682,42.260108]},"properties":{"site_name":"Nyanza Chemical Waste Dump","other_site_names":"Nyacol Products Inc","state":"Massachusetts","industry":"Waste","matrix_type":"Groundwater","matrix":"Groundwater","year":2023,"pfoa":"3","pfos":"44","total_pfas":83,"pfas_level":83,"notes":"Identified by the Environmental Protection Agency (EPA) as having PFAS contamination. ","regulation_gvt_link":null,"resources_link":"https://semspub.epa.gov/src/collections/01/SC/MAD990685422","suspected_source_link":"https://www.epw.senate.gov/public/index.cfm/superfund-sites-identified-by-epa-to-have-pfas-contamination","pfas_testing_link":"https://semspub.epa.gov/work/01/100029780.pdf","site_ref_link":"https://drive.google.com/drive/u/0/folders/1ybSxab7OAls9OTjRd-JZdexyLH3q8ha3","state_ref_link":"https://drive.google.com/drive/u/0/folders/1QAg9u2Ut7qd61Uu2GxrCY3AUnFBQBuWn","ObjectId":2823}},{"type":"Feature","id":2824,"geometry":{"type":"Point","coordinates":[-71.153785,42.528364]},"properties":{"site_name":"Olin Chemical","other_site_names":null,"state":"Massachusetts","industry":"Industry","matrix_type":"Groundwater","matrix":"Groundwater","year":2019,"pfoa":"11","pfos":"8","total_pfas":20,"pfas_level":20,"notes":"Identified by the Environmental Protection Agency (EPA) as having PFAS contamination. ","regulation_gvt_link":null,"resources_link":"https://cumulis.epa.gov/supercpad/SiteProfiles/index.cfm?fuseaction=second.docdata&id=0100438","suspected_source_link":"https://www.epw.senate.gov/public/index.cfm/superfund-sites-identified-by-epa-to-have-pfas-contamination","pfas_testing_link":"https://semspub.epa.gov/work/01/643158.pdf","site_ref_link":null,"state_ref_link":null,"ObjectId":2824}},{"type":"Feature","id":2825,"geometry":{"type":"Point","coordinates":[-71.034328,41.68831]},"properties":{"site_name":"Re-Solve, Inc.","other_site_names":null,"state":"Massachusetts","industry":"Superfund Site","matrix_type":"Groundwater","matrix":"Groundwater","year":2018,"pfoa":"13","pfos":"3","total_pfas":27,"pfas_level":27,"notes":"Identified by the Environmental Protection Agency (EPA) as having PFAS contamination. ","regulation_gvt_link":null,"resources_link":"https://cumulis.epa.gov/supercpad/SiteProfiles/index.cfm?fuseaction=second.docdata&id=0100682","suspected_source_link":"https://www.epw.senate.gov/public/index.cfm/superfund-sites-identified-by-epa-to-have-pfas-contamination","pfas_testing_link":"https://semspub.epa.gov/work/01/100026995.pdf","site_ref_link":"https://drive.google.com/drive/u/0/folders/1SlVhuIOH5o4Ypl7aq8tXGXMd38eGjPvA","state_ref_link":"https://drive.google.com/drive/u/0/folders/1QAg9u2Ut7qd61Uu2GxrCY3AUnFBQBuWn","ObjectId":2825}},{"type":"Feature","id":2826,"geometry":{"type":"Point","coordinates":[-70.953402,41.661227]},"properties":{"site_name":"Sullivan's Ledge","other_site_names":null,"state":"Massachusetts","industry":"Industry","matrix_type":"Groundwater","matrix":"Groundwater","year":2023,"pfoa":"29","pfos":"10","total_pfas":39,"pfas_level":39,"notes":"Identified by the Environmental Protection Agency (EPA) as having PFAS contamination. ","regulation_gvt_link":null,"resources_link":"https://semspub.epa.gov/src/collections/01/AR/MAD980731343","suspected_source_link":"https://www.epw.senate.gov/public/index.cfm/superfund-sites-identified-by-epa-to-have-pfas-contamination","pfas_testing_link":"https://semspub.epa.gov/work/01/100026857.pdf","site_ref_link":"https://drive.google.com/drive/u/0/folders/1nR9cX_TD9sa5zs5j0lfK2be0YSXp07iE","state_ref_link":"https://drive.google.com/drive/u/0/folders/1QAg9u2Ut7qd61Uu2GxrCY3AUnFBQBuWn","ObjectId":2826}},{"type":"Feature","id":2827,"geometry":{"type":"Point","coordinates":[-71.131244,42.495289]},"properties":{"site_name":"Wells G&H","other_site_names":null,"state":"Massachusetts","industry":"Industry","matrix_type":"Groundwater","matrix":"Groundwater","year":2021,"pfoa":"22","pfos":"32","total_pfas":54,"pfas_level":54,"notes":"Identified by the Environmental Protection Agency (EPA) as having PFAS contamination. ","regulation_gvt_link":null,"resources_link":"https://cumulis.epa.gov/supercpad/cursites/csitinfo.cfm?id=0100749","suspected_source_link":"https://www.epw.senate.gov/public/index.cfm/superfund-sites-identified-by-epa-to-have-pfas-contamination","pfas_testing_link":"https://semspub.epa.gov/work/01/682585.pdf","site_ref_link":"https://drive.google.com/drive/u/0/folders/1WMRL8ymhSjZxFfP8JRpzYN1XP5X5b4nm","state_ref_link":"https://drive.google.com/drive/u/0/folders/1QAg9u2Ut7qd61Uu2GxrCY3AUnFBQBuWn","ObjectId":2827}},{"type":"Feature","id":3743,"geometry":{"type":"Point","coordinates":[-70.063751,41.256952]},"properties":{"site_name":"Nantucket Memorial Airport","other_site_names":null,"state":"Massachusetts","industry":"Airport","matrix_type":"Groundwater","matrix":"Groundwater","year":2019,"pfoa":null,"pfos":null,"total_pfas":null,"pfas_level":20,"notes":"AFFF use Nantucket Memorial Airport","regulation_gvt_link":"https://nantucket-ma.gov/1574/PFAS","resources_link":"https://www.mass.gov/info-details/per-and-polyfluoroalkyl-substances-pfas","suspected_source_link":"https://www.capecodtimes.com/news/20200712/carcinogenic-chemicals-found-in-nantucket-well-water","pfas_testing_link":"https://www.ack-pfas.com/","site_ref_link":null,"state_ref_link":"https://drive.google.com/drive/u/1/folders/1VgdMu6_x_kxf36q2eAIhAEnCpniomQ1Y","ObjectId":3743}},{"type":"Feature","id":4141,"geometry":{"type":"Point","coordinates":[-71.251667,42.138749]},"properties":{"site_name":"BLACKBURN & UNION PRIVILEGES","other_site_names":null,"state":"Massachusetts","industry":"Industry","matrix_type":"Groundwater","matrix":"Groundwater","year":2022,"pfoa":"17","pfos":"20","total_pfas":129,"pfas_level":129,"notes":null,"regulation_gvt_link":"https://cumulis.epa.gov/supercpad/cursites/csitinfo.cfm?id=0101713","resources_link":"https://cumulis.epa.gov/supercpad/cursites/csitinfo.cfm?id=0101713","suspected_source_link":"https://semspub.epa.gov/work/01/100033748.pdf","pfas_testing_link":"2025 - SECOND FIVE-YEAR REVIEW REPORT FOR BLACKBURN AND UNION PRIVILEGES SUPERFUND SITE NORFOLK COUNTY, WALPOLE, MASSACHUSETTS.pdf","site_ref_link":"Norfolk County - Blackburn and Union Privileges - Superfund Site ","state_ref_link":"MA","ObjectId":4141}},{"type":"Feature","id":4142,"geometry":{"type":"Point","coordinates":[-73.2748,42.5055]},"properties":{"site_name":"ROSE DISPOSAL PIT","other_site_names":null,"state":"Massachusetts","industry":"Waste","matrix_type":"Groundwater","matrix":"Groundwater","year":2020,"pfoa":"3","pfos":"5","total_pfas":7,"pfas_level":7,"notes":null,"regulation_gvt_link":"https://cumulis.epa.gov/supercpad/SiteProfiles/index.cfm?fuseaction=second.Cleanup&id=0100721#bkground","resources_link":"https://cumulis.epa.gov/supercpad/SiteProfiles/index.cfm?fuseaction=second.Cleanup&id=0100721#bkground","suspected_source_link":"https://semspub.epa.gov/work/01/100031694.pdf","pfas_testing_link":"2024 - Sixth 5-year Review Report.pdf","site_ref_link":"Berkshire County - Rose Disposal Pit - Superfund Site","state_ref_link":"MA","ObjectId":4142}},{"type":"Feature","id":4265,"geometry":{"type":"Point","coordinates":[-71.176561,42.594358]},"properties":{"site_name":"Sutton Brook Disposal Area Superfund Site ","other_site_names":null,"state":"Massachusetts","industry":"Landfill","matrix_type":"Groundwater","matrix":"Groundwater","year":2025,"pfoa":"730","pfos":"103","total_pfas":877,"pfas_level":877,"notes":"Former landfill, listed as an EPA Superfund site in 2001, now used as a solar field","regulation_gvt_link":"https://cumulis.epa.gov/supercpad/SiteProfiles/index.cfm?fuseaction=second.Stayup&id=0100686#Stayup","resources_link":"https://cumulis.epa.gov/supercpad/SiteProfiles/index.cfm?fuseaction=second.Stayup&id=0100686#Stayup","suspected_source_link":"https://drive.google.com/file/d/1CFjtQ1zivVrNzWE-TipDulJAT46geByt/view?usp=drive_link","pfas_testing_link":"https://drive.google.com/file/d/1CFjtQ1zivVrNzWE-TipDulJAT46geByt/view?usp=drive_link","site_ref_link":"https://drive.google.com/drive/folders/19TLQ5gdZScnvYkOqX8PVcGSsie8j14Km?usp=drive_link","state_ref_link":"https://drive.google.com/drive/folders/1QAg9u2Ut7qd61Uu2GxrCY3AUnFBQBuWn?usp=drive_link","ObjectId":4265}}]}