{"type":"FeatureCollection","crs":{"type":"name","properties":{"name":"EPSG:4326"}},"features":[{"type":"Feature","id":43,"geometry":{"type":"Point","coordinates":[-76.727911,39.455214]},"properties":{"site_name":"SSG Isadore S. Jachman Reserve Center, Md.","other_site_names":null,"state":"Maryland","industry":"Military","matrix_type":"Unknown","matrix":null,"year":2016,"pfoa":"2","pfos":null,"total_pfas":null,"pfas_level":2,"notes":null,"regulation_gvt_link":null,"resources_link":null,"suspected_source_link":"https://drive.google.com/file/d/1RR7m215_Wwc0Uoj1-lzRpXbU0ak4uw5_/view?usp=share_link","pfas_testing_link":"https://drive.google.com/file/d/1RR7m215_Wwc0Uoj1-lzRpXbU0ak4uw5_/view?usp=share_link","site_ref_link":"https://drive.google.com/drive/folders/1eUIq5miAlYF2npDMfKR0TxZEBSakA8Y9?usp=share_link","state_ref_link":"https://drive.google.com/drive/folders/14Kh2JWWhuhWLU8DHjaTFHmASWs7qQltK?usp=share_link","ObjectId":43}},{"type":"Feature","id":98,"geometry":{"type":"Point","coordinates":[-77.171032,38.598917]},"properties":{"site_name":"Naval Surface Warfare Center Annapolis, Bay Head Road Annex","other_site_names":"Annapolis NSWC Carderock DIV Det","state":"Maryland","industry":"Military","matrix_type":"Groundwater","matrix":"Groundwater","year":2016,"pfoa":"28,000","pfos":"170,000","total_pfas":null,"pfas_level":173500,"notes":"AFFF used at old Navy base","regulation_gvt_link":null,"resources_link":null,"suspected_source_link":"https://www.navfac.navy.mil/products_and_services/ev/products_and_services/env_restoration/pfas_reading_room.html","pfas_testing_link":"https://drive.google.com/file/d/1fjGFrceNGYeqN6OPKTwVZ8zoNU_YgQJR/view?usp=sharing","site_ref_link":"https://drive.google.com/drive/u/0/folders/13qrzpRyPSjgIu9TIyMEy2bvgaKax1KY4","state_ref_link":null,"ObjectId":98}},{"type":"Feature","id":213,"geometry":{"type":"Point","coordinates":[-76.418068,39.334658]},"properties":{"site_name":"Martin State Air National Guard Base","other_site_names":null,"state":"Maryland","industry":"Military","matrix_type":"Groundwater","matrix":"Groundwater","year":2017,"pfoa":"1,660","pfos":"13,700","total_pfas":20220,"pfas_level":20220,"notes":"AFFF was used at the site. ","regulation_gvt_link":null,"resources_link":"https://mde.maryland.gov/PublicHealth/Pages/PFAS-Landing-Page.aspx","suspected_source_link":"https://www.militarypoisons.org/md-slow-on-pfas.html","pfas_testing_link":"https://drive.google.com/file/d/14UC2kqxtan9zaVqB90dhnaMU6RXwja2J/view?usp=sharing","site_ref_link":"https://drive.google.com/drive/folders/11ne8evaDa0YVPa8YiY4BSYEHmQptPYSQ?usp=sharing","state_ref_link":"https://drive.google.com/drive/u/1/folders/1bA0fTxac0RU2njTEx5JIcAWqZpYygC9D","ObjectId":213}},{"type":"Feature","id":222,"geometry":{"type":"Point","coordinates":[-76.482335,38.983648]},"properties":{"site_name":"US Naval Academy","other_site_names":" ","state":"Maryland","industry":"Military","matrix_type":"Groundwater","matrix":"Groundwater","year":2017,"pfoa":null,"pfos":null,"total_pfas":null,"pfas_level":70000,"notes":"AFFF used at Former Fort Severn - (currently) US Naval Academy","regulation_gvt_link":"N/A","resources_link":"N/A","suspected_source_link":"https://drive.google.com/file/d/1EUMAiROzk8OxvPAWubv0xGGH9zI6mw4d/view?usp=drive_link ","pfas_testing_link":"N/A","site_ref_link":"https://drive.google.com/drive/u/1/folders/15EPaa7ocoNR29u-Eim8j_5SUQTJYm47x","state_ref_link":"https://drive.google.com/drive/u/1/folders/1bA0fTxac0RU2njTEx5JIcAWqZpYygC9D","ObjectId":222}},{"type":"Feature","id":225,"geometry":{"type":"Point","coordinates":[-76.73424,39.104264]},"properties":{"site_name":"Fort Meade","other_site_names":"Fort George G. Meade","state":"Maryland","industry":"Military","matrix_type":"Groundwater","matrix":"Groundwater","year":2017,"pfoa":null,"pfos":null,"total_pfas":null,"pfas_level":87000,"notes":"AFFF used at Fort Meade","regulation_gvt_link":"N/A","resources_link":"https://cumulis.epa.gov/supercpad/cursites/csitinfo.cfm?id=0300435","suspected_source_link":"https://drive.google.com/file/d/1EUMAiROzk8OxvPAWubv0xGGH9zI6mw4d/view?usp=drive_link ","pfas_testing_link":"https://mde.maryland.gov/programs/Water/water_supply/Documents/PFAS_Maryland_UCMR3_2012to2015_Method537.pdf","site_ref_link":"https://drive.google.com/drive/u/1/folders/1x7iQQCXeG8cyqBy62-8ozSnzwFKgXBjQ","state_ref_link":"https://drive.google.com/drive/u/1/folders/1bA0fTxac0RU2njTEx5JIcAWqZpYygC9D","ObjectId":225}},{"type":"Feature","id":237,"geometry":{"type":"Point","coordinates":[-76.115124,39.604842]},"properties":{"site_name":"Bainbridge Naval Training Center","other_site_names":null,"state":"Maryland","industry":"Military","matrix_type":"Groundwater","matrix":"Groundwater","year":2017,"pfoa":null,"pfos":"234,000","total_pfas":null,"pfas_level":234000,"notes":"AFFF was used at the fire training area.","regulation_gvt_link":null,"resources_link":"https://mde.maryland.gov/PublicHealth/Pages/PFAS-Landing-Page.aspx","suspected_source_link":"https://www.civilianexposure.org/report-shows-15-military-bases-in-maryland-contaminated-with-pfas/","pfas_testing_link":"https://mde.maryland.gov/PublicHealth/Documents/Fed_Private_PFAS.pdf","site_ref_link":null,"state_ref_link":"https://drive.google.com/drive/u/1/folders/1bA0fTxac0RU2njTEx5JIcAWqZpYygC9D","ObjectId":237}},{"type":"Feature","id":238,"geometry":{"type":"Point","coordinates":[-76.529632,38.657942]},"properties":{"site_name":"Naval Research Laboratory Chesapeake Bay Detachment","other_site_names":null,"state":"Maryland","industry":"Military","matrix_type":"Groundwater","matrix":"Groundwater","year":2017,"pfoa":"14,900","pfos":"234,000","total_pfas":null,"pfas_level":241110,"notes":"AFFF used at Naval Research Laboratory Chesapeake Bay Detachment","regulation_gvt_link":"https://www.navfac.navy.mil/products_and_services/ev/products_and_services/env_restoration/installation_map/navfac_atlantic/washington/nrl_cbd/nrl_cbd_pfas.html","resources_link":"https://www.navfac.navy.mil/products_and_services/ev/products_and_services/env_restoration/installation_map/navfac_atlantic/washington/nas_patuxent_river/admin_records.html","suspected_source_link":"https://www.navfac.navy.mil/products_and_services/ev/products_and_services/env_restoration/pfas_reading_room.html","pfas_testing_link":"https://www.navfac.navy.mil/content/dam/navfac/Environmental/PDFs/env_restoration/nrl_cbd/NRL-CBD_Off-base_Sampling_Fact_Sheet_10152018.pdf","site_ref_link":"https://drive.google.com/drive/u/1/folders/1og5HTfy7oCE2dxSmzNFpAGb0WNN8rb4U","state_ref_link":"https://drive.google.com/drive/folders/1bA0fTxac0RU2njTEx5JIcAWqZpYygC9D?usp=sharing","ObjectId":238}},{"type":"Feature","id":288,"geometry":{"type":"Point","coordinates":[-75.957072,38.925074]},"properties":{"site_name":"Queen Anne Readiness Center","other_site_names":null,"state":"Maryland","industry":"Military","matrix_type":"Other Water","matrix":"Drinking Water","year":2018,"pfoa":"1","pfos":null,"total_pfas":3,"pfas_level":3,"notes":null,"regulation_gvt_link":null,"resources_link":null,"suspected_source_link":"https://drive.google.com/file/d/1g1t60FsMLcfluvkLqorqlbsHnkF_rNZw/view?usp=sharing","pfas_testing_link":"https://drive.google.com/file/d/1g1t60FsMLcfluvkLqorqlbsHnkF_rNZw/view?usp=sharing","site_ref_link":"https://drive.google.com/drive/u/0/folders/17vc5JX3Gvo92Bih-kg-GABnBbExIJhXg","state_ref_link":"https://drive.google.com/drive/u/1/folders/1bA0fTxac0RU2njTEx5JIcAWqZpYygC9D","ObjectId":288}},{"type":"Feature","id":294,"geometry":{"type":"Point","coordinates":[-76.841356,39.500893]},"properties":{"site_name":"Camp Fretterd Readiness Center","other_site_names":null,"state":"Maryland","industry":"Military","matrix_type":"Other Water","matrix":"Drinking Water","year":2018,"pfoa":"1","pfos":null,"total_pfas":4,"pfas_level":4,"notes":null,"regulation_gvt_link":null,"resources_link":null,"suspected_source_link":"https://drive.google.com/file/d/1g1t60FsMLcfluvkLqorqlbsHnkF_rNZw/view?usp=sharing","pfas_testing_link":"https://drive.google.com/file/d/1g1t60FsMLcfluvkLqorqlbsHnkF_rNZw/view?usp=sharing","site_ref_link":"https://drive.google.com/drive/u/0/folders/17vc5JX3Gvo92Bih-kg-GABnBbExIJhXg","state_ref_link":"https://drive.google.com/drive/u/1/folders/1bA0fTxac0RU2njTEx5JIcAWqZpYygC9D","ObjectId":294}},{"type":"Feature","id":411,"geometry":{"type":"Point","coordinates":[-78.354297,39.644944]},"properties":{"site_name":"Camp Baker","other_site_names":null,"state":"Maryland","industry":"Military","matrix_type":"Unknown","matrix":null,"year":2017,"pfoa":null,"pfos":null,"total_pfas":6,"pfas_level":6,"notes":"AFFF was used at the site. ","regulation_gvt_link":null,"resources_link":"https://mde.maryland.gov/PublicHealth/Pages/PFAS-Landing-Page.aspx","suspected_source_link":"https://www.ewg.org/interactive-maps/2020-military-pfas-sites/map/","pfas_testing_link":"https://www.ewg.org/interactive-maps/2020-military-pfas-sites/map/","site_ref_link":null,"state_ref_link":"https://drive.google.com/drive/folders/1bA0fTxac0RU2njTEx5JIcAWqZpYygC9D?usp=sharing","ObjectId":411}},{"type":"Feature","id":484,"geometry":{"type":"Point","coordinates":[-76.432226,38.272037]},"properties":{"site_name":"Naval Air Station Patuxent River","other_site_names":"Patuxent River Naval Air Station","state":"Maryland","industry":"Military","matrix_type":"Groundwater","matrix":"Groundwater","year":2017,"pfoa":"1,100","pfos":"38","total_pfas":1158,"pfas_level":1158,"notes":"AFFF used at Patuxent River Naval Air Station","regulation_gvt_link":"N/A","resources_link":"https://www.navfac.navy.mil/products_and_services/ev/products_and_services/env_restoration/installation_map/navfac_atlantic/washington/nas_patuxent_river/admin_records.html","suspected_source_link":"https://www.navfac.navy.mil/products_and_services/ev/products_and_services/env_restoration/pfas_reading_room.html","pfas_testing_link":"https://drive.google.com/file/d/1M0MYOgZaOxu-102uWzq5VGw36qBi4wTU/view?usp=sharing","site_ref_link":"https://drive.google.com/drive/u/1/folders/1p0kstu1RNEi79ofar6p4noaPFs9n62KW","state_ref_link":"https://drive.google.com/drive/u/1/folders/1bA0fTxac0RU2njTEx5JIcAWqZpYygC9D","ObjectId":484}},{"type":"Feature","id":494,"geometry":{"type":"Point","coordinates":[-76.988605,39.036166]},"properties":{"site_name":"Naval Surface Warfare Center White Oak","other_site_names":null,"state":"Maryland","industry":"Military","matrix_type":"Groundwater","matrix":"Groundwater","year":2017,"pfoa":"135","pfos":"1,230","total_pfas":2152,"pfas_level":2152,"notes":"AFFF used at White Oak - Naval Surface Warfare Center Dahlgren Division Detachment ","regulation_gvt_link":"N/A","resources_link":"https://www.navfac.navy.mil/products_and_services/ev/products_and_services/env_restoration/installation_map/navfac_atlantic/washington/nas_patuxent_river/admin_records.html","suspected_source_link":"https://www.navfac.navy.mil/products_and_services/ev/products_and_services/env_restoration/pfas_reading_room.html","pfas_testing_link":"https://drive.google.com/file/d/1ls28EWbXXkJYeFaR-lpjXkbeVARM-wwq/view?usp=sharing","site_ref_link":"https://drive.google.com/drive/u/0/folders/17plxjlKifVsobob6FD4br3j241kSKcGK","state_ref_link":"https://drive.google.com/drive/folders/1bA0fTxac0RU2njTEx5JIcAWqZpYygC9D?usp=sharing","ObjectId":494}},{"type":"Feature","id":510,"geometry":{"type":"Point","coordinates":[-78.339928,39.646633]},"properties":{"site_name":"Brigadier General Thomas B. Baker Training Site","other_site_names":"Baker Training Site ","state":"Maryland","industry":"Military","matrix_type":"Other Water","matrix":"Drinking Water","year":2018,"pfoa":"2","pfos":"1","total_pfas":6,"pfas_level":6,"notes":null,"regulation_gvt_link":null,"resources_link":null,"suspected_source_link":"https://drive.google.com/file/d/1g1t60FsMLcfluvkLqorqlbsHnkF_rNZw/view?usp=sharing","pfas_testing_link":"https://drive.google.com/file/d/1g1t60FsMLcfluvkLqorqlbsHnkF_rNZw/view?usp=sharing","site_ref_link":"https://drive.google.com/drive/u/0/folders/17vc5JX3Gvo92Bih-kg-GABnBbExIJhXg","state_ref_link":"https://drive.google.com/drive/u/1/folders/1bA0fTxac0RU2njTEx5JIcAWqZpYygC9D","ObjectId":510}},{"type":"Feature","id":554,"geometry":{"type":"Point","coordinates":[-77.040996,38.548201]},"properties":{"site_name":"La Plata Readiness Center","other_site_names":null,"state":"Maryland","industry":"Military","matrix_type":"Other Water","matrix":"Drinking Water","year":2018,"pfoa":null,"pfos":"2","total_pfas":13,"pfas_level":13,"notes":null,"regulation_gvt_link":null,"resources_link":null,"suspected_source_link":"https://drive.google.com/file/d/1g1t60FsMLcfluvkLqorqlbsHnkF_rNZw/view?usp=sharing","pfas_testing_link":"https://drive.google.com/file/d/1g1t60FsMLcfluvkLqorqlbsHnkF_rNZw/view?usp=sharing","site_ref_link":"https://drive.google.com/drive/u/0/folders/17vc5JX3Gvo92Bih-kg-GABnBbExIJhXg","state_ref_link":"https://drive.google.com/drive/u/1/folders/1bA0fTxac0RU2njTEx5JIcAWqZpYygC9D","ObjectId":554}},{"type":"Feature","id":557,"geometry":{"type":"Point","coordinates":[-77.419431,39.448309]},"properties":{"site_name":"Frederick Readiness Center","other_site_names":null,"state":"Maryland","industry":"Military","matrix_type":"Other Water","matrix":"Drinking Water","year":2018,"pfoa":"3","pfos":"2","total_pfas":15,"pfas_level":15,"notes":null,"regulation_gvt_link":null,"resources_link":null,"suspected_source_link":"https://drive.google.com/file/d/1g1t60FsMLcfluvkLqorqlbsHnkF_rNZw/view?usp=sharing","pfas_testing_link":"https://drive.google.com/file/d/1g1t60FsMLcfluvkLqorqlbsHnkF_rNZw/view?usp=sharing","site_ref_link":"https://drive.google.com/drive/u/0/folders/17vc5JX3Gvo92Bih-kg-GABnBbExIJhXg","state_ref_link":"https://drive.google.com/drive/u/1/folders/1bA0fTxac0RU2njTEx5JIcAWqZpYygC9D","ObjectId":557}},{"type":"Feature","id":561,"geometry":{"type":"Point","coordinates":[-76.507184,39.429269]},"properties":{"site_name":"Gunpowder Military Reservation","other_site_names":null,"state":"Maryland","industry":"Military","matrix_type":"Other Water","matrix":"Drinking Water","year":2018,"pfoa":"4","pfos":"2","total_pfas":16,"pfas_level":16,"notes":null,"regulation_gvt_link":null,"resources_link":null,"suspected_source_link":"https://drive.google.com/file/d/1g1t60FsMLcfluvkLqorqlbsHnkF_rNZw/view?usp=sharing","pfas_testing_link":"https://drive.google.com/file/d/1g1t60FsMLcfluvkLqorqlbsHnkF_rNZw/view?usp=sharing","site_ref_link":"https://drive.google.com/drive/u/0/folders/17vc5JX3Gvo92Bih-kg-GABnBbExIJhXg","state_ref_link":"https://drive.google.com/drive/u/1/folders/1bA0fTxac0RU2njTEx5JIcAWqZpYygC9D","ObjectId":561}},{"type":"Feature","id":604,"geometry":{"type":"Point","coordinates":[-76.849169,38.69751]},"properties":{"site_name":"Brandywine DRMO","other_site_names":null,"state":"Maryland","industry":"Military","matrix_type":"Groundwater","matrix":"Groundwater","year":2018,"pfoa":"4,400","pfos":"250","total_pfas":4520,"pfas_level":4520,"notes":"Identified by the Environmental Protection Agency (EPA) as having PFAS contamination. ","regulation_gvt_link":null,"resources_link":"https://cumulis.epa.gov/supercpad/SiteProfiles/index.cfm?fuseaction=second.docdata&id=0304462","suspected_source_link":"https://www.epw.senate.gov/public/index.cfm/superfund-sites-identified-by-epa-to-have-pfas-contamination","pfas_testing_link":"https://mde.maryland.gov/Documents/PFC%20Final%20Joint%20Base%20Andrews%20SI%20Report%2007%20May%202018.pdf","site_ref_link":null,"state_ref_link":null,"ObjectId":604}},{"type":"Feature","id":658,"geometry":{"type":"Point","coordinates":[-76.883626,38.79652]},"properties":{"site_name":"Joint Base Andrews","other_site_names":"Andrews Air Force Base","state":"Maryland","industry":"Military","matrix_type":"Groundwater","matrix":"Groundwater","year":2018,"pfoa":"16,000","pfos":"33,000","total_pfas":40100,"pfas_level":40100,"notes":"AFFF used at Joint Base Andrews","regulation_gvt_link":"N/A","resources_link":"http://afcec.publicadmin-record.us.af.mil","suspected_source_link":null,"pfas_testing_link":"https://drive.google.com/file/d/1tWbgtOOlJ2fIvbescNeFa7fzxNMxsK01/view?usp=sharing","site_ref_link":"https://drive.google.com/drive/u/0/folders/1_PABuWcJsK5vRDsJ4_8nUTqEm7tptqJp","state_ref_link":"https://drive.google.com/drive/u/1/folders/1bA0fTxac0RU2njTEx5JIcAWqZpYygC9D","ObjectId":658}},{"type":"Feature","id":1013,"geometry":{"type":"Point","coordinates":[-75.858932,39.673373]},"properties":{"site_name":"W. L. Gore & Associates","other_site_names":null,"state":"Maryland","industry":"Industry","matrix_type":"Other Water","matrix":"Drinking Water","year":2022,"pfoa":"770","pfos":null,"total_pfas":null,"pfas_level":770,"notes":"Households had PFOA concentrations exceeding the proposed limit, with two wells near the Gore facility measuring around 600 and 700 ppt, and another well over 2 miles away showing 10 ppt. Additionally, a creek near the plant had PFOA levels of 770 ppt, according to the lawsuit.","regulation_gvt_link":null,"resources_link":null,"suspected_source_link":"https://www.bayjournal.com/news/pollution/maryland-investigating-forever-chemicals-near-industrial-plant-in-cecil-county/article_f0c3195c-1ce7-11ee-937d-6b7e9ab39a5d.html#:~:text=The%20third%2C%20a%20little%20more,PFOA%2C%20according%20to%20the%20lawsuit.","pfas_testing_link":null,"site_ref_link":"https://drive.google.com/drive/u/2/folders/1iXmGLea4ivpdk4vEPQRaWsQ1q85vIUhi","state_ref_link":"https://drive.google.com/drive/u/2/folders/1bA0fTxac0RU2njTEx5JIcAWqZpYygC9D","ObjectId":1013}},{"type":"Feature","id":1150,"geometry":{"type":"Point","coordinates":[-76.923362,39.02629]},"properties":{"site_name":"Beltsville Agricultural Research Center","other_site_names":null,"state":"Maryland","industry":"Waste","matrix_type":"Groundwater","matrix":"Groundwater","year":2019,"pfoa":"100","pfos":"33","total_pfas":182,"pfas_level":182,"notes":"Identified by the Environmental Protection Agency (EPA) as having PFAS contamination. ","regulation_gvt_link":null,"resources_link":"https://cumulis.epa.gov/supercpad/SiteProfiles/index.cfm?fuseaction=second.docdata&id=0300415","suspected_source_link":"https://www.epw.senate.gov/public/index.cfm/superfund-sites-identified-by-epa-to-have-pfas-contamination","pfas_testing_link":"https://semspub.epa.gov/work/03/2350744.pdf","site_ref_link":null,"state_ref_link":null,"ObjectId":1150}},{"type":"Feature","id":1403,"geometry":{"type":"Point","coordinates":[-75.877778,39.691249]},"properties":{"site_name":"SPECTRON, INC.","other_site_names":null,"state":"Maryland","industry":"Waste","matrix_type":"Groundwater","matrix":"Groundwater","year":2020,"pfoa":"18","pfos":"4","total_pfas":39,"pfas_level":39,"notes":null,"regulation_gvt_link":"https://cumulis.epa.gov/supercpad/SiteProfiles/index.cfm?fuseaction=second.Cleanup&id=0300192#bkground","resources_link":"https://cumulis.epa.gov/supercpad/SiteProfiles/index.cfm?fuseaction=second.Cleanup&id=0300192#bkground","suspected_source_link":"https://semspub.epa.gov/work/03/2335692.pdf","pfas_testing_link":"2022 - SECOND FIVE-YEAR REVIEW REPORT FOR SPECTRON, INC. SUPERFUND SITE CECIL COUNTY, MARYLAND.pdf","site_ref_link":"Cecil County - Spectron Inc. - Superfund Site","state_ref_link":"MA","ObjectId":1403}},{"type":"Feature","id":1553,"geometry":{"type":"Point","coordinates":[-76.426152,38.147914]},"properties":{"site_name":"Webster Field Annex","other_site_names":null,"state":"Maryland","industry":"Military","matrix_type":"Other Water","matrix":"Surface Water","year":2020,"pfoa":"22","pfos":"1,544","total_pfas":1894,"pfas_level":1894,"notes":null,"regulation_gvt_link":"https://mde.maryland.gov/programs/Water/FishandShellfish/Pages/StMarys_PFAS.aspx","resources_link":"https://mde.maryland.gov/programs/Water/FishandShellfish/Pages/StMarys_PFAS.aspx","suspected_source_link":"https://www.militarypoisons.org/webster-field.html","pfas_testing_link":"https://www.militarypoisons.org/uploads/1/0/3/6/10362012/pfas_in_st._inigoes_creek.pdf","site_ref_link":null,"state_ref_link":"https://drive.google.com/drive/u/1/folders/1bA0fTxac0RU2njTEx5JIcAWqZpYygC9D","ObjectId":1553}},{"type":"Feature","id":1751,"geometry":{"type":"Point","coordinates":[-76.120398,39.463282]},"properties":{"site_name":"Aberdeen Proving Ground","other_site_names":"Michaelsville Landfill, Edgewood Area","state":"Maryland","industry":"Military","matrix_type":"Unknown","matrix":null,"year":null,"pfoa":null,"pfos":null,"total_pfas":13,"pfas_level":13,"notes":"Aberdeen Proving Ground - Aberdeen and Edgewood areas - PFAS compounds have been detected in three areas in the surficial aquifer (two areas along the Western Boundary at the Aberdeen Area) and the G-Street area at Edgewood. ","regulation_gvt_link":null,"resources_link":"https://mde.maryland.gov/PublicHealth/Pages/PFAS-Landing-Page.aspx","suspected_source_link":"https://www.civilianexposure.org/report-shows-15-military-bases-in-maryland-contaminated-with-pfas/","pfas_testing_link":"https://www.harfordcountymd.gov/DocumentCenter/View/11470/Harford-County-Water-Quality-Report-2017","site_ref_link":"https://drive.google.com/drive/u/0/folders/184120q-evbcbt2aOspWyLEhv8ftnBXO_","state_ref_link":"https://drive.google.com/drive/u/1/folders/1bA0fTxac0RU2njTEx5JIcAWqZpYygC9D","ObjectId":1751}},{"type":"Feature","id":1897,"geometry":{"type":"Point","coordinates":[-76.26195,39.467219]},"properties":{"site_name":"BUSH VALLEY LANDFILL","other_site_names":null,"state":"Maryland","industry":"Waste","matrix_type":"Groundwater","matrix":"Groundwater","year":2022,"pfoa":null,"pfos":null,"total_pfas":260,"pfas_level":260,"notes":null,"regulation_gvt_link":"https://cumulis.epa.gov/supercpad/SiteProfiles/index.cfm?fuseaction=second.cleanup&id=0300258","resources_link":"https://cumulis.epa.gov/supercpad/SiteProfiles/index.cfm?fuseaction=second.cleanup&id=0300258","suspected_source_link":"https://mde.maryland.gov/PublicHealth/SiteAssets/Pages/PFAS-Landing-Page/Maryland%20PFAS%20Action%20Plan%20December%202023.pdf","pfas_testing_link":"2023 - Maryland PFAS Action Plan .pdf","site_ref_link":"Harford County - Bush Valley Landfill - Superfund Site","state_ref_link":"MD","ObjectId":1897}},{"type":"Feature","id":2031,"geometry":{"type":"Point","coordinates":[-77.446769,39.434442]},"properties":{"site_name":"FORT DETRICK AREA B GROUND WATER","other_site_names":null,"state":"Maryland","industry":"Military","matrix_type":"Groundwater","matrix":"Groundwater","year":null,"pfoa":"41","pfos":"43","total_pfas":89,"pfas_level":89,"notes":null,"regulation_gvt_link":"https://cumulis.epa.gov/supercpad/cursites/csitinfo.cfm?id=0304606","resources_link":"https://aec.army.mil/PFAS/MD/FTD/","suspected_source_link":"https://aec.army.mil/Portals/115/PFAS/Fort_Detrick_PFAS_PA_SI.pdf?ver=LjrGzSf5E14ndjzNW_aTig%3d%3d","pfas_testing_link":"2020 - FINAL PRELIMINARY ASSESSMENT AND SITE INSPECTION OF PER- AND POLYFLUOROALKYL SUBSTANCES.pdf","site_ref_link":"Frederick County - Fort Detrick Area B Ground Water - Superfund Site","state_ref_link":"MD","ObjectId":2031}},{"type":"Feature","id":2230,"geometry":{"type":"Point","coordinates":[-76.73424,39.104264]},"properties":{"site_name":"Fort Meade","other_site_names":"Fort George G. Meade","state":"Maryland","industry":"Military","matrix_type":"Groundwater","matrix":"Groundwater","year":2017,"pfoa":null,"pfos":null,"total_pfas":null,"pfas_level":87000,"notes":"AFFF used at Fort Meade","regulation_gvt_link":"N/A","resources_link":"https://cumulis.epa.gov/supercpad/cursites/csitinfo.cfm?id=0300435","suspected_source_link":"https://drive.google.com/file/d/1EUMAiROzk8OxvPAWubv0xGGH9zI6mw4d/view?usp=drive_link ","pfas_testing_link":"https://mde.maryland.gov/programs/Water/water_supply/Documents/PFAS_Maryland_UCMR3_2012to2015_Method537.pdf","site_ref_link":"https://drive.google.com/drive/u/1/folders/1x7iQQCXeG8cyqBy62-8ozSnzwFKgXBjQ","state_ref_link":"https://drive.google.com/drive/u/1/folders/1bA0fTxac0RU2njTEx5JIcAWqZpYygC9D","ObjectId":2230}},{"type":"Feature","id":2231,"geometry":{"type":"Point","coordinates":[-76.482335,38.983648]},"properties":{"site_name":"US Naval Academy","other_site_names":" ","state":"Maryland","industry":"Military","matrix_type":"Groundwater","matrix":"Groundwater","year":2017,"pfoa":null,"pfos":null,"total_pfas":null,"pfas_level":70000,"notes":"AFFF used at Former Fort Severn - (currently) US Naval Academy","regulation_gvt_link":"N/A","resources_link":"N/A","suspected_source_link":"https://drive.google.com/file/d/1EUMAiROzk8OxvPAWubv0xGGH9zI6mw4d/view?usp=drive_link ","pfas_testing_link":"N/A","site_ref_link":"https://drive.google.com/drive/u/1/folders/15EPaa7ocoNR29u-Eim8j_5SUQTJYm47x","state_ref_link":"https://drive.google.com/drive/u/1/folders/1bA0fTxac0RU2njTEx5JIcAWqZpYygC9D","ObjectId":2231}},{"type":"Feature","id":2232,"geometry":{"type":"Point","coordinates":[-76.529632,38.657942]},"properties":{"site_name":"Naval Research Laboratory Chesapeake Bay Detachment","other_site_names":null,"state":"Maryland","industry":"Military","matrix_type":"Groundwater","matrix":"Groundwater","year":2017,"pfoa":"14900","pfos":"234000","total_pfas":null,"pfas_level":241110,"notes":"AFFF used at Naval Research Laboratory Chesapeake Bay Detachment","regulation_gvt_link":"https://www.navfac.navy.mil/products_and_services/ev/products_and_services/env_restoration/installation_map/navfac_atlantic/washington/nrl_cbd/nrl_cbd_pfas.html","resources_link":"https://www.navfac.navy.mil/products_and_services/ev/products_and_services/env_restoration/installation_map/navfac_atlantic/washington/nas_patuxent_river/admin_records.html","suspected_source_link":"https://www.navfac.navy.mil/products_and_services/ev/products_and_services/env_restoration/pfas_reading_room.html","pfas_testing_link":"https://www.navfac.navy.mil/content/dam/navfac/Environmental/PDFs/env_restoration/nrl_cbd/NRL-CBD_Off-base_Sampling_Fact_Sheet_10152018.pdf","site_ref_link":"https://drive.google.com/drive/u/1/folders/1og5HTfy7oCE2dxSmzNFpAGb0WNN8rb4U","state_ref_link":"https://drive.google.com/drive/folders/1bA0fTxac0RU2njTEx5JIcAWqZpYygC9D?usp=sharing","ObjectId":2232}},{"type":"Feature","id":2233,"geometry":{"type":"Point","coordinates":[-76.988605,39.036166]},"properties":{"site_name":"Naval Surface Warfare Center White Oak","other_site_names":null,"state":"Maryland","industry":"Military","matrix_type":"Groundwater","matrix":"Groundwater","year":2017,"pfoa":"135","pfos":"1230","total_pfas":2152,"pfas_level":2152,"notes":"AFFF used at White Oak - Naval Surface Warfare Center Dahlgren Division Detachment ","regulation_gvt_link":"N/A","resources_link":"https://www.navfac.navy.mil/products_and_services/ev/products_and_services/env_restoration/installation_map/navfac_atlantic/washington/nas_patuxent_river/admin_records.html","suspected_source_link":"https://www.navfac.navy.mil/products_and_services/ev/products_and_services/env_restoration/pfas_reading_room.html","pfas_testing_link":"https://drive.google.com/file/d/1ls28EWbXXkJYeFaR-lpjXkbeVARM-wwq/view?usp=sharing","site_ref_link":"https://drive.google.com/drive/u/0/folders/17plxjlKifVsobob6FD4br3j241kSKcGK","state_ref_link":"https://drive.google.com/drive/folders/1bA0fTxac0RU2njTEx5JIcAWqZpYygC9D?usp=sharing","ObjectId":2233}},{"type":"Feature","id":2234,"geometry":{"type":"Point","coordinates":[-76.432226,38.272037]},"properties":{"site_name":"Naval Air Station Patuxent River","other_site_names":"Patuxent River Naval Air Station","state":"Maryland","industry":"Military","matrix_type":"Groundwater","matrix":"Groundwater","year":2017,"pfoa":"1100","pfos":"38","total_pfas":1158,"pfas_level":1158,"notes":"AFFF used at Patuxent River Naval Air Station","regulation_gvt_link":"N/A","resources_link":"https://www.navfac.navy.mil/products_and_services/ev/products_and_services/env_restoration/installation_map/navfac_atlantic/washington/nas_patuxent_river/admin_records.html","suspected_source_link":"https://www.navfac.navy.mil/products_and_services/ev/products_and_services/env_restoration/pfas_reading_room.html","pfas_testing_link":"https://drive.google.com/file/d/1M0MYOgZaOxu-102uWzq5VGw36qBi4wTU/view?usp=sharing","site_ref_link":"https://drive.google.com/drive/u/1/folders/1p0kstu1RNEi79ofar6p4noaPFs9n62KW","state_ref_link":"https://drive.google.com/drive/u/1/folders/1bA0fTxac0RU2njTEx5JIcAWqZpYygC9D","ObjectId":2234}},{"type":"Feature","id":2235,"geometry":{"type":"Point","coordinates":[-76.883626,38.79652]},"properties":{"site_name":"Joint Base Andrews","other_site_names":"Andrews Air Force Base","state":"Maryland","industry":"Military","matrix_type":"Groundwater","matrix":"Groundwater","year":2018,"pfoa":"16000","pfos":"33000","total_pfas":40100,"pfas_level":40100,"notes":"AFFF used at Joint Base Andrews","regulation_gvt_link":"N/A","resources_link":"http://afcec.publicadmin-record.us.af.mil","suspected_source_link":null,"pfas_testing_link":"https://drive.google.com/file/d/1tWbgtOOlJ2fIvbescNeFa7fzxNMxsK01/view?usp=sharing","site_ref_link":"https://drive.google.com/drive/u/0/folders/1_PABuWcJsK5vRDsJ4_8nUTqEm7tptqJp","state_ref_link":"https://drive.google.com/drive/u/1/folders/1bA0fTxac0RU2njTEx5JIcAWqZpYygC9D","ObjectId":2235}},{"type":"Feature","id":2552,"geometry":{"type":"Point","coordinates":[-78.339928,39.646633]},"properties":{"site_name":"Brigadier General Thomas B. Baker Training Site","other_site_names":"Baker Training Site ","state":"Maryland","industry":"Military","matrix_type":"Other Water","matrix":"Drinking Water","year":2018,"pfoa":"2","pfos":"1","total_pfas":6,"pfas_level":6,"notes":null,"regulation_gvt_link":null,"resources_link":null,"suspected_source_link":"https://drive.google.com/file/d/1g1t60FsMLcfluvkLqorqlbsHnkF_rNZw/view?usp=sharing","pfas_testing_link":"https://drive.google.com/file/d/1g1t60FsMLcfluvkLqorqlbsHnkF_rNZw/view?usp=sharing","site_ref_link":"https://drive.google.com/drive/u/0/folders/17vc5JX3Gvo92Bih-kg-GABnBbExIJhXg","state_ref_link":"https://drive.google.com/drive/u/1/folders/1bA0fTxac0RU2njTEx5JIcAWqZpYygC9D","ObjectId":2552}},{"type":"Feature","id":2553,"geometry":{"type":"Point","coordinates":[-76.841356,39.500893]},"properties":{"site_name":"Camp Fretterd Readiness Center","other_site_names":null,"state":"Maryland","industry":"Military","matrix_type":"Other Water","matrix":"Drinking Water","year":2018,"pfoa":"1","pfos":null,"total_pfas":4,"pfas_level":4,"notes":null,"regulation_gvt_link":null,"resources_link":null,"suspected_source_link":"https://drive.google.com/file/d/1g1t60FsMLcfluvkLqorqlbsHnkF_rNZw/view?usp=sharing","pfas_testing_link":"https://drive.google.com/file/d/1g1t60FsMLcfluvkLqorqlbsHnkF_rNZw/view?usp=sharing","site_ref_link":"https://drive.google.com/drive/u/0/folders/17vc5JX3Gvo92Bih-kg-GABnBbExIJhXg","state_ref_link":"https://drive.google.com/drive/u/1/folders/1bA0fTxac0RU2njTEx5JIcAWqZpYygC9D","ObjectId":2553}},{"type":"Feature","id":2554,"geometry":{"type":"Point","coordinates":[-77.419431,39.448309]},"properties":{"site_name":"Frederick Readiness Center","other_site_names":null,"state":"Maryland","industry":"Military","matrix_type":"Other Water","matrix":"Drinking Water","year":2018,"pfoa":"3","pfos":"2","total_pfas":15,"pfas_level":15,"notes":null,"regulation_gvt_link":null,"resources_link":null,"suspected_source_link":"https://drive.google.com/file/d/1g1t60FsMLcfluvkLqorqlbsHnkF_rNZw/view?usp=sharing","pfas_testing_link":"https://drive.google.com/file/d/1g1t60FsMLcfluvkLqorqlbsHnkF_rNZw/view?usp=sharing","site_ref_link":"https://drive.google.com/drive/u/0/folders/17vc5JX3Gvo92Bih-kg-GABnBbExIJhXg","state_ref_link":"https://drive.google.com/drive/u/1/folders/1bA0fTxac0RU2njTEx5JIcAWqZpYygC9D","ObjectId":2554}},{"type":"Feature","id":2555,"geometry":{"type":"Point","coordinates":[-76.507184,39.429269]},"properties":{"site_name":"Gunpowder Military Reservation","other_site_names":null,"state":"Maryland","industry":"Military","matrix_type":"Other Water","matrix":"Drinking Water","year":2018,"pfoa":"4","pfos":"2","total_pfas":16,"pfas_level":16,"notes":null,"regulation_gvt_link":null,"resources_link":null,"suspected_source_link":"https://drive.google.com/file/d/1g1t60FsMLcfluvkLqorqlbsHnkF_rNZw/view?usp=sharing","pfas_testing_link":"https://drive.google.com/file/d/1g1t60FsMLcfluvkLqorqlbsHnkF_rNZw/view?usp=sharing","site_ref_link":"https://drive.google.com/drive/u/0/folders/17vc5JX3Gvo92Bih-kg-GABnBbExIJhXg","state_ref_link":"https://drive.google.com/drive/u/1/folders/1bA0fTxac0RU2njTEx5JIcAWqZpYygC9D","ObjectId":2555}},{"type":"Feature","id":2556,"geometry":{"type":"Point","coordinates":[-77.040996,38.548201]},"properties":{"site_name":"La Plata Readiness Center","other_site_names":null,"state":"Maryland","industry":"Military","matrix_type":"Other Water","matrix":"Drinking Water","year":2018,"pfoa":null,"pfos":"2","total_pfas":13,"pfas_level":13,"notes":null,"regulation_gvt_link":null,"resources_link":null,"suspected_source_link":"https://drive.google.com/file/d/1g1t60FsMLcfluvkLqorqlbsHnkF_rNZw/view?usp=sharing","pfas_testing_link":"https://drive.google.com/file/d/1g1t60FsMLcfluvkLqorqlbsHnkF_rNZw/view?usp=sharing","site_ref_link":"https://drive.google.com/drive/u/0/folders/17vc5JX3Gvo92Bih-kg-GABnBbExIJhXg","state_ref_link":"https://drive.google.com/drive/u/1/folders/1bA0fTxac0RU2njTEx5JIcAWqZpYygC9D","ObjectId":2556}},{"type":"Feature","id":2557,"geometry":{"type":"Point","coordinates":[-75.957072,38.925074]},"properties":{"site_name":"Queen Anne Readiness Center","other_site_names":null,"state":"Maryland","industry":"Military","matrix_type":"Other Water","matrix":"Drinking Water","year":2018,"pfoa":"1","pfos":null,"total_pfas":3,"pfas_level":3,"notes":null,"regulation_gvt_link":null,"resources_link":null,"suspected_source_link":"https://drive.google.com/file/d/1g1t60FsMLcfluvkLqorqlbsHnkF_rNZw/view?usp=sharing","pfas_testing_link":"https://drive.google.com/file/d/1g1t60FsMLcfluvkLqorqlbsHnkF_rNZw/view?usp=sharing","site_ref_link":"https://drive.google.com/drive/u/0/folders/17vc5JX3Gvo92Bih-kg-GABnBbExIJhXg","state_ref_link":"https://drive.google.com/drive/u/1/folders/1bA0fTxac0RU2njTEx5JIcAWqZpYygC9D","ObjectId":2557}},{"type":"Feature","id":2813,"geometry":{"type":"Point","coordinates":[-76.923362,39.02629]},"properties":{"site_name":"Beltsville Agricultural Research Center","other_site_names":null,"state":"Maryland","industry":"Waste","matrix_type":"Groundwater","matrix":"Groundwater","year":2019,"pfoa":"100","pfos":"33","total_pfas":182,"pfas_level":182,"notes":"Identified by the Environmental Protection Agency (EPA) as having PFAS contamination. ","regulation_gvt_link":null,"resources_link":"https://cumulis.epa.gov/supercpad/SiteProfiles/index.cfm?fuseaction=second.docdata&id=0300415","suspected_source_link":"https://www.epw.senate.gov/public/index.cfm/superfund-sites-identified-by-epa-to-have-pfas-contamination","pfas_testing_link":"https://semspub.epa.gov/work/03/2350744.pdf","site_ref_link":null,"state_ref_link":null,"ObjectId":2813}},{"type":"Feature","id":2814,"geometry":{"type":"Point","coordinates":[-76.849169,38.69751]},"properties":{"site_name":"Brandywine DRMO","other_site_names":null,"state":"Maryland","industry":"Military","matrix_type":"Groundwater","matrix":"Groundwater","year":2018,"pfoa":"4400","pfos":"250","total_pfas":4520,"pfas_level":4520,"notes":"Identified by the Environmental Protection Agency (EPA) as having PFAS contamination. ","regulation_gvt_link":null,"resources_link":"https://cumulis.epa.gov/supercpad/SiteProfiles/index.cfm?fuseaction=second.docdata&id=0304462","suspected_source_link":"https://www.epw.senate.gov/public/index.cfm/superfund-sites-identified-by-epa-to-have-pfas-contamination","pfas_testing_link":"https://mde.maryland.gov/Documents/PFC%20Final%20Joint%20Base%20Andrews%20SI%20Report%2007%20May%202018.pdf","site_ref_link":null,"state_ref_link":null,"ObjectId":2814}},{"type":"Feature","id":2946,"geometry":{"type":"Point","coordinates":[-77.171032,38.598917]},"properties":{"site_name":"Naval Surface Warfare Center Annapolis, Bay Head Road Annex","other_site_names":"Annapolis NSWC Carderock DIV Det","state":"Maryland","industry":"Military","matrix_type":"Groundwater","matrix":"Groundwater","year":2016,"pfoa":"28000","pfos":"170000","total_pfas":null,"pfas_level":173500,"notes":"AFFF used at old Navy base","regulation_gvt_link":null,"resources_link":null,"suspected_source_link":"https://www.navfac.navy.mil/products_and_services/ev/products_and_services/env_restoration/pfas_reading_room.html","pfas_testing_link":"https://drive.google.com/file/d/1fjGFrceNGYeqN6OPKTwVZ8zoNU_YgQJR/view?usp=sharing","site_ref_link":"https://drive.google.com/drive/u/0/folders/13qrzpRyPSjgIu9TIyMEy2bvgaKax1KY4","state_ref_link":null,"ObjectId":2946}},{"type":"Feature","id":3085,"geometry":{"type":"Point","coordinates":[-76.727911,39.455214]},"properties":{"site_name":"SSG Isadore S. Jachman Reserve Center, Md.","other_site_names":null,"state":"Maryland","industry":"Military","matrix_type":"Unknown","matrix":null,"year":2016,"pfoa":"2","pfos":null,"total_pfas":null,"pfas_level":2,"notes":null,"regulation_gvt_link":null,"resources_link":null,"suspected_source_link":"https://drive.google.com/file/d/1RR7m215_Wwc0Uoj1-lzRpXbU0ak4uw5_/view?usp=share_link","pfas_testing_link":"https://drive.google.com/file/d/1RR7m215_Wwc0Uoj1-lzRpXbU0ak4uw5_/view?usp=share_link","site_ref_link":"https://drive.google.com/drive/folders/1eUIq5miAlYF2npDMfKR0TxZEBSakA8Y9?usp=share_link","state_ref_link":"https://drive.google.com/drive/folders/14Kh2JWWhuhWLU8DHjaTFHmASWs7qQltK?usp=share_link","ObjectId":3085}},{"type":"Feature","id":3244,"geometry":{"type":"Point","coordinates":[-75.858932,39.673373]},"properties":{"site_name":"W. L. Gore & Associates","other_site_names":null,"state":"Maryland","industry":"Industry","matrix_type":"Other Water","matrix":"Drinking Water","year":2022,"pfoa":"770","pfos":null,"total_pfas":null,"pfas_level":770,"notes":"Households had PFOA concentrations exceeding the proposed limit, with two wells near the Gore facility measuring around 600 and 700 ppt, and another well over 2 miles away showing 10 ppt. Additionally, a creek near the plant had PFOA levels of 770 ppt, according to the lawsuit.","regulation_gvt_link":null,"resources_link":null,"suspected_source_link":"https://www.bayjournal.com/news/pollution/maryland-investigating-forever-chemicals-near-industrial-plant-in-cecil-county/article_f0c3195c-1ce7-11ee-937d-6b7e9ab39a5d.html#:~:text=The%20third%2C%20a%20little%20more,PFOA%2C%20according%20to%20the%20lawsuit.","pfas_testing_link":null,"site_ref_link":"https://drive.google.com/drive/u/2/folders/1iXmGLea4ivpdk4vEPQRaWsQ1q85vIUhi","state_ref_link":"https://drive.google.com/drive/u/2/folders/1bA0fTxac0RU2njTEx5JIcAWqZpYygC9D","ObjectId":3244}},{"type":"Feature","id":3585,"geometry":{"type":"Point","coordinates":[-76.120398,39.463282]},"properties":{"site_name":"Aberdeen Proving Ground","other_site_names":"Michaelsville Landfill, Edgewood Area","state":"Maryland","industry":"Military","matrix_type":"Unknown","matrix":null,"year":null,"pfoa":null,"pfos":null,"total_pfas":13,"pfas_level":13,"notes":"Aberdeen Proving Ground - Aberdeen and Edgewood areas - PFAS compounds have been detected in three areas in the surficial aquifer (two areas along the Western Boundary at the Aberdeen Area) and the G-Street area at Edgewood. ","regulation_gvt_link":null,"resources_link":"https://mde.maryland.gov/PublicHealth/Pages/PFAS-Landing-Page.aspx","suspected_source_link":"https://www.civilianexposure.org/report-shows-15-military-bases-in-maryland-contaminated-with-pfas/","pfas_testing_link":"https://www.harfordcountymd.gov/DocumentCenter/View/11470/Harford-County-Water-Quality-Report-2017","site_ref_link":"https://drive.google.com/drive/u/0/folders/184120q-evbcbt2aOspWyLEhv8ftnBXO_","state_ref_link":"https://drive.google.com/drive/u/1/folders/1bA0fTxac0RU2njTEx5JIcAWqZpYygC9D","ObjectId":3585}},{"type":"Feature","id":3586,"geometry":{"type":"Point","coordinates":[-76.115124,39.604842]},"properties":{"site_name":"Bainbridge Naval Training Center","other_site_names":null,"state":"Maryland","industry":"Military","matrix_type":"Groundwater","matrix":"Groundwater","year":2017,"pfoa":null,"pfos":"234000","total_pfas":null,"pfas_level":234000,"notes":"AFFF was used at the fire training area.","regulation_gvt_link":null,"resources_link":"https://mde.maryland.gov/PublicHealth/Pages/PFAS-Landing-Page.aspx","suspected_source_link":"https://www.civilianexposure.org/report-shows-15-military-bases-in-maryland-contaminated-with-pfas/","pfas_testing_link":"https://mde.maryland.gov/PublicHealth/Documents/Fed_Private_PFAS.pdf","site_ref_link":null,"state_ref_link":"https://drive.google.com/drive/u/1/folders/1bA0fTxac0RU2njTEx5JIcAWqZpYygC9D","ObjectId":3586}},{"type":"Feature","id":3587,"geometry":{"type":"Point","coordinates":[-78.354297,39.644944]},"properties":{"site_name":"Camp Baker","other_site_names":null,"state":"Maryland","industry":"Military","matrix_type":"Unknown","matrix":null,"year":2017,"pfoa":null,"pfos":null,"total_pfas":6,"pfas_level":6,"notes":"AFFF was used at the site. ","regulation_gvt_link":null,"resources_link":"https://mde.maryland.gov/PublicHealth/Pages/PFAS-Landing-Page.aspx","suspected_source_link":"https://www.ewg.org/interactive-maps/2020-military-pfas-sites/map/","pfas_testing_link":"https://www.ewg.org/interactive-maps/2020-military-pfas-sites/map/","site_ref_link":null,"state_ref_link":"https://drive.google.com/drive/folders/1bA0fTxac0RU2njTEx5JIcAWqZpYygC9D?usp=sharing","ObjectId":3587}},{"type":"Feature","id":3588,"geometry":{"type":"Point","coordinates":[-76.418068,39.334658]},"properties":{"site_name":"Martin State Air National Guard Base","other_site_names":null,"state":"Maryland","industry":"Military","matrix_type":"Groundwater","matrix":"Groundwater","year":2017,"pfoa":"1660","pfos":"13700","total_pfas":20220,"pfas_level":20220,"notes":"AFFF was used at the site. ","regulation_gvt_link":null,"resources_link":"https://mde.maryland.gov/PublicHealth/Pages/PFAS-Landing-Page.aspx","suspected_source_link":"https://www.militarypoisons.org/md-slow-on-pfas.html","pfas_testing_link":"https://drive.google.com/file/d/14UC2kqxtan9zaVqB90dhnaMU6RXwja2J/view?usp=sharing","site_ref_link":"https://drive.google.com/drive/folders/11ne8evaDa0YVPa8YiY4BSYEHmQptPYSQ?usp=sharing","state_ref_link":"https://drive.google.com/drive/u/1/folders/1bA0fTxac0RU2njTEx5JIcAWqZpYygC9D","ObjectId":3588}},{"type":"Feature","id":3742,"geometry":{"type":"Point","coordinates":[-76.426152,38.147914]},"properties":{"site_name":"Webster Field Annex","other_site_names":null,"state":"Maryland","industry":"Military","matrix_type":"Other Water","matrix":"Surface Water","year":2020,"pfoa":"22","pfos":"1544","total_pfas":1894,"pfas_level":1894,"notes":null,"regulation_gvt_link":"https://mde.maryland.gov/programs/Water/FishandShellfish/Pages/StMarys_PFAS.aspx","resources_link":"https://mde.maryland.gov/programs/Water/FishandShellfish/Pages/StMarys_PFAS.aspx","suspected_source_link":"https://www.militarypoisons.org/webster-field.html","pfas_testing_link":"https://www.militarypoisons.org/uploads/1/0/3/6/10362012/pfas_in_st._inigoes_creek.pdf","site_ref_link":null,"state_ref_link":"https://drive.google.com/drive/u/1/folders/1bA0fTxac0RU2njTEx5JIcAWqZpYygC9D","ObjectId":3742}},{"type":"Feature","id":4143,"geometry":{"type":"Point","coordinates":[-76.26195,39.467219]},"properties":{"site_name":"BUSH VALLEY LANDFILL","other_site_names":null,"state":"Maryland","industry":"Waste","matrix_type":"Groundwater","matrix":"Groundwater","year":2022,"pfoa":null,"pfos":null,"total_pfas":260,"pfas_level":260,"notes":null,"regulation_gvt_link":"https://cumulis.epa.gov/supercpad/SiteProfiles/index.cfm?fuseaction=second.cleanup&id=0300258","resources_link":"https://cumulis.epa.gov/supercpad/SiteProfiles/index.cfm?fuseaction=second.cleanup&id=0300258","suspected_source_link":"https://mde.maryland.gov/PublicHealth/SiteAssets/Pages/PFAS-Landing-Page/Maryland%20PFAS%20Action%20Plan%20December%202023.pdf","pfas_testing_link":"2023 - Maryland PFAS Action Plan .pdf","site_ref_link":"Harford County - Bush Valley Landfill - Superfund Site","state_ref_link":"MD","ObjectId":4143}},{"type":"Feature","id":4144,"geometry":{"type":"Point","coordinates":[-77.446769,39.434442]},"properties":{"site_name":"FORT DETRICK AREA B GROUND WATER","other_site_names":null,"state":"Maryland","industry":"Military","matrix_type":"Groundwater","matrix":"Groundwater","year":null,"pfoa":"41","pfos":"43","total_pfas":89,"pfas_level":89,"notes":null,"regulation_gvt_link":"https://cumulis.epa.gov/supercpad/cursites/csitinfo.cfm?id=0304606","resources_link":"https://aec.army.mil/PFAS/MD/FTD/","suspected_source_link":"https://aec.army.mil/Portals/115/PFAS/Fort_Detrick_PFAS_PA_SI.pdf?ver=LjrGzSf5E14ndjzNW_aTig%3d%3d","pfas_testing_link":"2020 - FINAL PRELIMINARY ASSESSMENT AND SITE INSPECTION OF PER- AND POLYFLUOROALKYL SUBSTANCES.pdf","site_ref_link":"Frederick County - Fort Detrick Area B Ground Water - Superfund Site","state_ref_link":"MD","ObjectId":4144}},{"type":"Feature","id":4145,"geometry":{"type":"Point","coordinates":[-75.877778,39.691249]},"properties":{"site_name":"SPECTRON, INC.","other_site_names":null,"state":"Maryland","industry":"Waste","matrix_type":"Groundwater","matrix":"Groundwater","year":2020,"pfoa":"18","pfos":"4","total_pfas":39,"pfas_level":39,"notes":null,"regulation_gvt_link":"https://cumulis.epa.gov/supercpad/SiteProfiles/index.cfm?fuseaction=second.Cleanup&id=0300192#bkground","resources_link":"https://cumulis.epa.gov/supercpad/SiteProfiles/index.cfm?fuseaction=second.Cleanup&id=0300192#bkground","suspected_source_link":"https://semspub.epa.gov/work/03/2335692.pdf","pfas_testing_link":"2022 - SECOND FIVE-YEAR REVIEW REPORT FOR SPECTRON, INC. SUPERFUND SITE CECIL COUNTY, MARYLAND.pdf","site_ref_link":"Cecil County - Spectron Inc. - Superfund Site","state_ref_link":"MA","ObjectId":4145}}]}