{"type":"FeatureCollection","crs":{"type":"name","properties":{"name":"EPSG:4326"}},"features":[{"type":"Feature","id":513,"geometry":{"type":"Point","coordinates":[-103.26667,44.081146]},"properties":{"site_name":"West Camp Rapid","other_site_names":null,"state":"South Dakota","industry":"Military","matrix_type":"Other Water","matrix":"Drinking Water","year":2018,"pfoa":null,"pfos":null,"total_pfas":6,"pfas_level":6,"notes":null,"regulation_gvt_link":null,"resources_link":null,"suspected_source_link":"https://drive.google.com/file/d/1g1t60FsMLcfluvkLqorqlbsHnkF_rNZw/view?usp=sharing","pfas_testing_link":"https://drive.google.com/file/d/1g1t60FsMLcfluvkLqorqlbsHnkF_rNZw/view?usp=sharing","site_ref_link":"https://drive.google.com/drive/u/0/folders/17vc5JX3Gvo92Bih-kg-GABnBbExIJhXg","state_ref_link":"https://drive.google.com/drive/u/0/folders/1uabj078alqwg8GIADRa0PuaF4PmIOuX4","ObjectId":513}},{"type":"Feature","id":532,"geometry":{"type":"Point","coordinates":[-103.581415,43.76522]},"properties":{"site_name":"Custer Training Site","other_site_names":null,"state":"South Dakota","industry":"Military","matrix_type":"Other Water","matrix":"Drinking Water","year":2018,"pfoa":null,"pfos":null,"total_pfas":9,"pfas_level":9,"notes":null,"regulation_gvt_link":null,"resources_link":null,"suspected_source_link":"https://drive.google.com/file/d/1g1t60FsMLcfluvkLqorqlbsHnkF_rNZw/view?usp=sharing","pfas_testing_link":"https://drive.google.com/file/d/1g1t60FsMLcfluvkLqorqlbsHnkF_rNZw/view?usp=sharing","site_ref_link":"https://drive.google.com/drive/u/0/folders/17vc5JX3Gvo92Bih-kg-GABnBbExIJhXg","state_ref_link":"https://drive.google.com/drive/u/0/folders/1uabj078alqwg8GIADRa0PuaF4PmIOuX4","ObjectId":532}},{"type":"Feature","id":812,"geometry":{"type":"Point","coordinates":[-103.074554,44.132669]},"properties":{"site_name":"Ellsworth Air Force Base","other_site_names":null,"state":"South Dakota","industry":"Military","matrix_type":"Other Water","matrix":"Surface Water","year":2018,"pfoa":"200,000","pfos":"1,300,000","total_pfas":1640000,"pfas_level":1640000,"notes":"AFFF used at Ellsworth Air Force Base","regulation_gvt_link":"https://denr.sd.gov/des/gw/superfund/Superfund_Sites.aspx","resources_link":"https://denr.sd.gov/des/gw/Superfund/Superfund_Sites.aspx","suspected_source_link":"http://www.kotatv.com/content/news/Health-and-safety-constant-concerns-for-Ellsworth-Air-Force-Base--377474501.html","pfas_testing_link":"https://drive.google.com/file/d/1gCiMYNzUqEApsLrElPDmnTWf7F1j54DC/view?usp=sharing","site_ref_link":"https://drive.google.com/drive/u/0/folders/1R6hJWrlYzJuRMaYk4bZEFlAwZFTs1PfD","state_ref_link":"https://drive.google.com/drive/u/0/folders/1uabj078alqwg8GIADRa0PuaF4PmIOuX4","ObjectId":812}},{"type":"Feature","id":1344,"geometry":{"type":"Point","coordinates":[-96.743542,43.572509]},"properties":{"site_name":"Sioux Falls Regional Airport","other_site_names":"Joe Foss Field Air National Guard Base","state":"South Dakota","industry":"Airport","matrix_type":"Groundwater","matrix":"Groundwater","year":2019,"pfoa":"14,000","pfos":"370,000","total_pfas":633400,"pfas_level":633400,"notes":"AFFF used at Sioux Falls Regional Airport. The Sioux Falls Fire Department was responsible for fire protection at the airport from 1970 to 1991, when the South Dakota Air National Guard took over firefighting responsibilities at the airport, conducting tests and training primarily on its base near the southern end of the airport’s two runways.","regulation_gvt_link":"N/A","resources_link":"https://denr.sd.gov/des/gw/Superfund/Superfund_Sites.aspx","suspected_source_link":"https://rapidcityjournal.com/news/local/firefighting-foam-contaminates-millions-of-gallons-of-sioux-falls-water/article_fa8ca607-662d-5b2b-9a7f-75816870396e.html","pfas_testing_link":"https://drive.google.com/file/d/1ugYJE5IcrFUxyEIB9JL1eR_ME76rdUEw/view?usp=sharing","site_ref_link":"https://drive.google.com/drive/u/0/folders/1aeiZHUuPJYYxIAXcqGIWtJgjyoal6ZZZ","state_ref_link":"https://drive.google.com/drive/u/0/folders/1uabj078alqwg8GIADRa0PuaF4PmIOuX4","ObjectId":1344}},{"type":"Feature","id":2402,"geometry":{"type":"Point","coordinates":[-103.074554,44.132669]},"properties":{"site_name":"Ellsworth Air Force Base","other_site_names":null,"state":"South Dakota","industry":"Military","matrix_type":"Other Water","matrix":"Surface Water","year":2018,"pfoa":"200000","pfos":"1300000","total_pfas":1640000,"pfas_level":1640000,"notes":"AFFF used at Ellsworth Air Force Base","regulation_gvt_link":"https://denr.sd.gov/des/gw/superfund/Superfund_Sites.aspx","resources_link":"https://denr.sd.gov/des/gw/Superfund/Superfund_Sites.aspx","suspected_source_link":"http://www.kotatv.com/content/news/Health-and-safety-constant-concerns-for-Ellsworth-Air-Force-Base--377474501.html","pfas_testing_link":"https://drive.google.com/file/d/1gCiMYNzUqEApsLrElPDmnTWf7F1j54DC/view?usp=sharing","site_ref_link":"https://drive.google.com/drive/u/0/folders/1R6hJWrlYzJuRMaYk4bZEFlAwZFTs1PfD","state_ref_link":"https://drive.google.com/drive/u/0/folders/1uabj078alqwg8GIADRa0PuaF4PmIOuX4","ObjectId":2402}},{"type":"Feature","id":2403,"geometry":{"type":"Point","coordinates":[-96.743542,43.572509]},"properties":{"site_name":"Sioux Falls Regional Airport","other_site_names":"Joe Foss Field Air National Guard Base","state":"South Dakota","industry":"Airport","matrix_type":"Groundwater","matrix":"Groundwater","year":2019,"pfoa":"14000","pfos":"370000","total_pfas":633400,"pfas_level":633400,"notes":"AFFF used at Sioux Falls Regional Airport. The Sioux Falls Fire Department was responsible for fire protection at the airport from 1970 to 1991, when the South Dakota Air National Guard took over firefighting responsibilities at the airport, conducting tests and training primarily on its base near the southern end of the airport’s two runways.","regulation_gvt_link":"N/A","resources_link":"https://denr.sd.gov/des/gw/Superfund/Superfund_Sites.aspx","suspected_source_link":"https://rapidcityjournal.com/news/local/firefighting-foam-contaminates-millions-of-gallons-of-sioux-falls-water/article_fa8ca607-662d-5b2b-9a7f-75816870396e.html","pfas_testing_link":"https://drive.google.com/file/d/1ugYJE5IcrFUxyEIB9JL1eR_ME76rdUEw/view?usp=sharing","site_ref_link":"https://drive.google.com/drive/u/0/folders/1aeiZHUuPJYYxIAXcqGIWtJgjyoal6ZZZ","state_ref_link":"https://drive.google.com/drive/u/0/folders/1uabj078alqwg8GIADRa0PuaF4PmIOuX4","ObjectId":2403}},{"type":"Feature","id":2606,"geometry":{"type":"Point","coordinates":[-103.581415,43.76522]},"properties":{"site_name":"Custer Training Site","other_site_names":null,"state":"South Dakota","industry":"Military","matrix_type":"Other Water","matrix":"Drinking Water","year":2018,"pfoa":null,"pfos":null,"total_pfas":9,"pfas_level":9,"notes":null,"regulation_gvt_link":null,"resources_link":null,"suspected_source_link":"https://drive.google.com/file/d/1g1t60FsMLcfluvkLqorqlbsHnkF_rNZw/view?usp=sharing","pfas_testing_link":"https://drive.google.com/file/d/1g1t60FsMLcfluvkLqorqlbsHnkF_rNZw/view?usp=sharing","site_ref_link":"https://drive.google.com/drive/u/0/folders/17vc5JX3Gvo92Bih-kg-GABnBbExIJhXg","state_ref_link":"https://drive.google.com/drive/u/0/folders/1uabj078alqwg8GIADRa0PuaF4PmIOuX4","ObjectId":2606}},{"type":"Feature","id":2607,"geometry":{"type":"Point","coordinates":[-103.26667,44.081146]},"properties":{"site_name":"West Camp Rapid","other_site_names":null,"state":"South Dakota","industry":"Military","matrix_type":"Other Water","matrix":"Drinking Water","year":2018,"pfoa":null,"pfos":null,"total_pfas":6,"pfas_level":6,"notes":null,"regulation_gvt_link":null,"resources_link":null,"suspected_source_link":"https://drive.google.com/file/d/1g1t60FsMLcfluvkLqorqlbsHnkF_rNZw/view?usp=sharing","pfas_testing_link":"https://drive.google.com/file/d/1g1t60FsMLcfluvkLqorqlbsHnkF_rNZw/view?usp=sharing","site_ref_link":"https://drive.google.com/drive/u/0/folders/17vc5JX3Gvo92Bih-kg-GABnBbExIJhXg","state_ref_link":"https://drive.google.com/drive/u/0/folders/1uabj078alqwg8GIADRa0PuaF4PmIOuX4","ObjectId":2607}}]}