{"type":"FeatureCollection","crs":{"type":"name","properties":{"name":"EPSG:4326"}},"features":[{"type":"Feature","id":641,"geometry":{"type":"Point","coordinates":[-96.369989,42.396949]},"properties":{"site_name":"Sioux City Air National Guard Base","other_site_names":"Sioux Gateway Municipal Airport","state":"Iowa","industry":"Military","matrix_type":"Groundwater","matrix":"Groundwater","year":2018,"pfoa":"850","pfos":"7,800","total_pfas":17811,"pfas_level":17811,"notes":"AFFF used at Sioux City Air National Guard Base / Sioux Gateway Municipal Airport","regulation_gvt_link":"N/A","resources_link":"https://www.iowadnr.gov/Environmental-Protection/PFAS#:~:text=Based%20on%20sampling%20data%20to,be%20lower%20at%20this%20point.","suspected_source_link":"https://www.iowapublicradio.org/post/military-report-shows-groundwater-contamination-sioux-city-national-guard-base#stream/0","pfas_testing_link":"https://drive.google.com/file/d/1qZJtzo42SsfavynxzMvqdSG8U380Hz6e/view?usp=sharing","site_ref_link":"https://drive.google.com/drive/u/1/folders/1GM59b94GGMIhOawUk4JHOsmIDYYsqMUa","state_ref_link":"https://drive.google.com/drive/u/1/folders/1VWrrkceI2smkvvkr-2vSvtbG91R9viaO","ObjectId":641}},{"type":"Feature","id":653,"geometry":{"type":"Point","coordinates":[-93.659885,41.540008]},"properties":{"site_name":"Des Moines Air National Guard Base","other_site_names":"Des Moines International Airport","state":"Iowa","industry":"Military","matrix_type":"Groundwater","matrix":"Groundwater","year":2018,"pfoa":"1,900","pfos":"13,000","total_pfas":33000,"pfas_level":33000,"notes":"AFFF used at Des Moines ANGB/International Airport","regulation_gvt_link":"N/A","resources_link":"http://afcec.publicadmin-record.us.af.mil","suspected_source_link":"https://www.iowapublicradio.org/post/des-moines-water-works-official-says-more-testing-needed-after-pfas-found-area-military-base#stream/0","pfas_testing_link":"https://drive.google.com/file/d/1Zdm9o-ocilDpmGz8Zop64EvVU2hQ2a7M/view?usp=sharing","site_ref_link":"https://drive.google.com/drive/u/0/folders/1fkSaevn6CyXsD4tJ_giaCvBShOxiBuG2","state_ref_link":"https://drive.google.com/drive/u/1/folders/1VWrrkceI2smkvvkr-2vSvtbG91R9viaO","ObjectId":653}},{"type":"Feature","id":1086,"geometry":{"type":"Point","coordinates":[-90.292639,41.787781]},"properties":{"site_name":"LAWRENCE TODTZ FARM","other_site_names":null,"state":"Iowa","industry":"Industry","matrix_type":"Groundwater","matrix":"Groundwater","year":2023,"pfoa":"760","pfos":"7,000","total_pfas":null,"pfas_level":7000,"notes":null,"regulation_gvt_link":"https://cumulis.epa.gov/supercpad/cursites/csitinfo.cfm?id=0700039","resources_link":"https://programs.iowadnr.gov/contaminatedsites/Site/Detail/467","suspected_source_link":"2024 - EPA Supplemental Delineation Results, Lawrence Todtz Farm Landfill site, Camanche, Iowa.pdf","pfas_testing_link":"2024 - EPA Supplemental Delineation Results, Lawrence Todtz Farm Landfill site, Camanche, Iowa.pdf","site_ref_link":"Clinton County, IA - Lawrence Todtz Farm - Superfund Site","state_ref_link":"IA","ObjectId":1086}},{"type":"Feature","id":1557,"geometry":{"type":"Point","coordinates":[-91.246669,40.808331]},"properties":{"site_name":"IOWA ARMY AMMUNITION PLANT","other_site_names":null,"state":"Iowa","industry":"Military","matrix_type":"Groundwater","matrix":"Groundwater","year":2020,"pfoa":"110","pfos":"620","total_pfas":2261,"pfas_level":2261,"notes":null,"regulation_gvt_link":"https://cumulis.epa.gov/supercpad/cursites/csitinfo.cfm?id=0700413","resources_link":"https://aec.army.mil/PFAS/IA/IAAAP/","suspected_source_link":"https://aec.army.mil/PFAS/IA/IAAAP/","pfas_testing_link":"2022 - Site Inspection Report- Per- and Polyfluoroalkyl Substances (PFAS) Iowa Army Ammunition Plant, Middletown, Iowa.pdf","site_ref_link":"Des Moines County, IA - Iowa Army Ammunition Plant - Superfund Site","state_ref_link":"IA","ObjectId":1557}},{"type":"Feature","id":2219,"geometry":{"type":"Point","coordinates":[-93.659885,41.540008]},"properties":{"site_name":"Des Moines Air National Guard Base","other_site_names":"Des Moines International Airport","state":"Iowa","industry":"Military","matrix_type":"Groundwater","matrix":"Groundwater","year":2018,"pfoa":"1900","pfos":"13000","total_pfas":33000,"pfas_level":33000,"notes":"AFFF used at Des Moines ANGB/International Airport","regulation_gvt_link":"N/A","resources_link":"http://afcec.publicadmin-record.us.af.mil","suspected_source_link":"https://www.iowapublicradio.org/post/des-moines-water-works-official-says-more-testing-needed-after-pfas-found-area-military-base#stream/0","pfas_testing_link":"https://drive.google.com/file/d/1Zdm9o-ocilDpmGz8Zop64EvVU2hQ2a7M/view?usp=sharing","site_ref_link":"https://drive.google.com/drive/u/0/folders/1fkSaevn6CyXsD4tJ_giaCvBShOxiBuG2","state_ref_link":"https://drive.google.com/drive/u/1/folders/1VWrrkceI2smkvvkr-2vSvtbG91R9viaO","ObjectId":2219}},{"type":"Feature","id":2220,"geometry":{"type":"Point","coordinates":[-96.369989,42.396949]},"properties":{"site_name":"Sioux City Air National Guard Base","other_site_names":"Sioux Gateway Municipal Airport","state":"Iowa","industry":"Military","matrix_type":"Groundwater","matrix":"Groundwater","year":2018,"pfoa":"850","pfos":"7800","total_pfas":17811,"pfas_level":17811,"notes":"AFFF used at Sioux City Air National Guard Base / Sioux Gateway Municipal Airport","regulation_gvt_link":"N/A","resources_link":"https://www.iowadnr.gov/Environmental-Protection/PFAS#:~:text=Based%20on%20sampling%20data%20to,be%20lower%20at%20this%20point.","suspected_source_link":"https://www.iowapublicradio.org/post/military-report-shows-groundwater-contamination-sioux-city-national-guard-base#stream/0","pfas_testing_link":"https://drive.google.com/file/d/1qZJtzo42SsfavynxzMvqdSG8U380Hz6e/view?usp=sharing","site_ref_link":"https://drive.google.com/drive/u/1/folders/1GM59b94GGMIhOawUk4JHOsmIDYYsqMUa","state_ref_link":"https://drive.google.com/drive/u/1/folders/1VWrrkceI2smkvvkr-2vSvtbG91R9viaO","ObjectId":2220}},{"type":"Feature","id":4135,"geometry":{"type":"Point","coordinates":[-91.246669,40.808331]},"properties":{"site_name":"IOWA ARMY AMMUNITION PLANT","other_site_names":null,"state":"Iowa","industry":"Military","matrix_type":"Groundwater","matrix":"Groundwater","year":2020,"pfoa":"110","pfos":"620","total_pfas":2261,"pfas_level":2261,"notes":null,"regulation_gvt_link":"https://cumulis.epa.gov/supercpad/cursites/csitinfo.cfm?id=0700413","resources_link":"https://aec.army.mil/PFAS/IA/IAAAP/","suspected_source_link":"https://aec.army.mil/PFAS/IA/IAAAP/","pfas_testing_link":"2022 - Site Inspection Report- Per- and Polyfluoroalkyl Substances (PFAS) Iowa Army Ammunition Plant, Middletown, Iowa.pdf","site_ref_link":"Des Moines County, IA - Iowa Army Ammunition Plant - Superfund Site","state_ref_link":"IA","ObjectId":4135}},{"type":"Feature","id":4136,"geometry":{"type":"Point","coordinates":[-90.292639,41.787781]},"properties":{"site_name":"LAWRENCE TODTZ FARM","other_site_names":null,"state":"Iowa","industry":"Industry","matrix_type":"Groundwater","matrix":"Groundwater","year":2023,"pfoa":"760","pfos":"7000","total_pfas":null,"pfas_level":7000,"notes":null,"regulation_gvt_link":"https://cumulis.epa.gov/supercpad/cursites/csitinfo.cfm?id=0700039","resources_link":"https://programs.iowadnr.gov/contaminatedsites/Site/Detail/467","suspected_source_link":"2024 - EPA Supplemental Delineation Results, Lawrence Todtz Farm Landfill site, Camanche, Iowa.pdf","pfas_testing_link":"2024 - EPA Supplemental Delineation Results, Lawrence Todtz Farm Landfill site, Camanche, Iowa.pdf","site_ref_link":"Clinton County, IA - Lawrence Todtz Farm - Superfund Site","state_ref_link":"IA","ObjectId":4136}}]}