{"type":"FeatureCollection","crs":{"type":"name","properties":{"name":"EPSG:4326"}},"features":[{"type":"Feature","id":58,"geometry":{"type":"Point","coordinates":[-78.979448,35.121962]},"properties":{"site_name":"Fort Bragg","other_site_names":null,"state":"North Carolina","industry":"Military","matrix_type":"Other Water","matrix":"Drinking Water","year":2016,"pfoa":null,"pfos":null,"total_pfas":62,"pfas_level":62,"notes":null,"regulation_gvt_link":null,"resources_link":null,"suspected_source_link":null,"pfas_testing_link":"https://cdn3.ewg.org/sites/default/files/u352/EWG_PFASTable-Army_C01.pdf","site_ref_link":"https://drive.google.com/drive/u/0/folders/17vc5JX3Gvo92Bih-kg-GABnBbExIJhXg","state_ref_link":"https://drive.google.com/drive/u/0/folders/1f8gHfUbgH4w0DdeirtRLSMerU6kNJ4Ux","ObjectId":58}},{"type":"Feature","id":191,"geometry":{"type":"Point","coordinates":[-78.84053,34.842537]},"properties":{"site_name":"Fayetteville Works Plant","other_site_names":null,"state":"North Carolina","industry":"Industry","matrix_type":"Groundwater","matrix":"Groundwater","year":2018,"pfoa":null,"pfos":null,"total_pfas":4000,"pfas_level":4000,"notes":"DuPont’s Fayetteville Works Plant","regulation_gvt_link":null,"resources_link":"https://www.cleancapefear.org/new-page-3","suspected_source_link":"http://www.wral.com/news/local/story/149780/   ","pfas_testing_link":"N/A","site_ref_link":"https://drive.google.com/drive/u/0/folders/1afcCDiRWP9B8AeL56G-85UxzcHuOsnhz","state_ref_link":"https://drive.google.com/drive/u/1/folders/16T7AAwOkxy__qYXVPNxFx6KTq-cGNhgd","ObjectId":191}},{"type":"Feature","id":203,"geometry":{"type":"Point","coordinates":[-80.141669,35.418536]},"properties":{"site_name":"Stanly County Air National Guard Base","other_site_names":"Stanly County Airport","state":"North Carolina","industry":"Military","matrix_type":"Groundwater","matrix":"Groundwater","year":2017,"pfoa":"133","pfos":"852","total_pfas":5659,"pfas_level":5659,"notes":"AFFF used at Stanly County Aiport / Air National Guard Base","regulation_gvt_link":"N/A","resources_link":"http://afcec.publicadmin-record.us.af.mil/","suspected_source_link":null,"pfas_testing_link":"https://drive.google.com/file/d/1-P7-TFNrHRYmrwxhhtXSfhyJHA81B0Oo/view?usp=sharing","site_ref_link":"https://drive.google.com/drive/u/0/folders/1zgMoPMpDzuAefqwhwS188Oikes825kDu","state_ref_link":"https://drive.google.com/drive/u/0/folders/1f8gHfUbgH4w0DdeirtRLSMerU6kNJ4Ux","ObjectId":203}},{"type":"Feature","id":240,"geometry":{"type":"Point","coordinates":[-77.961532,35.340096]},"properties":{"site_name":"Seymour Johnson Air Force Base","other_site_names":null,"state":"North Carolina","industry":"Military","matrix_type":"Groundwater","matrix":"Groundwater","year":2017,"pfoa":"100,000","pfos":"300,000","total_pfas":null,"pfas_level":300000,"notes":null,"regulation_gvt_link":null,"resources_link":null,"suspected_source_link":"https://ar.afcec-cloud.af.mil/Search.aspx","pfas_testing_link":"https://drive.google.com/file/d/1IySF3dxVVPT40P5cmtjJYlY1tQ_StjNJ/view?usp=sharing","site_ref_link":null,"state_ref_link":null,"ObjectId":240}},{"type":"Feature","id":241,"geometry":{"type":"Point","coordinates":[-77.961532,35.340096]},"properties":{"site_name":"Seymour Johnson Air Force Base","other_site_names":null,"state":"North Carolina","industry":"Military","matrix_type":"Groundwater","matrix":"Groundwater","year":2017,"pfoa":"100,000","pfos":"300,000","total_pfas":null,"pfas_level":312000,"notes":"AFFF used at Seymour Johnson Air Force Base","regulation_gvt_link":"N/A","resources_link":"N/A","suspected_source_link":null,"pfas_testing_link":"https://www.seymourjohnson.af.mil/Portals/105/2018%20CCR-%20final.pdf","site_ref_link":"https://drive.google.com/drive/u/0/folders/1n1ocI6SIIkDT41vlYPc8J9_5aj5Vdwup","state_ref_link":"https://drive.google.com/drive/u/0/folders/1f8gHfUbgH4w0DdeirtRLSMerU6kNJ4Ux","ObjectId":241}},{"type":"Feature","id":639,"geometry":{"type":"Point","coordinates":[-80.92626,35.214943]},"properties":{"site_name":"Charlotte-Douglas International Airport","other_site_names":"Charlotte Air National Guard Base","state":"North Carolina","industry":"Military","matrix_type":"Groundwater","matrix":"Groundwater","year":2018,"pfoa":"4,100","pfos":"12,000","total_pfas":15670,"pfas_level":15670,"notes":"AFFF used at Charlotte-Douglas International Airport / Charlotte Air National Guard Base","regulation_gvt_link":"N/A","resources_link":"https://www.145aw.ang.af.mil/Contact-Us/PFAS-PFOA-Information/","suspected_source_link":"https://ar.afcec-cloud.af.mil/Search.aspx","pfas_testing_link":"https://drive.google.com/file/d/1dgsueIcGg9_QyJ28Q_tg-2wWIwWvAQ2u/view?usp=sharing","site_ref_link":"https://drive.google.com/drive/u/0/folders/1_s8G7ETqLlMwIDm1rLllA5sDeO_1TNFn","state_ref_link":"https://drive.google.com/drive/u/0/folders/1f8gHfUbgH4w0DdeirtRLSMerU6kNJ4Ux","ObjectId":639}},{"type":"Feature","id":661,"geometry":{"type":"Point","coordinates":[-77.361084,34.585257]},"properties":{"site_name":"Marine Corps Base Camp Lejeune","other_site_names":"Camp Lejune Military Res. (USNavy)","state":"North Carolina","industry":"Military","matrix_type":"Groundwater","matrix":"Groundwater","year":2018,"pfoa":"3,460","pfos":"35,100","total_pfas":47825,"pfas_level":47825,"notes":null,"regulation_gvt_link":null,"resources_link":null,"suspected_source_link":"https://www.navfac.navy.mil/products_and_services/ev/products_and_services/env_restoration/pfas_reading_room.html","pfas_testing_link":"https://drive.google.com/file/d/1NvlefZT3j3QyxfZpw3HlmuqiLNoT1uvH/view?usp=sharing","site_ref_link":"https://drive.google.com/drive/u/0/folders/1rWog2XzBcYoT3ZksF96cWoO5VFR1OLeG","state_ref_link":null,"ObjectId":661}},{"type":"Feature","id":792,"geometry":{"type":"Point","coordinates":[-79.935181,36.104367]},"properties":{"site_name":"Piedmont Triad International Airport","other_site_names":null,"state":"North Carolina","industry":"Airport","matrix_type":"Groundwater","matrix":"Groundwater","year":2018,"pfoa":null,"pfos":null,"total_pfas":null,"pfas_level":1001,"notes":"AFFF used at Piedmont Triad International Airport, which briefly served as the 81st RSC: E. Earle Rives AFRC [Army Air Corps] during WWII. (Wireback 3.10.18), (Sullivan 3.2018)","regulation_gvt_link":"N/A","resources_link":"https://www.greensboro-nc.gov/departments/water-resources/water-system/pfos-pfoa-updates","suspected_source_link":"https://www.greensboro.com/news/government/greensboro-links-water-contaminant-to-chemical-foam-used-in-airport/article_8e5b9ded-e38a-5888-a260-fa4b05bd4e70.html","pfas_testing_link":"https://greensboro.com/news/state/greensboro-works-on-its-pfos-problem-as-evidence-of-harm-grows/article_4c8f3064-b1a0-57df-a7f7-0847c134f571.html","site_ref_link":"https://drive.google.com/drive/u/0/folders/1mCpmzpg5yp9A2vLQ4_A6gPEptWkjxFzN","state_ref_link":"https://drive.google.com/drive/u/0/folders/1f8gHfUbgH4w0DdeirtRLSMerU6kNJ4Ux","ObjectId":792}},{"type":"Feature","id":816,"geometry":{"type":"Point","coordinates":[-78.874631,34.811333]},"properties":{"site_name":"Chemours Truck Spill","other_site_names":null,"state":"North Carolina","industry":"Industry","matrix_type":"Other Water","matrix":"Surface Water","year":2018,"pfoa":null,"pfos":null,"total_pfas":12817800,"pfas_level":12817800,"notes":"Liquid spilled from a truck transporting material for Chemours on 9/18/18","regulation_gvt_link":null,"resources_link":null,"suspected_source_link":"https://files.nc.gov/ncdeq/GenX/Data/Truck-Spill-Investigation-Figure.pdf","pfas_testing_link":"https://files.nc.gov/ncdeq/GenX/Data/Truck-Spill-Investigation-Table-final.pdf","site_ref_link":null,"state_ref_link":null,"ObjectId":816}},{"type":"Feature","id":1274,"geometry":{"type":"Point","coordinates":[-81.670228,35.336644]},"properties":{"site_name":"Environmental Soils","other_site_names":null,"state":"North Carolina","industry":"Waste","matrix_type":"Other Water","matrix":"Surface Water","year":2021,"pfoa":null,"pfos":null,"total_pfas":147,"pfas_level":147,"notes":"Environmental Soils has a state permit to accept dirt containing petroleum, such as gasoline, which is then treated and spread on roughly 40 acres of land where non-food crops are grown. ","regulation_gvt_link":null,"resources_link":null,"suspected_source_link":"http://www.ncpolicywatch.com/2021/07/27/state-officials-investigating-source-of-cleveland-county-pfas-contamination/","pfas_testing_link":null,"site_ref_link":null,"state_ref_link":null,"ObjectId":1274}},{"type":"Feature","id":1375,"geometry":{"type":"Point","coordinates":[-80.805683,35.41448]},"properties":{"site_name":"Colonial Pipeline Spill","other_site_names":null,"state":"North Carolina","industry":"AFFF","matrix_type":"Other Water","matrix":"Surface Water","year":2020,"pfoa":null,"pfos":null,"total_pfas":15,"pfas_level":15,"notes":"Colonial Pipeline sprayed a commonly used fire suppressant known as F-500 encapsulate on the contaminated land to minimize the risk that vapors from the release would ignite. However, F-500 is supposed to be PFAS-free. NC documents will not load so detection info is from linked legal ar","regulation_gvt_link":null,"resources_link":"https://deq.nc.gov/about/divisions/waste-management/underground-storage-tanks-section/colonial-pipeline-spill#data,-results-and-required-reports","suspected_source_link":"https://www.lexology.com/library/detail.aspx?g=041a4cc2-6fcc-4acb-8dc2-eff3682b74d1","pfas_testing_link":null,"site_ref_link":null,"state_ref_link":null,"ObjectId":1375}},{"type":"Feature","id":1410,"geometry":{"type":"Point","coordinates":[-81.02881,35.53139]},"properties":{"site_name":"Eagle Transport Spill","other_site_names":null,"state":"North Carolina","industry":"Other","matrix_type":"Other Water","matrix":"Drinking Water","year":2020,"pfoa":"0","pfos":null,"total_pfas":46,"pfas_level":46,"notes":"Gasoline tanker collision resulted in large amounts of AFFF runoff contaminating a nearby creek. The creek connects to the Catawba River, which is a source of water for the Belmont, NC drinking water treatment plant","regulation_gvt_link":"https://files.nc.gov/ncdeq/Environmental%20Management%20Commission/EMC%20Meetings/2020/nov2020/attachments/eagle-transport/AttachE-20-34-Memo-in-Support-of-Petition-for-Declaratory-Ruling-with-Exhibits.pdf","resources_link":"https://www.wbtv.com/2020/01/28/overturned-gasoline-tanker-closes-part-hwy/","suspected_source_link":null,"pfas_testing_link":"https://drive.google.com/file/d/1_ZJyg3vtejJXZrZ7o4XqnHzrV4fOOgX7/view?usp=sharing","site_ref_link":"https://drive.google.com/drive/u/0/folders/14798WjukGvGDcDFRw0iqbMz8HVzUKyjK","state_ref_link":"https://drive.google.com/drive/u/0/folders/1f8gHfUbgH4w0DdeirtRLSMerU6kNJ4Ux","ObjectId":1410}},{"type":"Feature","id":2018,"geometry":{"type":"Point","coordinates":[-76.349257,34.892892]},"properties":{"site_name":"MCOLF Atlantic","other_site_names":null,"state":"North Carolina","industry":"Military","matrix_type":"Groundwater","matrix":"Groundwater","year":null,"pfoa":null,"pfos":null,"total_pfas":null,"pfas_level":70,"notes":"AFFF used at MCOLF Atlantic","regulation_gvt_link":"https://www.navfac.navy.mil/products_and_services/ev/products_and_services/env_restoration/installation_map/navfac_atlantic/midlant/cherry_point/mcolf_atlantic_pfas.html","resources_link":"https://www.navfac.navy.mil/products_and_services/ev/products_and_services/env_restoration/installation_map/navfac_atlantic/midlant/cherry_point/mcolf_atlantic_pfas.html","suspected_source_link":"https://www.navfac.navy.mil/products_and_services/ev/products_and_services/env_restoration/installation_map/navfac_atlantic/midlant/cherry_point/mcolf_atlantic_pfas.html","pfas_testing_link":"https://www.navfac.navy.mil/content/dam/navfac/Environmental/PDFs/env_restoration/MCBCherryPoint/2018.02.12_Off-base_sampling_FactSheet_MCOLFAtlantic.pdf","site_ref_link":"https://drive.google.com/drive/u/0/folders/12sz-qPMFJWIHG9xdw7XPMV-ltiRBN5Dm","state_ref_link":"https://drive.google.com/drive/u/0/folders/1f8gHfUbgH4w0DdeirtRLSMerU6kNJ4Ux","ObjectId":2018}},{"type":"Feature","id":2051,"geometry":{"type":"Point","coordinates":[-76.906345,34.883102]},"properties":{"site_name":"Cherry Point Marine Corps Air Station","other_site_names":null,"state":"North Carolina","industry":"Military","matrix_type":"Groundwater","matrix":"Groundwater","year":null,"pfoa":"142","pfos":"221","total_pfas":null,"pfas_level":221,"notes":null,"regulation_gvt_link":null,"resources_link":"https://cumulis.epa.gov/supercpad/SiteProfiles/index.cfm?fuseaction=second.docdata&id=0403174","suspected_source_link":"https://www.epw.senate.gov/public/index.cfm/superfund-sites-identified-by-epa-to-have-pfas-contamination","pfas_testing_link":"https://www.agri-pulse.com/ext/resources/pdfs/congress/STATUS-OF-NOTIFICATIONS-TO-AGRICULTURAL-OPERATIONS-PURSUANT-TO-SECTION-335-OF-THE-FISCAL-YEAR-2021-NATIONAL-DEFENSE-AUTHORIZATION-ACT-1.pdf","site_ref_link":null,"state_ref_link":null,"ObjectId":2051}},{"type":"Feature","id":2368,"geometry":{"type":"Point","coordinates":[-78.84053,34.842537]},"properties":{"site_name":"Fayetteville Works Plant","other_site_names":null,"state":"North Carolina","industry":"Industry","matrix_type":"Groundwater","matrix":"Groundwater","year":2018,"pfoa":null,"pfos":null,"total_pfas":4000,"pfas_level":4000,"notes":"DuPont’s Fayetteville Works Plant","regulation_gvt_link":null,"resources_link":"https://www.cleancapefear.org/new-page-3","suspected_source_link":"http://www.wral.com/news/local/story/149780/   ","pfas_testing_link":"N/A","site_ref_link":"https://drive.google.com/drive/u/0/folders/1afcCDiRWP9B8AeL56G-85UxzcHuOsnhz","state_ref_link":"https://drive.google.com/drive/u/1/folders/16T7AAwOkxy__qYXVPNxFx6KTq-cGNhgd","ObjectId":2368}},{"type":"Feature","id":2369,"geometry":{"type":"Point","coordinates":[-76.349257,34.892892]},"properties":{"site_name":"MCOLF Atlantic","other_site_names":null,"state":"North Carolina","industry":"Military","matrix_type":"Groundwater","matrix":"Groundwater","year":null,"pfoa":null,"pfos":null,"total_pfas":null,"pfas_level":70,"notes":"AFFF used at MCOLF Atlantic","regulation_gvt_link":"https://www.navfac.navy.mil/products_and_services/ev/products_and_services/env_restoration/installation_map/navfac_atlantic/midlant/cherry_point/mcolf_atlantic_pfas.html","resources_link":"https://www.navfac.navy.mil/products_and_services/ev/products_and_services/env_restoration/installation_map/navfac_atlantic/midlant/cherry_point/mcolf_atlantic_pfas.html","suspected_source_link":"https://www.navfac.navy.mil/products_and_services/ev/products_and_services/env_restoration/installation_map/navfac_atlantic/midlant/cherry_point/mcolf_atlantic_pfas.html","pfas_testing_link":"https://www.navfac.navy.mil/content/dam/navfac/Environmental/PDFs/env_restoration/MCBCherryPoint/2018.02.12_Off-base_sampling_FactSheet_MCOLFAtlantic.pdf","site_ref_link":"https://drive.google.com/drive/u/0/folders/12sz-qPMFJWIHG9xdw7XPMV-ltiRBN5Dm","state_ref_link":"https://drive.google.com/drive/u/0/folders/1f8gHfUbgH4w0DdeirtRLSMerU6kNJ4Ux","ObjectId":2369}},{"type":"Feature","id":2370,"geometry":{"type":"Point","coordinates":[-79.935181,36.104367]},"properties":{"site_name":"Piedmont Triad International Airport","other_site_names":null,"state":"North Carolina","industry":"Airport","matrix_type":"Groundwater","matrix":"Groundwater","year":2018,"pfoa":null,"pfos":null,"total_pfas":null,"pfas_level":1001,"notes":"AFFF used at Piedmont Triad International Airport, which briefly served as the 81st RSC: E. Earle Rives AFRC [Army Air Corps] during WWII. (Wireback 3.10.18), (Sullivan 3.2018)","regulation_gvt_link":"N/A","resources_link":"https://www.greensboro-nc.gov/departments/water-resources/water-system/pfos-pfoa-updates","suspected_source_link":"https://www.greensboro.com/news/government/greensboro-links-water-contaminant-to-chemical-foam-used-in-airport/article_8e5b9ded-e38a-5888-a260-fa4b05bd4e70.html","pfas_testing_link":"https://greensboro.com/news/state/greensboro-works-on-its-pfos-problem-as-evidence-of-harm-grows/article_4c8f3064-b1a0-57df-a7f7-0847c134f571.html","site_ref_link":"https://drive.google.com/drive/u/0/folders/1mCpmzpg5yp9A2vLQ4_A6gPEptWkjxFzN","state_ref_link":"https://drive.google.com/drive/u/0/folders/1f8gHfUbgH4w0DdeirtRLSMerU6kNJ4Ux","ObjectId":2370}},{"type":"Feature","id":2371,"geometry":{"type":"Point","coordinates":[-80.92626,35.214943]},"properties":{"site_name":"Charlotte-Douglas International Airport","other_site_names":"Charlotte Air National Guard Base","state":"North Carolina","industry":"Military","matrix_type":"Groundwater","matrix":"Groundwater","year":2018,"pfoa":"4100","pfos":"12000","total_pfas":15670,"pfas_level":15670,"notes":"AFFF used at Charlotte-Douglas International Airport / Charlotte Air National Guard Base","regulation_gvt_link":"N/A","resources_link":"https://www.145aw.ang.af.mil/Contact-Us/PFAS-PFOA-Information/","suspected_source_link":"https://ar.afcec-cloud.af.mil/Search.aspx","pfas_testing_link":"https://drive.google.com/file/d/1dgsueIcGg9_QyJ28Q_tg-2wWIwWvAQ2u/view?usp=sharing","site_ref_link":"https://drive.google.com/drive/u/0/folders/1_s8G7ETqLlMwIDm1rLllA5sDeO_1TNFn","state_ref_link":"https://drive.google.com/drive/u/0/folders/1f8gHfUbgH4w0DdeirtRLSMerU6kNJ4Ux","ObjectId":2371}},{"type":"Feature","id":2372,"geometry":{"type":"Point","coordinates":[-77.961532,35.340096]},"properties":{"site_name":"Seymour Johnson Air Force Base","other_site_names":null,"state":"North Carolina","industry":"Military","matrix_type":"Groundwater","matrix":"Groundwater","year":2017,"pfoa":"100000","pfos":"300000","total_pfas":null,"pfas_level":312000,"notes":"AFFF used at Seymour Johnson Air Force Base","regulation_gvt_link":"N/A","resources_link":"N/A","suspected_source_link":null,"pfas_testing_link":"https://www.seymourjohnson.af.mil/Portals/105/2018%20CCR-%20final.pdf","site_ref_link":"https://drive.google.com/drive/u/0/folders/1n1ocI6SIIkDT41vlYPc8J9_5aj5Vdwup","state_ref_link":"https://drive.google.com/drive/u/0/folders/1f8gHfUbgH4w0DdeirtRLSMerU6kNJ4Ux","ObjectId":2372}},{"type":"Feature","id":2373,"geometry":{"type":"Point","coordinates":[-80.141669,35.418536]},"properties":{"site_name":"Stanly County Air National Guard Base","other_site_names":"Stanly County Airport","state":"North Carolina","industry":"Military","matrix_type":"Groundwater","matrix":"Groundwater","year":2017,"pfoa":"133","pfos":"852","total_pfas":5659,"pfas_level":5659,"notes":"AFFF used at Stanly County Aiport / Air National Guard Base","regulation_gvt_link":"N/A","resources_link":"http://afcec.publicadmin-record.us.af.mil/","suspected_source_link":null,"pfas_testing_link":"https://drive.google.com/file/d/1-P7-TFNrHRYmrwxhhtXSfhyJHA81B0Oo/view?usp=sharing","site_ref_link":"https://drive.google.com/drive/u/0/folders/1zgMoPMpDzuAefqwhwS188Oikes825kDu","state_ref_link":"https://drive.google.com/drive/u/0/folders/1f8gHfUbgH4w0DdeirtRLSMerU6kNJ4Ux","ObjectId":2373}},{"type":"Feature","id":2585,"geometry":{"type":"Point","coordinates":[-78.979448,35.121962]},"properties":{"site_name":"Fort Bragg","other_site_names":null,"state":"North Carolina","industry":"Military","matrix_type":"Other Water","matrix":"Drinking Water","year":2016,"pfoa":null,"pfos":null,"total_pfas":62,"pfas_level":62,"notes":null,"regulation_gvt_link":null,"resources_link":null,"suspected_source_link":null,"pfas_testing_link":"https://cdn3.ewg.org/sites/default/files/u352/EWG_PFASTable-Army_C01.pdf","site_ref_link":"https://drive.google.com/drive/u/0/folders/17vc5JX3Gvo92Bih-kg-GABnBbExIJhXg","state_ref_link":"https://drive.google.com/drive/u/0/folders/1f8gHfUbgH4w0DdeirtRLSMerU6kNJ4Ux","ObjectId":2585}},{"type":"Feature","id":2883,"geometry":{"type":"Point","coordinates":[-76.906345,34.883102]},"properties":{"site_name":"Cherry Point Marine Corps Air Station","other_site_names":null,"state":"North Carolina","industry":"Military","matrix_type":"Groundwater","matrix":"Groundwater","year":null,"pfoa":"142","pfos":"221","total_pfas":null,"pfas_level":221,"notes":null,"regulation_gvt_link":null,"resources_link":"https://cumulis.epa.gov/supercpad/SiteProfiles/index.cfm?fuseaction=second.docdata&id=0403174","suspected_source_link":"https://www.epw.senate.gov/public/index.cfm/superfund-sites-identified-by-epa-to-have-pfas-contamination","pfas_testing_link":"https://www.agri-pulse.com/ext/resources/pdfs/congress/STATUS-OF-NOTIFICATIONS-TO-AGRICULTURAL-OPERATIONS-PURSUANT-TO-SECTION-335-OF-THE-FISCAL-YEAR-2021-NATIONAL-DEFENSE-AUTHORIZATION-ACT-1.pdf","site_ref_link":null,"state_ref_link":null,"ObjectId":2883}},{"type":"Feature","id":2884,"geometry":{"type":"Point","coordinates":[-80.805683,35.41448]},"properties":{"site_name":"Colonial Pipeline Spill","other_site_names":null,"state":"North Carolina","industry":"AFFF","matrix_type":"Other Water","matrix":"Surface Water","year":2020,"pfoa":null,"pfos":null,"total_pfas":15,"pfas_level":15,"notes":"Colonial Pipeline sprayed a commonly used fire suppressant known as F-500 encapsulate on the contaminated land to minimize the risk that vapors from the release would ignite. However, F-500 is supposed to be PFAS-free. NC documents will not load so detection info is from linked legal ar","regulation_gvt_link":null,"resources_link":"https://deq.nc.gov/about/divisions/waste-management/underground-storage-tanks-section/colonial-pipeline-spill#data,-results-and-required-reports","suspected_source_link":"https://www.lexology.com/library/detail.aspx?g=041a4cc2-6fcc-4acb-8dc2-eff3682b74d1","pfas_testing_link":null,"site_ref_link":null,"state_ref_link":null,"ObjectId":2884}},{"type":"Feature","id":2885,"geometry":{"type":"Point","coordinates":[-78.874631,34.811333]},"properties":{"site_name":"Chemours Truck Spill","other_site_names":null,"state":"North Carolina","industry":"Industry","matrix_type":"Other Water","matrix":"Surface Water","year":2018,"pfoa":null,"pfos":null,"total_pfas":12817800,"pfas_level":12817800,"notes":"Liquid spilled from a truck transporting material for Chemours on 9/18/18","regulation_gvt_link":null,"resources_link":null,"suspected_source_link":"https://files.nc.gov/ncdeq/GenX/Data/Truck-Spill-Investigation-Figure.pdf","pfas_testing_link":"https://files.nc.gov/ncdeq/GenX/Data/Truck-Spill-Investigation-Table-final.pdf","site_ref_link":null,"state_ref_link":null,"ObjectId":2885}},{"type":"Feature","id":2886,"geometry":{"type":"Point","coordinates":[-81.670228,35.336644]},"properties":{"site_name":"Environmental Soils","other_site_names":null,"state":"North Carolina","industry":"Waste","matrix_type":"Other Water","matrix":"Surface Water","year":2021,"pfoa":null,"pfos":null,"total_pfas":147,"pfas_level":147,"notes":"Environmental Soils has a state permit to accept dirt containing petroleum, such as gasoline, which is then treated and spread on roughly 40 acres of land where non-food crops are grown. ","regulation_gvt_link":null,"resources_link":null,"suspected_source_link":"http://www.ncpolicywatch.com/2021/07/27/state-officials-investigating-source-of-cleveland-county-pfas-contamination/","pfas_testing_link":null,"site_ref_link":null,"state_ref_link":null,"ObjectId":2886}},{"type":"Feature","id":2927,"geometry":{"type":"Point","coordinates":[-77.361084,34.585257]},"properties":{"site_name":"Marine Corps Base Camp Lejeune","other_site_names":"Camp Lejune Military Res. (USNavy)","state":"North Carolina","industry":"Military","matrix_type":"Groundwater","matrix":"Groundwater","year":2018,"pfoa":"3460","pfos":"35100","total_pfas":47825,"pfas_level":47825,"notes":null,"regulation_gvt_link":null,"resources_link":null,"suspected_source_link":"https://www.navfac.navy.mil/products_and_services/ev/products_and_services/env_restoration/pfas_reading_room.html","pfas_testing_link":"https://drive.google.com/file/d/1NvlefZT3j3QyxfZpw3HlmuqiLNoT1uvH/view?usp=sharing","site_ref_link":"https://drive.google.com/drive/u/0/folders/1rWog2XzBcYoT3ZksF96cWoO5VFR1OLeG","state_ref_link":null,"ObjectId":2927}},{"type":"Feature","id":2957,"geometry":{"type":"Point","coordinates":[-77.961532,35.340096]},"properties":{"site_name":"Seymour Johnson Air Force Base","other_site_names":null,"state":"North Carolina","industry":"Military","matrix_type":"Groundwater","matrix":"Groundwater","year":2017,"pfoa":"100000","pfos":"300000","total_pfas":null,"pfas_level":300000,"notes":null,"regulation_gvt_link":null,"resources_link":null,"suspected_source_link":"https://ar.afcec-cloud.af.mil/Search.aspx","pfas_testing_link":"https://drive.google.com/file/d/1IySF3dxVVPT40P5cmtjJYlY1tQ_StjNJ/view?usp=sharing","site_ref_link":null,"state_ref_link":null,"ObjectId":2957}},{"type":"Feature","id":3307,"geometry":{"type":"Point","coordinates":[-81.02881,35.53139]},"properties":{"site_name":"Eagle Transport Spill","other_site_names":null,"state":"North Carolina","industry":"Other","matrix_type":"Other Water","matrix":"Drinking Water","year":2020,"pfoa":"0","pfos":null,"total_pfas":46,"pfas_level":46,"notes":"Gasoline tanker collision resulted in large amounts of AFFF runoff contaminating a nearby creek. The creek connects to the Catawba River, which is a source of water for the Belmont, NC drinking water treatment plant","regulation_gvt_link":"https://files.nc.gov/ncdeq/Environmental%20Management%20Commission/EMC%20Meetings/2020/nov2020/attachments/eagle-transport/AttachE-20-34-Memo-in-Support-of-Petition-for-Declaratory-Ruling-with-Exhibits.pdf","resources_link":"https://www.wbtv.com/2020/01/28/overturned-gasoline-tanker-closes-part-hwy/","suspected_source_link":null,"pfas_testing_link":"https://drive.google.com/file/d/1_ZJyg3vtejJXZrZ7o4XqnHzrV4fOOgX7/view?usp=sharing","site_ref_link":"https://drive.google.com/drive/u/0/folders/14798WjukGvGDcDFRw0iqbMz8HVzUKyjK","state_ref_link":"https://drive.google.com/drive/u/0/folders/1f8gHfUbgH4w0DdeirtRLSMerU6kNJ4Ux","ObjectId":3307}},{"type":"Feature","id":4266,"geometry":{"type":"Point","coordinates":[-80.31027,36.03893]},"properties":{"site_name":"Archie Elledge Wastewater Treatment Plant","other_site_names":null,"state":"North Carolina","industry":"WWTP","matrix_type":"Other Water","matrix":"Surface Water","year":2023,"pfoa":"13","pfos":"6","total_pfas":140,"pfas_level":140,"notes":"PFAS were measured as part of WWTP testing by North Carolina Department of Environmental Quality conducted in 2023","regulation_gvt_link":"https://www.deq.nc.gov/water-resources/2023-deq-study-wastewater-and-biosolids-analytical-results","resources_link":"https://www.cityofws.org/1290/Wastewater-Treatment","suspected_source_link":"https://docs.google.com/spreadsheets/d/1XLVSaKdXzeXMeTRnh4xtGjaZgJSSpUDc/edit?usp=drive_link&ouid=102602986467374778491&rtpof=true&sd=true","pfas_testing_link":"https://docs.google.com/spreadsheets/d/1XLVSaKdXzeXMeTRnh4xtGjaZgJSSpUDc/edit?usp=drive_link&ouid=102602986467374778491&rtpof=true&sd=true","site_ref_link":"https://drive.google.com/drive/folders/1A5j6thOAxzhqEE2qq4l95nX6rb_aqE23?usp=drive_link","state_ref_link":"https://drive.google.com/drive/folders/1GpQzPjkrJ3An_iokydG5HOVStL7kSHL2?usp=drive_link","ObjectId":4266}},{"type":"Feature","id":4267,"geometry":{"type":"Point","coordinates":[-79.786697,35.764993]},"properties":{"site_name":"Asheboro Wastewater Treatment Plant","other_site_names":null,"state":"North Carolina","industry":"WWTP","matrix_type":"Other Water","matrix":"Surface Water","year":2023,"pfoa":"15","pfos":"14","total_pfas":44,"pfas_level":44,"notes":"Influent higher than effluent values for PFOS sampling on 5/4/23. PFAS were measured as part of WWTP testing by North Carolina Department of Environmental Quality conducted in 2023","regulation_gvt_link":"https://www.deq.nc.gov/water-resources/2023-deq-study-wastewater-and-biosolids-analytical-results","resources_link":"https://www.asheboronc.gov/government/departments/water_resources/wastewater_treatment.php","suspected_source_link":"https://docs.google.com/spreadsheets/d/1XLVSaKdXzeXMeTRnh4xtGjaZgJSSpUDc/edit?usp=drive_link&ouid=102602986467374778491&rtpof=true&sd=true","pfas_testing_link":"https://docs.google.com/spreadsheets/d/1XLVSaKdXzeXMeTRnh4xtGjaZgJSSpUDc/edit?usp=drive_link&ouid=102602986467374778491&rtpof=true&sd=true","site_ref_link":"https://drive.google.com/drive/folders/1LZogAH7ViUjI_aZwKJvEQt0JEqH9zP_u?usp=drive_link","state_ref_link":"https://drive.google.com/drive/folders/1GpQzPjkrJ3An_iokydG5HOVStL7kSHL2?usp=drive_link","ObjectId":4267}},{"type":"Feature","id":4268,"geometry":{"type":"Point","coordinates":[-79.21756,35.5465]},"properties":{"site_name":"Big Buffalo Wastewater Treatment Plant","other_site_names":null,"state":"North Carolina","industry":"WWTP","matrix_type":"Other Water","matrix":"Surface Water","year":2023,"pfoa":"18","pfos":"16","total_pfas":182,"pfas_level":182,"notes":"PFAS were measured as part of WWTP testing by North Carolina Department of Environmental Quality conducted in 2023","regulation_gvt_link":"https://www.deq.nc.gov/water-resources/2023-deq-study-wastewater-and-biosolids-analytical-results","resources_link":"https://www.tririverwater.com/285/Big-Buffalo-Wastewater-Treatment-Process","suspected_source_link":"https://docs.google.com/spreadsheets/d/1XLVSaKdXzeXMeTRnh4xtGjaZgJSSpUDc/edit?usp=drive_link&ouid=102602986467374778491&rtpof=true&sd=true","pfas_testing_link":"https://docs.google.com/spreadsheets/d/1XLVSaKdXzeXMeTRnh4xtGjaZgJSSpUDc/edit?usp=drive_link&ouid=102602986467374778491&rtpof=true&sd=true","site_ref_link":"https://drive.google.com/drive/folders/1DMkiKx7gf8yRI7rCy2VAtZGHmfdxRvE-?usp=drive_link","state_ref_link":"https://drive.google.com/drive/folders/1GpQzPjkrJ3An_iokydG5HOVStL7kSHL2?usp=drive_link","ObjectId":4268}},{"type":"Feature","id":4269,"geometry":{"type":"Point","coordinates":[-77.91132,34.031786]},"properties":{"site_name":"Carolina Beach Wastewater Treatment Plant","other_site_names":null,"state":"North Carolina","industry":"WWTP","matrix_type":"Other Water","matrix":"Surface Water","year":2023,"pfoa":"9","pfos":"12","total_pfas":141,"pfas_level":141,"notes":"Influent higher than effluent for PFOS 5/11/23 sample. PFAS were measured as part of WWTP testing by North Carolina Department of Environmental Quality conducted in 2023","regulation_gvt_link":"https://www.deq.nc.gov/water-resources/2023-deq-study-wastewater-and-biosolids-analytical-results","resources_link":"https://www.deq.nc.gov/news/events/carolina-beach-wwtp-permit-nc0023256","suspected_source_link":"https://docs.google.com/spreadsheets/d/1XLVSaKdXzeXMeTRnh4xtGjaZgJSSpUDc/edit?usp=drive_link&ouid=102602986467374778491&rtpof=true&sd=true","pfas_testing_link":"https://docs.google.com/spreadsheets/d/1XLVSaKdXzeXMeTRnh4xtGjaZgJSSpUDc/edit?usp=drive_link&ouid=102602986467374778491&rtpof=true&sd=true","site_ref_link":"https://drive.google.com/drive/folders/1yUWCL8RxTpY8i7Vt1RoBgcGI8QXPD9nv?usp=drive_link","state_ref_link":"https://drive.google.com/drive/folders/1GpQzPjkrJ3An_iokydG5HOVStL7kSHL2?usp=drive_link","ObjectId":4269}},{"type":"Feature","id":4270,"geometry":{"type":"Point","coordinates":[-79.087332,35.41707]},"properties":{"site_name":"Carolina Trace Wastewater Treatment Plant","other_site_names":"Carolina Water Services Inc of NC","state":"North Carolina","industry":"WWTP","matrix_type":"Other Water","matrix":"Surface Water","year":2023,"pfoa":"28","pfos":"20","total_pfas":137,"pfas_level":137,"notes":"PFAS were measured as part of WWTP testing by North Carolina Department of Environmental Quality conducted in 2023","regulation_gvt_link":"https://www.deq.nc.gov/water-resources/2023-deq-study-wastewater-and-biosolids-analytical-results","resources_link":"https://www.deq.nc.gov/news/events/notice-intent-issue-npdes-wastewater-permit-nc0038831-carolina-trace-wwtp","suspected_source_link":"https://docs.google.com/spreadsheets/d/1XLVSaKdXzeXMeTRnh4xtGjaZgJSSpUDc/edit?usp=drive_link&ouid=102602986467374778491&rtpof=true&sd=true","pfas_testing_link":"https://docs.google.com/spreadsheets/d/1XLVSaKdXzeXMeTRnh4xtGjaZgJSSpUDc/edit?usp=drive_link&ouid=102602986467374778491&rtpof=true&sd=true","site_ref_link":"https://drive.google.com/drive/folders/18HXx999ptkyaFvPf4Hzcmii-eahfKqvX?usp=drive_link","state_ref_link":"https://drive.google.com/drive/folders/1GpQzPjkrJ3An_iokydG5HOVStL7kSHL2?usp=drive_link","ObjectId":4270}},{"type":"Feature","id":4271,"geometry":{"type":"Point","coordinates":[-76.89997,34.894493]},"properties":{"site_name":"Cherry Point Wastewater Treatment Plant","other_site_names":"US MCAS Cherry Point (MCALF-Atlantic)","state":"North Carolina","industry":"WWTP","matrix_type":"Other Water","matrix":"Surface Water","year":2023,"pfoa":"48","pfos":"97","total_pfas":567,"pfas_level":567,"notes":"Influent levels higher than effluent for sampling data 6/20/23. PFAS were measured as part of WWTP testing by North Carolina Department of Environmental Quality conducted in 2023","regulation_gvt_link":"https://www.deq.nc.gov/water-resources/2023-deq-study-wastewater-and-biosolids-analytical-results","resources_link":"https://www.cherrypoint.marines.mil/Staff/Environmental-Affairs/Wastewater/","suspected_source_link":"https://docs.google.com/spreadsheets/d/1XLVSaKdXzeXMeTRnh4xtGjaZgJSSpUDc/edit?usp=drive_link&ouid=102602986467374778491&rtpof=true&sd=true","pfas_testing_link":"https://docs.google.com/spreadsheets/d/1XLVSaKdXzeXMeTRnh4xtGjaZgJSSpUDc/edit?usp=drive_link&ouid=102602986467374778491&rtpof=true&sd=true","site_ref_link":"https://drive.google.com/drive/folders/1DkcSglJ6THcnIPcGICXHYulM-HiknO4Q?usp=drive_link","state_ref_link":"https://drive.google.com/drive/folders/1GpQzPjkrJ3An_iokydG5HOVStL7kSHL2?usp=drive_link","ObjectId":4271}},{"type":"Feature","id":4272,"geometry":{"type":"Point","coordinates":[-78.85926,35.05935]},"properties":{"site_name":"Cross Creek Wastewater Treatment Plant","other_site_names":"Fayetteville Public Works Commission","state":"North Carolina","industry":"WWTP","matrix_type":"Other Water","matrix":"Surface Water","year":2023,"pfoa":"12","pfos":"21","total_pfas":176,"pfas_level":176,"notes":"PFAS were measured as part of WWTP testing by North Carolina Department of Environmental Quality conducted in 2023","regulation_gvt_link":"https://www.deq.nc.gov/water-resources/2023-deq-study-wastewater-and-biosolids-analytical-results","resources_link":"https://www.faypwc.com/sewer-facilities/","suspected_source_link":"https://docs.google.com/spreadsheets/d/1XLVSaKdXzeXMeTRnh4xtGjaZgJSSpUDc/edit?usp=drive_link&ouid=102602986467374778491&rtpof=true&sd=true","pfas_testing_link":"https://docs.google.com/spreadsheets/d/1XLVSaKdXzeXMeTRnh4xtGjaZgJSSpUDc/edit?usp=drive_link&ouid=102602986467374778491&rtpof=true&sd=true","site_ref_link":"https://drive.google.com/drive/folders/1RW1rfc4RuVOXULYbGzWDXGv1b6tQqAgU?usp=drive_link","state_ref_link":"https://drive.google.com/drive/folders/1GpQzPjkrJ3An_iokydG5HOVStL7kSHL2?usp=drive_link","ObjectId":4272}},{"type":"Feature","id":4273,"geometry":{"type":"Point","coordinates":[-78.782219,34.977771]},"properties":{"site_name":"Dak Americas Cedar Creek Site","other_site_names":null,"state":"North Carolina","industry":"WWTP","matrix_type":"Other Water","matrix":"Surface Water","year":2023,"pfoa":"14","pfos":"25","total_pfas":562,"pfas_level":562,"notes":"PFAS were measured as part of WWTP testing by North Carolina Department of Environmental Quality conducted in 2023","regulation_gvt_link":"https://www.deq.nc.gov/water-resources/2023-deq-study-wastewater-and-biosolids-analytical-results","resources_link":"https://www.deq.nc.gov/news/events/epa-comment-period-dak-americas-llc-cedar-creek-site","suspected_source_link":"https://docs.google.com/spreadsheets/d/1XLVSaKdXzeXMeTRnh4xtGjaZgJSSpUDc/edit?usp=drive_link&ouid=102602986467374778491&rtpof=true&sd=true","pfas_testing_link":"https://docs.google.com/spreadsheets/d/1XLVSaKdXzeXMeTRnh4xtGjaZgJSSpUDc/edit?usp=drive_link&ouid=102602986467374778491&rtpof=true&sd=true","site_ref_link":"https://drive.google.com/drive/folders/1XXDUWUiswqBov5KiOrh7dH_4Qin1tPfM?usp=drive_link","state_ref_link":"https://drive.google.com/drive/folders/1GpQzPjkrJ3An_iokydG5HOVStL7kSHL2?usp=drive_link","ObjectId":4273}},{"type":"Feature","id":4274,"geometry":{"type":"Point","coordinates":[-79.377757,36.09494]},"properties":{"site_name":"East Burlington Wastewater Treatment Plant ","other_site_names":null,"state":"North Carolina","industry":"WWTP","matrix_type":"Other Water","matrix":"Surface Water","year":2023,"pfoa":"49","pfos":"40","total_pfas":421,"pfas_level":421,"notes":"PFAS were measured as part of WWTP testing by North Carolina Department of Environmental Quality conducted in 2023","regulation_gvt_link":"https://www.deq.nc.gov/water-resources/2023-deq-study-wastewater-and-biosolids-analytical-results","resources_link":"https://www.burlingtonnc.gov/102/East-Burlington-Wastewater","suspected_source_link":"https://docs.google.com/spreadsheets/d/1XLVSaKdXzeXMeTRnh4xtGjaZgJSSpUDc/edit?usp=drive_link&ouid=102602986467374778491&rtpof=true&sd=true","pfas_testing_link":"https://docs.google.com/spreadsheets/d/1XLVSaKdXzeXMeTRnh4xtGjaZgJSSpUDc/edit?usp=drive_link&ouid=102602986467374778491&rtpof=true&sd=true","site_ref_link":"https://drive.google.com/drive/folders/1JFOIViRuwI9-QEcHT3sXfllZBsoX-O70?usp=drive_link","state_ref_link":"https://drive.google.com/drive/folders/1GpQzPjkrJ3An_iokydG5HOVStL7kSHL2?usp=drive_link","ObjectId":4274}},{"type":"Feature","id":4275,"geometry":{"type":"Point","coordinates":[-79.90952,35.9424]},"properties":{"site_name":"East Side Wastewater Treatment Plant","other_site_names":null,"state":"North Carolina","industry":"WWTP","matrix_type":"Other Water","matrix":"Surface Water","year":2023,"pfoa":"13","pfos":"19","total_pfas":138,"pfas_level":138,"notes":"Influent level higher than effluent for sampling 5/4/23 PFOS. PFAS were measured as part of WWTP testing by North Carolina Department of Environmental Quality conducted in 2023","regulation_gvt_link":"https://www.deq.nc.gov/water-resources/2023-deq-study-wastewater-and-biosolids-analytical-results","resources_link":"https://www.highpointnc.gov/769/Eastside-Wastewater-Plant","suspected_source_link":"https://docs.google.com/spreadsheets/d/1XLVSaKdXzeXMeTRnh4xtGjaZgJSSpUDc/edit?usp=drive_link&ouid=102602986467374778491&rtpof=true&sd=true","pfas_testing_link":"https://docs.google.com/spreadsheets/d/1XLVSaKdXzeXMeTRnh4xtGjaZgJSSpUDc/edit?usp=drive_link&ouid=102602986467374778491&rtpof=true&sd=true","site_ref_link":"https://drive.google.com/drive/folders/1VosbS69YnZTmcfkP1YyG9eTE4ClrS8LP?usp=drive_link","state_ref_link":"https://drive.google.com/drive/folders/1GpQzPjkrJ3An_iokydG5HOVStL7kSHL2?usp=drive_link","ObjectId":4275}},{"type":"Feature","id":4276,"geometry":{"type":"Point","coordinates":[-77.326898,34.643593]},"properties":{"site_name":"Frenches Creek Advanced Wastewater Treatment Plant","other_site_names":"Marine Corps Base Camp Lejeune","state":"North Carolina","industry":"WWTP","matrix_type":"Other Water","matrix":"Surface Water","year":2023,"pfoa":"13","pfos":"38","total_pfas":379,"pfas_level":379,"notes":"PFAS were measured as part of WWTP testing by North Carolina Department of Environmental Quality conducted in 2023","regulation_gvt_link":"https://www.deq.nc.gov/water-resources/2023-deq-study-wastewater-and-biosolids-analytical-results","resources_link":"https://www.lejeune.marines.mil/","suspected_source_link":"https://docs.google.com/spreadsheets/d/1XLVSaKdXzeXMeTRnh4xtGjaZgJSSpUDc/edit?usp=drive_link&ouid=102602986467374778491&rtpof=true&sd=true","pfas_testing_link":"https://docs.google.com/spreadsheets/d/1XLVSaKdXzeXMeTRnh4xtGjaZgJSSpUDc/edit?usp=drive_link&ouid=102602986467374778491&rtpof=true&sd=true","site_ref_link":"https://drive.google.com/drive/folders/1t9znKAlJOaEfg5YsSNOQIoh8Cxck-m-r?usp=drive_link","state_ref_link":"https://drive.google.com/drive/folders/1GpQzPjkrJ3An_iokydG5HOVStL7kSHL2?usp=drive_link","ObjectId":4276}},{"type":"Feature","id":4277,"geometry":{"type":"Point","coordinates":[-77.99972,35.336104]},"properties":{"site_name":"Goldsboro Wastewater Treatment Plant","other_site_names":null,"state":"North Carolina","industry":"WWTP","matrix_type":"Other Water","matrix":"Surface Water","year":2023,"pfoa":"11","pfos":"43","total_pfas":166,"pfas_level":166,"notes":"PFAS were measured as part of WWTP testing by North Carolina Department of Environmental Quality conducted in 2023","regulation_gvt_link":"https://www.deq.nc.gov/water-resources/2023-deq-study-wastewater-and-biosolids-analytical-results","resources_link":"https://www.goldsboronc.gov/department/public_utilities","suspected_source_link":"https://docs.google.com/spreadsheets/d/1XLVSaKdXzeXMeTRnh4xtGjaZgJSSpUDc/edit?usp=drive_link&ouid=102602986467374778491&rtpof=true&sd=true","pfas_testing_link":"https://docs.google.com/spreadsheets/d/1XLVSaKdXzeXMeTRnh4xtGjaZgJSSpUDc/edit?usp=drive_link&ouid=102602986467374778491&rtpof=true&sd=true","site_ref_link":"https://drive.google.com/drive/folders/1gCpuoXUwRclUvEITR5p8VOlk9p8sl7Of?usp=drive_link","state_ref_link":"https://drive.google.com/drive/folders/1GpQzPjkrJ3An_iokydG5HOVStL7kSHL2?usp=drive_link","ObjectId":4277}},{"type":"Feature","id":4278,"geometry":{"type":"Point","coordinates":[-77.860598,35.017493]},"properties":{"site_name":"Lear Corporation Wastewater Treatment Plant","other_site_names":null,"state":"North Carolina","industry":"WWTP","matrix_type":"Other Water","matrix":"Surface Water","year":2023,"pfoa":"50","pfos":"15","total_pfas":1475,"pfas_level":1475,"notes":"PFAS were measured as part of WWTP testing by North Carolina Department of Environmental Quality conducted in 2023","regulation_gvt_link":"https://www.deq.nc.gov/water-resources/2023-deq-study-wastewater-and-biosolids-analytical-results","resources_link":"https://www.deq.nc.gov/news/events/public-comment-period-extended-lear-corporation-wwtp-permit-nc0002305-notice-intent-issue-npdes","suspected_source_link":"https://docs.google.com/spreadsheets/d/1XLVSaKdXzeXMeTRnh4xtGjaZgJSSpUDc/edit?usp=drive_link&ouid=102602986467374778491&rtpof=true&sd=true","pfas_testing_link":"https://docs.google.com/spreadsheets/d/1XLVSaKdXzeXMeTRnh4xtGjaZgJSSpUDc/edit?usp=drive_link&ouid=102602986467374778491&rtpof=true&sd=true","site_ref_link":"https://drive.google.com/drive/folders/1npAM-IeFoRXPCRjcc3dUTCTeiNHrHTAd?usp=drive_link","state_ref_link":"https://drive.google.com/drive/folders/1GpQzPjkrJ3An_iokydG5HOVStL7kSHL2?usp=drive_link","ObjectId":4278}},{"type":"Feature","id":4279,"geometry":{"type":"Point","coordinates":[-81.269611,35.337951]},"properties":{"site_name":"Long Creek Wastewater Treatment Plant","other_site_names":null,"state":"North Carolina","industry":"WWTP","matrix_type":"Other Water","matrix":"Surface Water","year":2023,"pfoa":"10","pfos":"11","total_pfas":87,"pfas_level":87,"notes":"PFAS were measured as part of WWTP testing by North Carolina Department of Environmental Quality conducted in 2023","regulation_gvt_link":"https://www.deq.nc.gov/water-resources/2023-deq-study-wastewater-and-biosolids-analytical-results","resources_link":"https://www.albemarlenc.gov/departments/public-utilities/water-treatment-services","suspected_source_link":"https://docs.google.com/spreadsheets/d/1XLVSaKdXzeXMeTRnh4xtGjaZgJSSpUDc/edit?usp=drive_link&ouid=102602986467374778491&rtpof=true&sd=true","pfas_testing_link":"https://docs.google.com/spreadsheets/d/1XLVSaKdXzeXMeTRnh4xtGjaZgJSSpUDc/edit?usp=drive_link&ouid=102602986467374778491&rtpof=true&sd=true","site_ref_link":"https://drive.google.com/drive/folders/163YD53_4pZAdJpaMGARzcTk62fCOgepJ?usp=drive_link","state_ref_link":"https://drive.google.com/drive/folders/1GpQzPjkrJ3An_iokydG5HOVStL7kSHL2?usp=drive_link","ObjectId":4279}},{"type":"Feature","id":4280,"geometry":{"type":"Point","coordinates":[-78.99186,34.60579]},"properties":{"site_name":"Lumberton Wastewater Treatment Plant","other_site_names":null,"state":"North Carolina","industry":"WWTP","matrix_type":"Other Water","matrix":"Surface Water","year":2023,"pfoa":"95","pfos":"22","total_pfas":20642,"pfas_level":20642,"notes":"PFAS were measured as part of WWTP testing by North Carolina Department of Environmental Quality conducted in 2023","regulation_gvt_link":"https://www.deq.nc.gov/water-resources/2023-deq-study-wastewater-and-biosolids-analytical-results","resources_link":"https://www.lumbertonnc.gov/216/Wastewater-Plant","suspected_source_link":"https://docs.google.com/spreadsheets/d/1XLVSaKdXzeXMeTRnh4xtGjaZgJSSpUDc/edit?usp=drive_link&ouid=102602986467374778491&rtpof=true&sd=true","pfas_testing_link":"https://docs.google.com/spreadsheets/d/1XLVSaKdXzeXMeTRnh4xtGjaZgJSSpUDc/edit?usp=drive_link&ouid=102602986467374778491&rtpof=true&sd=true","site_ref_link":"https://drive.google.com/drive/folders/1AIlYl0DimfeU2f3PWEoebXE2SWfDtb5y?usp=drive_link","state_ref_link":"https://drive.google.com/drive/folders/1GpQzPjkrJ3An_iokydG5HOVStL7kSHL2?usp=drive_link","ObjectId":4280}},{"type":"Feature","id":4281,"geometry":{"type":"Point","coordinates":[-78.801534,35.396984]},"properties":{"site_name":"North Harnett Regional Wastewater Treatment Plant","other_site_names":null,"state":"North Carolina","industry":"WWTP","matrix_type":"Other Water","matrix":"Surface Water","year":2023,"pfoa":"17","pfos":"9","total_pfas":199,"pfas_level":199,"notes":"PFAS were measured as part of WWTP testing by North Carolina Department of Environmental Quality conducted in 2023","regulation_gvt_link":"https://www.deq.nc.gov/water-resources/2023-deq-study-wastewater-and-biosolids-analytical-results","resources_link":"https://www.harnettwater.org/","suspected_source_link":"https://docs.google.com/spreadsheets/d/1XLVSaKdXzeXMeTRnh4xtGjaZgJSSpUDc/edit?usp=drive_link&ouid=102602986467374778491&rtpof=true&sd=true","pfas_testing_link":"https://docs.google.com/spreadsheets/d/1XLVSaKdXzeXMeTRnh4xtGjaZgJSSpUDc/edit?usp=drive_link&ouid=102602986467374778491&rtpof=true&sd=true","site_ref_link":"https://drive.google.com/drive/folders/1vmX4iRUBKzOhK5U-xaB30pyDGq5vH_bU?usp=drive_link","state_ref_link":"https://drive.google.com/drive/folders/1GpQzPjkrJ3An_iokydG5HOVStL7kSHL2?usp=drive_link","ObjectId":4281}},{"type":"Feature","id":4282,"geometry":{"type":"Point","coordinates":[-78.005355,34.27147]},"properties":{"site_name":"Northeast Brunswick Regional Wastewater Treatment Plant","other_site_names":null,"state":"North Carolina","industry":"WWTP","matrix_type":"Other Water","matrix":"Surface Water","year":2023,"pfoa":"24","pfos":"6","total_pfas":216,"pfas_level":216,"notes":"PFAS were measured as part of WWTP testing by North Carolina Department of Environmental Quality conducted in 2023","regulation_gvt_link":"https://www.deq.nc.gov/water-resources/2023-deq-study-wastewater-and-biosolids-analytical-results","resources_link":"https://www.deq.nc.gov/news/events/northeast-brunswick-regional-wwtp-permit-nc0086819","suspected_source_link":"https://docs.google.com/spreadsheets/d/1XLVSaKdXzeXMeTRnh4xtGjaZgJSSpUDc/edit?usp=drive_link&ouid=102602986467374778491&rtpof=true&sd=true","pfas_testing_link":"https://docs.google.com/spreadsheets/d/1XLVSaKdXzeXMeTRnh4xtGjaZgJSSpUDc/edit?usp=drive_link&ouid=102602986467374778491&rtpof=true&sd=true","site_ref_link":"https://drive.google.com/drive/folders/1RIEHDGGW3dGTxBZ5vfDgRXdFyaM32Tcj?usp=drive_link","state_ref_link":"https://drive.google.com/drive/folders/1GpQzPjkrJ3An_iokydG5HOVStL7kSHL2?usp=drive_link","ObjectId":4282}},{"type":"Feature","id":4283,"geometry":{"type":"Point","coordinates":[-77.609998,36.436104]},"properties":{"site_name":"Roanoke River Wastewater Treatment Plant","other_site_names":null,"state":"North Carolina","industry":"WWTP","matrix_type":"Other Water","matrix":"Surface Water","year":2023,"pfoa":"6","pfos":"11","total_pfas":62,"pfas_level":62,"notes":"PFAS were measured as part of WWTP testing by North Carolina Department of Environmental Quality conducted in 2024","regulation_gvt_link":"https://www.deq.nc.gov/water-resources/2023-deq-study-wastewater-and-biosolids-analytical-results","resources_link":"https://rrsd.org/","suspected_source_link":"https://docs.google.com/spreadsheets/d/1XLVSaKdXzeXMeTRnh4xtGjaZgJSSpUDc/edit?usp=drive_link&ouid=102602986467374778491&rtpof=true&sd=true","pfas_testing_link":"https://docs.google.com/spreadsheets/d/1XLVSaKdXzeXMeTRnh4xtGjaZgJSSpUDc/edit?usp=drive_link&ouid=102602986467374778491&rtpof=true&sd=true","site_ref_link":"https://drive.google.com/drive/folders/1Cb4NyWAcm5cQE94h0srGj0yrv2ZUl5ox?usp=drive_link","state_ref_link":"https://drive.google.com/drive/folders/1GpQzPjkrJ3An_iokydG5HOVStL7kSHL2?usp=drive_link","ObjectId":4283}},{"type":"Feature","id":4284,"geometry":{"type":"Point","coordinates":[-78.859312,35.059235]},"properties":{"site_name":"Rockfish Creek Wastewater Treatment Plant","other_site_names":null,"state":"North Carolina","industry":"WWTP","matrix_type":"Other Water","matrix":"Surface Water","year":2023,"pfoa":"13","pfos":"15","total_pfas":145,"pfas_level":145,"notes":"PFAS were measured as part of WWTP testing by North Carolina Department of Environmental Quality conducted in 2025","regulation_gvt_link":"https://www.deq.nc.gov/water-resources/2023-deq-study-wastewater-and-biosolids-analytical-results","resources_link":"https://www.faypwc.com/sewer-facilities/","suspected_source_link":"https://docs.google.com/spreadsheets/d/1XLVSaKdXzeXMeTRnh4xtGjaZgJSSpUDc/edit?usp=drive_link&ouid=102602986467374778491&rtpof=true&sd=true","pfas_testing_link":"https://docs.google.com/spreadsheets/d/1XLVSaKdXzeXMeTRnh4xtGjaZgJSSpUDc/edit?usp=drive_link&ouid=102602986467374778491&rtpof=true&sd=true","site_ref_link":"https://drive.google.com/drive/folders/1PQzEcJyui-iR_1ZEkNXkL6B25WtISQoz?usp=drive_link","state_ref_link":"https://drive.google.com/drive/folders/1GpQzPjkrJ3An_iokydG5HOVStL7kSHL2?usp=drive_link","ObjectId":4284}},{"type":"Feature","id":4285,"geometry":{"type":"Point","coordinates":[-79.506766,36.039804]},"properties":{"site_name":"Southside Wastewater Treatment Plant","other_site_names":"Southside Water Reclamation Facility","state":"North Carolina","industry":"WWTP","matrix_type":"Other Water","matrix":"Surface Water","year":2023,"pfoa":"15","pfos":"24","total_pfas":101,"pfas_level":101,"notes":"PFAS were measured as part of WWTP testing by North Carolina Department of Environmental Quality conducted in 2026","regulation_gvt_link":"https://www.deq.nc.gov/water-resources/2023-deq-study-wastewater-and-biosolids-analytical-results","resources_link":"https://www.cfpua.org/834/Southside-Water-Reclamation-Facility-Rep","suspected_source_link":"https://docs.google.com/spreadsheets/d/1XLVSaKdXzeXMeTRnh4xtGjaZgJSSpUDc/edit?usp=drive_link&ouid=102602986467374778491&rtpof=true&sd=true","pfas_testing_link":"https://docs.google.com/spreadsheets/d/1XLVSaKdXzeXMeTRnh4xtGjaZgJSSpUDc/edit?usp=drive_link&ouid=102602986467374778491&rtpof=true&sd=true","site_ref_link":"https://drive.google.com/drive/folders/1VIQxa5Lvbyp_D1vJ4vMHmAbjvVh6TKB-?usp=drive_link","state_ref_link":"https://drive.google.com/drive/folders/1GpQzPjkrJ3An_iokydG5HOVStL7kSHL2?usp=drive_link","ObjectId":4285}},{"type":"Feature","id":4286,"geometry":{"type":"Point","coordinates":[-77.726505,35.989814]},"properties":{"site_name":"Tar River Regional Wastewater Treatment Plant","other_site_names":"Rocky Mt Wastewater Plant","state":"North Carolina","industry":"WWTP","matrix_type":"Other Water","matrix":"Surface Water","year":2023,"pfoa":"32","pfos":"17","total_pfas":241,"pfas_level":241,"notes":"PFAS were measured as part of WWTP testing by North Carolina Department of Environmental Quality conducted in 2027","regulation_gvt_link":"https://www.deq.nc.gov/water-resources/2023-deq-study-wastewater-and-biosolids-analytical-results","resources_link":"https://www.rockymountnc.gov/458/Water-Treatment","suspected_source_link":"https://docs.google.com/spreadsheets/d/1XLVSaKdXzeXMeTRnh4xtGjaZgJSSpUDc/edit?usp=drive_link&ouid=102602986467374778491&rtpof=true&sd=true","pfas_testing_link":"https://docs.google.com/spreadsheets/d/1XLVSaKdXzeXMeTRnh4xtGjaZgJSSpUDc/edit?usp=drive_link&ouid=102602986467374778491&rtpof=true&sd=true","site_ref_link":"https://drive.google.com/drive/folders/1Fq68JVUleKgBrunxzHj_TgcPpXiNS2d-?usp=drive_link","state_ref_link":"https://drive.google.com/drive/folders/1GpQzPjkrJ3An_iokydG5HOVStL7kSHL2?usp=drive_link","ObjectId":4286}},{"type":"Feature","id":4287,"geometry":{"type":"Point","coordinates":[-77.900798,34.075793]},"properties":{"site_name":"The Cape Wastewater Treatment Plant","other_site_names":null,"state":"North Carolina","industry":"WWTP","matrix_type":"Other Water","matrix":"Surface Water","year":2023,"pfoa":"21","pfos":"3","total_pfas":242,"pfas_level":242,"notes":"PFAS were measured as part of WWTP testing by North Carolina Department of Environmental Quality conducted in 2028","regulation_gvt_link":"https://www.deq.nc.gov/water-resources/2023-deq-study-wastewater-and-biosolids-analytical-results","resources_link":"N/A","suspected_source_link":"https://docs.google.com/spreadsheets/d/1XLVSaKdXzeXMeTRnh4xtGjaZgJSSpUDc/edit?usp=drive_link&ouid=102602986467374778491&rtpof=true&sd=true","pfas_testing_link":"https://docs.google.com/spreadsheets/d/1XLVSaKdXzeXMeTRnh4xtGjaZgJSSpUDc/edit?usp=drive_link&ouid=102602986467374778491&rtpof=true&sd=true","site_ref_link":"https://drive.google.com/drive/folders/1j_ngi3E6JfwJY7z84ZjdYZBJPWErFUW1?usp=drive_link","state_ref_link":"https://drive.google.com/drive/folders/1GpQzPjkrJ3An_iokydG5HOVStL7kSHL2?usp=drive_link","ObjectId":4287}},{"type":"Feature","id":4288,"geometry":{"type":"Point","coordinates":[-78.939965,35.671026]},"properties":{"site_name":"Western Wake Regional Wastewater Reclamation Facility","other_site_names":null,"state":"North Carolina","industry":"WWTP","matrix_type":"Other Water","matrix":"Surface Water","year":2023,"pfoa":"10","pfos":"4","total_pfas":92,"pfas_level":92,"notes":"PFAS were measured as part of WWTP testing by North Carolina Department of Environmental Quality conducted in 2029","regulation_gvt_link":"https://www.deq.nc.gov/water-resources/2023-deq-study-wastewater-and-biosolids-analytical-results","resources_link":"https://www.carync.gov/services-publications/water-sewer/sewer/wastewater-treatment/western-wake-regional-water-reclamation-facility","suspected_source_link":"https://docs.google.com/spreadsheets/d/1XLVSaKdXzeXMeTRnh4xtGjaZgJSSpUDc/edit?usp=drive_link&ouid=102602986467374778491&rtpof=true&sd=true","pfas_testing_link":"https://docs.google.com/spreadsheets/d/1XLVSaKdXzeXMeTRnh4xtGjaZgJSSpUDc/edit?usp=drive_link&ouid=102602986467374778491&rtpof=true&sd=true","site_ref_link":"https://drive.google.com/drive/folders/1u5QeEtdp9XHNw-PIR2klqaB75CuHKDZq?usp=drive_link","state_ref_link":"https://drive.google.com/drive/folders/1GpQzPjkrJ3An_iokydG5HOVStL7kSHL2?usp=drive_link","ObjectId":4288}},{"type":"Feature","id":4289,"geometry":{"type":"Point","coordinates":[-78.678597,34.329193]},"properties":{"site_name":"Whiteville Wastewater Reclamation Facility","other_site_names":null,"state":"North Carolina","industry":"WWTP","matrix_type":"Other Water","matrix":"Surface Water","year":2023,"pfoa":"5","pfos":"17","total_pfas":165,"pfas_level":165,"notes":"Influent level for PFOS higher than effluent level test for 6.1.23. PFAS were measured as part of WWTP testing by North Carolina Department of Environmental Quality conducted in 2030. ","regulation_gvt_link":"https://www.deq.nc.gov/water-resources/2023-deq-study-wastewater-and-biosolids-analytical-results","resources_link":"https://www.whitevillenc.gov/wastewater-reclamation-facility","suspected_source_link":"https://docs.google.com/spreadsheets/d/1XLVSaKdXzeXMeTRnh4xtGjaZgJSSpUDc/edit?usp=drive_link&ouid=102602986467374778491&rtpof=true&sd=true","pfas_testing_link":"https://docs.google.com/spreadsheets/d/1XLVSaKdXzeXMeTRnh4xtGjaZgJSSpUDc/edit?usp=drive_link&ouid=102602986467374778491&rtpof=true&sd=true","site_ref_link":"https://drive.google.com/drive/folders/1Nm7eIKJB5mSywt3OdevVs2jnAB1fdFKe?usp=drive_link","state_ref_link":"https://drive.google.com/drive/folders/1GpQzPjkrJ3An_iokydG5HOVStL7kSHL2?usp=drive_link","ObjectId":4289}},{"type":"Feature","id":4290,"geometry":{"type":"Point","coordinates":[-79.194946,35.215732]},"properties":{"site_name":"Woodlake Country Club Wastewater Treatment Plant","other_site_names":null,"state":"North Carolina","industry":"WWTP","matrix_type":"Other Water","matrix":"Surface Water","year":2023,"pfoa":"16","pfos":"10","total_pfas":241,"pfas_level":241,"notes":"PFAS were measured as part of WWTP testing by North Carolina Department of Environmental Quality conducted in 2031","regulation_gvt_link":"https://www.deq.nc.gov/water-resources/2023-deq-study-wastewater-and-biosolids-analytical-results","resources_link":"https://www.deq.nc.gov/news/events/woodlake-county-club-wwtp-permit-nc0061719","suspected_source_link":"https://docs.google.com/spreadsheets/d/1XLVSaKdXzeXMeTRnh4xtGjaZgJSSpUDc/edit?usp=drive_link&ouid=102602986467374778491&rtpof=true&sd=true","pfas_testing_link":"https://docs.google.com/spreadsheets/d/1XLVSaKdXzeXMeTRnh4xtGjaZgJSSpUDc/edit?usp=drive_link&ouid=102602986467374778491&rtpof=true&sd=true","site_ref_link":"https://drive.google.com/drive/folders/10JAPmcFT8gXeSB6XgAWByv9_jDPuRHQS?usp=drive_link","state_ref_link":"https://drive.google.com/drive/folders/1GpQzPjkrJ3An_iokydG5HOVStL7kSHL2?usp=drive_link","ObjectId":4290}}]}