{"type":"FeatureCollection","crs":{"type":"name","properties":{"name":"EPSG:4326"}},"features":[{"type":"Feature","id":9,"geometry":{"type":"Point","coordinates":[-122.4586,45.5472]},"properties":{"site_name":"Gresham STP","other_site_names":"City of Gresham WWTP","state":"Oregon","industry":"Waste","matrix_type":"Other Water","matrix":"Surface Water","year":2010,"pfoa":"5,000","pfos":null,"pfoa_pfos":null,"total_pfas":null,"pfas_level":5000,"notes":null,"regulation_gvt_link":null,"resources_link":"https://echo.epa.gov/trends/pfas-tools","suspected_source_link":null,"pfas_testing_link":"https://docs.google.com/spreadsheets/d/1d62nZIdzdWFNSk_UsoeoZZ6HpUspL1P5/edit?usp=drive_link&ouid=108800455933392071157&rtpof=true&sd=true","site_ref_link":null,"state_ref_link":null,"ObjectId":9}},{"type":"Feature","id":236,"geometry":{"type":"Point","coordinates":[-122.595094,45.589769]},"properties":{"site_name":"Portland International Airport","other_site_names":null,"state":"Oregon","industry":"Airport","matrix_type":"Groundwater","matrix":"Groundwater","year":2017,"pfoa":"30,900","pfos":"203,000","pfoa_pfos":null,"total_pfas":null,"pfas_level":203000,"notes":"Source of contamination was the use of AFFF","regulation_gvt_link":null,"resources_link":"https://www.oregon.gov/oha/PH/HEALTHYENVIRONMENTS/HEALTHYNEIGHBORHOODS/TOXICSUBSTANCES/Pages/PFAS.aspx","suspected_source_link":"https://www.columbian.com/news/2019/mar/03/firefighting-foam-contaminated-northeast-portland-groundwater/","pfas_testing_link":"https://www.deq.state.or.us/Webdocs/Controls/Output/PdfHandler.ashx?p=a1951cb6-d7ab-4330-89c1-75d04a5e2dd5.pdf&s=Final%20PFAS%20WP_and_Appendices.pdf","site_ref_link":"https://drive.google.com/drive/u/0/folders/1b_szRf2kFYKMdVQTdnguWGB-oDGq9Xgc","state_ref_link":"https://drive.google.com/drive/u/0/folders/1inU8GiL3ea7OLsY9jO09ktEQo87u139r","ObjectId":236}},{"type":"Feature","id":270,"geometry":{"type":"Point","coordinates":[-123.342779,43.208545]},"properties":{"site_name":"Roseburg Armory","other_site_names":"Flegel Center","state":"Oregon","industry":"Military","matrix_type":"Other Water","matrix":"Drinking Water","year":2018,"pfoa":null,"pfos":null,"pfoa_pfos":null,"total_pfas":1,"pfas_level":1,"notes":null,"regulation_gvt_link":null,"resources_link":null,"suspected_source_link":"https://drive.google.com/file/d/1g1t60FsMLcfluvkLqorqlbsHnkF_rNZw/view?usp=sharing","pfas_testing_link":"https://drive.google.com/file/d/1g1t60FsMLcfluvkLqorqlbsHnkF_rNZw/view?usp=sharing","site_ref_link":"https://drive.google.com/drive/u/0/folders/17vc5JX3Gvo92Bih-kg-GABnBbExIJhXg","state_ref_link":"https://drive.google.com/drive/u/0/folders/1inU8GiL3ea7OLsY9jO09ktEQo87u139r","ObjectId":270}},{"type":"Feature","id":271,"geometry":{"type":"Point","coordinates":[-122.995886,44.928383]},"properties":{"site_name":"Salem Anderson Readiness Center","other_site_names":null,"state":"Oregon","industry":"Military","matrix_type":"Other Water","matrix":"Drinking Water","year":2018,"pfoa":null,"pfos":null,"pfoa_pfos":null,"total_pfas":1,"pfas_level":1,"notes":null,"regulation_gvt_link":null,"resources_link":null,"suspected_source_link":"https://drive.google.com/file/d/1g1t60FsMLcfluvkLqorqlbsHnkF_rNZw/view?usp=sharing","pfas_testing_link":"https://drive.google.com/file/d/1g1t60FsMLcfluvkLqorqlbsHnkF_rNZw/view?usp=sharing","site_ref_link":"https://drive.google.com/drive/u/0/folders/17vc5JX3Gvo92Bih-kg-GABnBbExIJhXg","state_ref_link":"https://drive.google.com/drive/u/0/folders/1inU8GiL3ea7OLsY9jO09ktEQo87u139r","ObjectId":271}},{"type":"Feature","id":283,"geometry":{"type":"Point","coordinates":[-122.913697,44.528745]},"properties":{"site_name":"Lebanon Community Pool","other_site_names":null,"state":"Oregon","industry":"Military","matrix_type":"Other Water","matrix":"Drinking Water","year":2018,"pfoa":null,"pfos":null,"pfoa_pfos":null,"total_pfas":2,"pfas_level":2,"notes":null,"regulation_gvt_link":null,"resources_link":null,"suspected_source_link":"https://drive.google.com/file/d/1g1t60FsMLcfluvkLqorqlbsHnkF_rNZw/view?usp=sharing","pfas_testing_link":"https://drive.google.com/file/d/1g1t60FsMLcfluvkLqorqlbsHnkF_rNZw/view?usp=sharing","site_ref_link":"https://drive.google.com/drive/u/0/folders/17vc5JX3Gvo92Bih-kg-GABnBbExIJhXg","state_ref_link":"https://drive.google.com/drive/u/0/folders/1inU8GiL3ea7OLsY9jO09ktEQo87u139r","ObjectId":283}},{"type":"Feature","id":297,"geometry":{"type":"Point","coordinates":[-123.934083,46.122778]},"properties":{"site_name":"Camp Rilea","other_site_names":null,"state":"Oregon","industry":"Military","matrix_type":"Other Water","matrix":"Drinking Water","year":2018,"pfoa":"1","pfos":null,"pfoa_pfos":null,"total_pfas":4,"pfas_level":4,"notes":null,"regulation_gvt_link":null,"resources_link":null,"suspected_source_link":"https://drive.google.com/file/d/1g1t60FsMLcfluvkLqorqlbsHnkF_rNZw/view?usp=sharing","pfas_testing_link":"https://drive.google.com/file/d/1g1t60FsMLcfluvkLqorqlbsHnkF_rNZw/view?usp=sharing","site_ref_link":"https://drive.google.com/drive/u/0/folders/17vc5JX3Gvo92Bih-kg-GABnBbExIJhXg","state_ref_link":"https://drive.google.com/drive/u/0/folders/1inU8GiL3ea7OLsY9jO09ktEQo87u139r","ObjectId":297}},{"type":"Feature","id":298,"geometry":{"type":"Point","coordinates":[-116.969625,44.014877]},"properties":{"site_name":"Ontario Readiness Center","other_site_names":"National Guard Armory and Recruiting Office","state":"Oregon","industry":"Military","matrix_type":"Other Water","matrix":"Drinking Water","year":2018,"pfoa":"1","pfos":null,"pfoa_pfos":null,"total_pfas":4,"pfas_level":4,"notes":null,"regulation_gvt_link":null,"resources_link":null,"suspected_source_link":"https://drive.google.com/file/d/1g1t60FsMLcfluvkLqorqlbsHnkF_rNZw/view?usp=sharing","pfas_testing_link":"https://drive.google.com/file/d/1g1t60FsMLcfluvkLqorqlbsHnkF_rNZw/view?usp=sharing","site_ref_link":"https://drive.google.com/drive/u/0/folders/17vc5JX3Gvo92Bih-kg-GABnBbExIJhXg","state_ref_link":"https://drive.google.com/drive/u/0/folders/1inU8GiL3ea7OLsY9jO09ktEQo87u139r","ObjectId":298}},{"type":"Feature","id":412,"geometry":{"type":"Point","coordinates":[-122.979587,44.065497]},"properties":{"site_name":"Lane County Armed Forces Reserve Center, Ore.","other_site_names":null,"state":"Oregon","industry":"Military","matrix_type":"Unknown","matrix":null,"year":2017,"pfoa":null,"pfos":null,"pfoa_pfos":null,"total_pfas":6,"pfas_level":6,"notes":null,"regulation_gvt_link":null,"resources_link":null,"suspected_source_link":"https://drive.google.com/file/d/11icVWDkQLKrw6HWP3RhUshhaABzK14aI/view?usp=share_link","pfas_testing_link":"https://drive.google.com/file/d/11icVWDkQLKrw6HWP3RhUshhaABzK14aI/view?usp=share_link","site_ref_link":"https://drive.google.com/drive/folders/12_qRnS5ukQQQHD61CgrS7gsFMdnWbQr0?usp=share_link","state_ref_link":"https://drive.google.com/drive/folders/1ZQ0O5ZAyel_92efhoLQuGHigzWzEr6JM?usp=share_link","ObjectId":412}},{"type":"Feature","id":501,"geometry":{"type":"Point","coordinates":[-121.099007,44.222939]},"properties":{"site_name":"BIAK Training Center","other_site_names":null,"state":"Oregon","industry":"Military","matrix_type":"Other Water","matrix":"Drinking Water","year":2018,"pfoa":null,"pfos":null,"pfoa_pfos":null,"total_pfas":4,"pfas_level":4,"notes":null,"regulation_gvt_link":null,"resources_link":null,"suspected_source_link":"https://drive.google.com/file/d/1g1t60FsMLcfluvkLqorqlbsHnkF_rNZw/view?usp=sharing","pfas_testing_link":"https://drive.google.com/file/d/1g1t60FsMLcfluvkLqorqlbsHnkF_rNZw/view?usp=sharing","site_ref_link":"https://drive.google.com/drive/u/0/folders/17vc5JX3Gvo92Bih-kg-GABnBbExIJhXg","state_ref_link":"https://drive.google.com/drive/u/0/folders/1inU8GiL3ea7OLsY9jO09ktEQo87u139r","ObjectId":501}},{"type":"Feature","id":539,"geometry":{"type":"Point","coordinates":[-121.131655,44.029223]},"properties":{"site_name":"Bends National Guard Site (COTEF)","other_site_names":"Oregon National Guard Youth Challenge Program","state":"Oregon","industry":"Military","matrix_type":"Other Water","matrix":"Drinking Water","year":2018,"pfoa":null,"pfos":null,"pfoa_pfos":null,"total_pfas":10,"pfas_level":10,"notes":null,"regulation_gvt_link":null,"resources_link":null,"suspected_source_link":"https://drive.google.com/file/d/1g1t60FsMLcfluvkLqorqlbsHnkF_rNZw/view?usp=sharing","pfas_testing_link":"https://drive.google.com/file/d/1g1t60FsMLcfluvkLqorqlbsHnkF_rNZw/view?usp=sharing","site_ref_link":"https://drive.google.com/drive/u/0/folders/17vc5JX3Gvo92Bih-kg-GABnBbExIJhXg","state_ref_link":"https://drive.google.com/drive/u/0/folders/1inU8GiL3ea7OLsY9jO09ktEQo87u139r","ObjectId":539}},{"type":"Feature","id":556,"geometry":{"type":"Point","coordinates":[-120.3748,43.2762]},"properties":{"site_name":"Christmas Valley Radar Site","other_site_names":"Chistmas Valley Air Station","state":"Oregon","industry":"Military","matrix_type":"Other Water","matrix":"Drinking Water","year":2018,"pfoa":"1","pfos":null,"pfoa_pfos":null,"total_pfas":14,"pfas_level":14,"notes":null,"regulation_gvt_link":null,"resources_link":null,"suspected_source_link":"https://drive.google.com/file/d/1g1t60FsMLcfluvkLqorqlbsHnkF_rNZw/view?usp=sharing","pfas_testing_link":"https://drive.google.com/file/d/1g1t60FsMLcfluvkLqorqlbsHnkF_rNZw/view?usp=sharing","site_ref_link":"https://drive.google.com/drive/u/0/folders/17vc5JX3Gvo92Bih-kg-GABnBbExIJhXg","state_ref_link":"https://drive.google.com/drive/u/0/folders/1inU8GiL3ea7OLsY9jO09ktEQo87u139r","ObjectId":556}},{"type":"Feature","id":700,"geometry":{"type":"Point","coordinates":[-121.747842,42.163555]},"properties":{"site_name":"Kingsley Field Air National Guard Base","other_site_names":"Klamath Falls International Airport","state":"Oregon","industry":"Military","matrix_type":"Groundwater","matrix":"Groundwater","year":2018,"pfoa":"21,000","pfos":"380,000","pfoa_pfos":401000,"total_pfas":484740,"pfas_level":484740,"notes":"AFFF used at Kingsly Field Air National Guard Base / Klamath Falls International Airport","regulation_gvt_link":"https://www.deq.state.or.us/lq/ECSI/ecsidetailfull.asp?seqnbr=816","resources_link":"http://afcec.publicadmin-record.us.af.mil/","suspected_source_link":"https://www.deq.state.or.us/Webdocs/Controls/Output/PdfHandler.ashx?p=4d46b4ff-4006-4395-9f08-cfcbc74b1ab9pdf&s=Kingsley%20Field_PFOS-PFOA-Work%20Plan_DF_01%2016%2018.pdf","pfas_testing_link":"https://drive.google.com/file/d/1rV1Tml5aoorenqXWzHxLx0RYUCaS4hVZ/view?usp=sharing","site_ref_link":"https://drive.google.com/drive/u/0/folders/14TgCTb3uYJaf9OdGH99JUn9ngkH74KHT","state_ref_link":"https://drive.google.com/drive/u/0/folders/1inU8GiL3ea7OLsY9jO09ktEQo87u139r","ObjectId":700}},{"type":"Feature","id":1085,"geometry":{"type":"Point","coordinates":[-119.45,45.836111]},"properties":{"site_name":"Umatilla Army Depot (Lagoons)","other_site_names":null,"state":"Oregon","industry":"Military","matrix_type":"Groundwater","matrix":"Groundwater","year":2023,"pfoa":"6","pfos":"4","pfoa_pfos":10,"total_pfas":3451,"pfas_level":3451,"notes":null,"regulation_gvt_link":"https://aec.army.mil/Portals/115/PFAS/UMCD_PFAS_PA.pdf?ver=RJ4hQF5JFibnU8fkw1GQ0Q%3D%3D","resources_link":"https://aec.army.mil/Portals/115/PFAS/UMCD_PFAS_PA.pdf?ver=RJ4hQF5JFibnU8fkw1GQ0Q%3D%3D","suspected_source_link":"https://aec.army.mil/Portals/115/PFAS/UMCD_PFAS_PA.pdf?ver=RJ4hQF5JFibnU8fkw1GQ0Q%3D%3D","pfas_testing_link":"https://aec.army.mil/Portals/115/PFAS/UMCD_PFAS_PA.pdf?ver=RJ4hQF5JFibnU8fkw1GQ0Q%3D%3D","site_ref_link":"https://drive.google.com/drive/u/0/folders/1D2WHNVv5up9Tm7Vq2RP_VSJi-LSNuSvC","state_ref_link":"https://drive.google.com/drive/u/0/folders/1ZQ0O5ZAyel_92efhoLQuGHigzWzEr6JM","ObjectId":1085}},{"type":"Feature","id":1212,"geometry":{"type":"Point","coordinates":[-122.592513,45.576967]},"properties":{"site_name":"Portland Air National Guard Base","other_site_names":null,"state":"Oregon","industry":"Military","matrix_type":"Groundwater","matrix":"Groundwater","year":2020,"pfoa":"24,000","pfos":"25,000","pfoa_pfos":31800,"total_pfas":42277,"pfas_level":42277,"notes":null,"regulation_gvt_link":null,"resources_link":null,"suspected_source_link":"https://ar.afcec-cloud.af.mil/Search.aspx","pfas_testing_link":"https://drive.google.com/file/d/1UYc6c7oDP0TxAGuqc5QoPUlvWFAD-TG2/view?usp=sharing","site_ref_link":null,"state_ref_link":null,"ObjectId":1212}},{"type":"Feature","id":1304,"geometry":{"type":"Point","coordinates":[-122.596769,45.574733]},"properties":{"site_name":"Oregon Air National Guard Base","other_site_names":null,"state":"Oregon","industry":"Military","matrix_type":"Groundwater","matrix":"Groundwater","year":2019,"pfoa":null,"pfos":null,"pfoa_pfos":40000,"total_pfas":null,"pfas_level":40000,"notes":"AFFF","regulation_gvt_link":"https://www.portlandoregon.gov/water/article/664733","resources_link":"https://www.deq.state.or.us/lq/ECSI/ecsidetail.asp?seqnbr=1372","suspected_source_link":"https://www.columbian.com/news/2019/mar/03/firefighting-foam-contaminated-northeast-portland-groundwater/","pfas_testing_link":"https://www.deq.state.or.us/Webdocs/Controls/Output/PdfHandler.ashx?p=a1951cb6-d7ab-4330-89c1-75d04a5e2dd5.pdf&s=Final%20PFAS%20WP_and_Appendices.pdf","site_ref_link":"https://drive.google.com/drive/u/0/folders/1b_szRf2kFYKMdVQTdnguWGB-oDGq9Xgc","state_ref_link":"https://drive.google.com/drive/u/0/folders/1inU8GiL3ea7OLsY9jO09ktEQo87u139r","ObjectId":1304}},{"type":"Feature","id":2088,"geometry":{"type":"Point","coordinates":[-122.670687,45.521952]},"properties":{"site_name":"Portland Fire & Rescue Bureau Training Facility","other_site_names":null,"state":"Oregon","industry":"Fire Department/Training Facility","matrix_type":"Groundwater","matrix":"Groundwater","year":null,"pfoa":null,"pfos":null,"pfoa_pfos":null,"total_pfas":1600,"pfas_level":1600,"notes":"Source of contamination was the use of AFFF","regulation_gvt_link":null,"resources_link":"https://www.142fw.ang.af.mil ","suspected_source_link":"https://www.columbian.com/news/2019/mar/03/firefighting-foam-contaminated-northeast-portland-groundwater/","pfas_testing_link":"https://www.deq.state.or.us/Webdocs/Controls/Output/PdfHandler.ashx?p=a1951cb6-d7ab-4330-89c1-75d04a5e2dd5.pdf&s=Final%20PFAS%20WP_and_Appendices.pdf","site_ref_link":"https://drive.google.com/drive/u/0/folders/1b_szRf2kFYKMdVQTdnguWGB-oDGq9Xgc","state_ref_link":"https://drive.google.com/drive/u/0/folders/1inU8GiL3ea7OLsY9jO09ktEQo87u139r","ObjectId":2088}}]}