{"type":"FeatureCollection","crs":{"type":"name","properties":{"name":"EPSG:4326"}},"features":[{"type":"Feature","id":77,"geometry":{"type":"Point","coordinates":[-119.305529,47.16546]},"properties":{"site_name":"Moses Lake Wellfield Contamination","other_site_names":null,"state":"Washington","industry":"Military","matrix_type":"Groundwater","matrix":"Groundwater","year":2016,"pfoa":"336","pfos":"348","total_pfas":1614,"pfas_level":1614,"notes":"Identified by the Environmental Protection Agency (EPA) as having PFAS contamination. Provided to the Senate Committee on Environment and Public Works.","regulation_gvt_link":null,"resources_link":"https://cumulis.epa.gov/supercpad/SiteProfiles/index.cfm?fuseaction=second.cleanup&id=1001249","suspected_source_link":"https://www.epw.senate.gov/public/index.cfm/superfund-sites-identified-by-epa-to-have-pfas-contamination","pfas_testing_link":"https://semspub.epa.gov/work/10/100253690.pdf","site_ref_link":null,"state_ref_link":null,"ObjectId":77}},{"type":"Feature","id":235,"geometry":{"type":"Point","coordinates":[-117.643853,47.618258]},"properties":{"site_name":"Fairchild Air Force Base","other_site_names":"Fairchild Air Force Base (4 Waste Areas)","state":"Washington","industry":"Military","matrix_type":"Groundwater","matrix":"Groundwater","year":2017,"pfoa":"22,000","pfos":"150,000","total_pfas":176200,"pfas_level":176200,"notes":"AFFF used at Fairchild Air Force Base ","regulation_gvt_link":"https://www.fairchild.af.mil/PFOS-PFOA-INFO/","resources_link":" https://www.doh.wa.gov/CommunityandEnvironment/Contaminants/PFAS\nhttps://www.fairchild.af.mil/PFOS-PFOA-INFO/","suspected_source_link":"http://www.spokesman.com/stories/2017/may/03/testing-confirms-chemical-contamination-in-residen/\nhttps://www.fairchild.af.mil/News/Article-Display/Article/1184640/preliminary-ground%20water-sampling-results-indicate-contaminants-in-airway-height/","pfas_testing_link":"https://drive.google.com/file/d/1tdL2wkvJscpluhxwjIvuqkovB9bt4hiV/view?usp=sharing","site_ref_link":"https://drive.google.com/drive/u/0/folders/1DGQhyU9WtPLafVl9aPLXKk6I2XU62_kO","state_ref_link":"https://drive.google.com/drive/u/0/folders/1McBSeX2VTKGuIpe-IdaFYayBBQsc8_kn","ObjectId":235}},{"type":"Feature","id":273,"geometry":{"type":"Point","coordinates":[-123.655274,46.979233]},"properties":{"site_name":"Montesano","other_site_names":null,"state":"Washington","industry":"Military","matrix_type":"Other Water","matrix":"Drinking Water","year":2018,"pfoa":null,"pfos":null,"total_pfas":1,"pfas_level":1,"notes":null,"regulation_gvt_link":null,"resources_link":null,"suspected_source_link":"https://drive.google.com/file/d/1g1t60FsMLcfluvkLqorqlbsHnkF_rNZw/view?usp=sharing","pfas_testing_link":"https://drive.google.com/file/d/1g1t60FsMLcfluvkLqorqlbsHnkF_rNZw/view?usp=sharing","site_ref_link":"https://drive.google.com/drive/u/0/folders/17vc5JX3Gvo92Bih-kg-GABnBbExIJhXg","state_ref_link":"https://drive.google.com/drive/u/0/folders/1McBSeX2VTKGuIpe-IdaFYayBBQsc8_kn","ObjectId":273}},{"type":"Feature","id":476,"geometry":{"type":"Point","coordinates":[-117.53948,47.624111]},"properties":{"site_name":"Spokane International Airport","other_site_names":null,"state":"Washington","industry":"Airport","matrix_type":"Groundwater","matrix":"Groundwater","year":2017,"pfoa":"350","pfos":"120","total_pfas":470,"pfas_level":470,"notes":null,"regulation_gvt_link":null,"resources_link":"https://apps.ecology.wa.gov/cleanupsearch/site/16774","suspected_source_link":"https://drive.google.com/file/d/1KwPHXjQJksjBuQS183SOgJRJiNOjTpHB/view?usp=share_link","pfas_testing_link":"https://drive.google.com/file/d/1KwPHXjQJksjBuQS183SOgJRJiNOjTpHB/view?usp=share_link","site_ref_link":"https://drive.google.com/drive/folders/1t_vKD0QTsKAwWEVIbZDi5XfhQ6_Rer77?usp=share_link","state_ref_link":"https://drive.google.com/drive/folders/155QqwGqpkTGGSlJeFG-y-3UzCgW2P9LH?usp=share_link","ObjectId":476}},{"type":"Feature","id":1001,"geometry":{"type":"Point","coordinates":[-122.04531,47.53661]},"properties":{"site_name":"Rainier Trail","other_site_names":null,"state":"Washington","industry":"AFFF","matrix_type":"Groundwater","matrix":"Groundwater","year":2020,"pfoa":"830","pfos":"21,000","total_pfas":null,"pfas_level":21650,"notes":null,"regulation_gvt_link":null,"resources_link":"https://apps.ecology.wa.gov/cleanupsearch/site/16582","suspected_source_link":"https://drive.google.com/file/d/1REni8uzbAVJ-YXkhiY1k9zG4sU6NQQZx/view?usp=share_link","pfas_testing_link":"https://drive.google.com/file/d/1REni8uzbAVJ-YXkhiY1k9zG4sU6NQQZx/view?usp=share_link","site_ref_link":"https://drive.google.com/drive/folders/15UWmbcJQzRlvGRimqyrMJQ7R_igzY5pc?usp=share_link","state_ref_link":"https://drive.google.com/drive/folders/155QqwGqpkTGGSlJeFG-y-3UzCgW2P9LH?usp=share_link","ObjectId":1001}},{"type":"Feature","id":1018,"geometry":{"type":"Point","coordinates":[-120.356517,46.68226]},"properties":{"site_name":"Yakima Training Center","other_site_names":null,"state":"Washington","industry":"Military","matrix_type":"Other Water","matrix":"Drinking Water","year":2022,"pfoa":null,"pfos":null,"total_pfas":null,"pfas_level":1650,"notes":null,"regulation_gvt_link":null,"resources_link":"https://drive.google.com/file/d/1qabRg4MhXX3CUIl9ej8lDrW1FIizqC2y/view?usp=share_link","suspected_source_link":"https://drive.google.com/file/d/1qabRg4MhXX3CUIl9ej8lDrW1FIizqC2y/view?usp=share_link","pfas_testing_link":"https://drive.google.com/file/d/1SOsHTWkc1bT3I-nd3AI4iO_7TWhzMKe_/view?usp=sharing","site_ref_link":"https://drive.google.com/drive/folders/1mRRhgIzNBREH-lzkvTHPSlbwfO5bgiee?usp=share_link","state_ref_link":"https://drive.google.com/drive/folders/155QqwGqpkTGGSlJeFG-y-3UzCgW2P9LH?usp=share_link","ObjectId":1018}},{"type":"Feature","id":1026,"geometry":{"type":"Point","coordinates":[-122.033716,47.531093]},"properties":{"site_name":"Memorial Field","other_site_names":"Eastside Fire and Rescue Station 71","state":"Washington","industry":"Fire Department/Training Facility","matrix_type":"Groundwater","matrix":"Groundwater","year":2022,"pfoa":"1,000","pfos":"8,600","total_pfas":9287,"pfas_level":9287,"notes":null,"regulation_gvt_link":null,"resources_link":"https://apps.ecology.wa.gov/cleanupsearch/site/16584","suspected_source_link":"https://drive.google.com/file/d/1ZJeoLUR3-CxNS2042nSF3vXPjvUCxWbH/view?usp=share_link","pfas_testing_link":"https://drive.google.com/file/d/1ZJeoLUR3-CxNS2042nSF3vXPjvUCxWbH/view?usp=share_link","site_ref_link":"https://drive.google.com/drive/folders/15UWmbcJQzRlvGRimqyrMJQ7R_igzY5pc?usp=share_link","state_ref_link":"https://drive.google.com/drive/folders/155QqwGqpkTGGSlJeFG-y-3UzCgW2P9LH?usp=share_link","ObjectId":1026}},{"type":"Feature","id":1031,"geometry":{"type":"Point","coordinates":[-119.114667,46.259702]},"properties":{"site_name":"Tri-County Airport Jet Engine Crash","other_site_names":"Pasco Airport, Tri-Cities Airport","state":"Washington","industry":"Airport","matrix_type":"Unknown","matrix":null,"year":2022,"pfoa":"380","pfos":"9,500","total_pfas":18260,"pfas_level":18260,"notes":null,"regulation_gvt_link":null,"resources_link":"https://apps.ecology.wa.gov/cleanupsearch/site/16738","suspected_source_link":"https://drive.google.com/file/d/1jMcmt6UCQOzGA-sxzqhhavJpeq5mLAiv/view?usp=share_link","pfas_testing_link":"https://drive.google.com/file/d/1jMcmt6UCQOzGA-sxzqhhavJpeq5mLAiv/view?usp=share_link","site_ref_link":"https://drive.google.com/drive/folders/1lznZXrykCc6TOsRw5hALEcK5bPsFGadI?usp=share_link","state_ref_link":"https://drive.google.com/drive/folders/155QqwGqpkTGGSlJeFG-y-3UzCgW2P9LH?usp=share_link","ObjectId":1031}},{"type":"Feature","id":1063,"geometry":{"type":"Point","coordinates":[-122.485732,47.134243]},"properties":{"site_name":"Joint Base Lewis-McChord","other_site_names":null,"state":"Washington","industry":"Military","matrix_type":"Other Water","matrix":"Drinking Water","year":2023,"pfoa":null,"pfos":null,"total_pfas":103,"pfas_level":103,"notes":null,"regulation_gvt_link":"https://www.lakewoodwater.org/pwt/page/update-water-sampling-jblm-and-lwd","resources_link":"https://www.doh.wa.gov/CommunityandEnvironment/Contaminants/PFAS","suspected_source_link":"https://www.thenewstribune.com/news/local/military/article136098683.html","pfas_testing_link":"https://aec.army.mil/PFAS/WA/YTC","site_ref_link":"https://drive.google.com/drive/u/0/folders/1Yir4z1sLqj8TuB5VdxXk2PyVT-sYYr7T","state_ref_link":"https://drive.google.com/drive/u/0/folders/1McBSeX2VTKGuIpe-IdaFYayBBQsc8_kn","ObjectId":1063}},{"type":"Feature","id":1273,"geometry":{"type":"Point","coordinates":[-122.548055,47.574443]},"properties":{"site_name":"Manchester Laboratory","other_site_names":"Old Navy Dump; Manchester Annex","state":"Washington","industry":"Military","matrix_type":"Groundwater","matrix":"Groundwater","year":2021,"pfoa":"45","pfos":"128","total_pfas":null,"pfas_level":139,"notes":null,"regulation_gvt_link":null,"resources_link":null,"suspected_source_link":"https://cumulis.epa.gov/supercpad/SiteProfiles/index.cfm?fuseaction=second.Cleanup&id=1001134#bkground","pfas_testing_link":"https://semspub.epa.gov/work/10/100599390.pdf","site_ref_link":"https://drive.google.com/drive/folders/1r1zpizLcM7Mo-5AgavoeUilWT_bVpDp_?usp=drive_link","state_ref_link":"https://drive.google.com/drive/folders/155QqwGqpkTGGSlJeFG-y-3UzCgW2P9LH?usp=drive_link","ObjectId":1273}},{"type":"Feature","id":1831,"geometry":{"type":"Point","coordinates":[-122.305124,47.526461]},"properties":{"site_name":"Jorgensen Forge Corp","other_site_names":null,"state":"Washington","industry":"Industry","matrix_type":"Groundwater","matrix":"Groundwater","year":2021,"pfoa":"350","pfos":"15,000","total_pfas":19670,"pfas_level":19670,"notes":null,"regulation_gvt_link":null,"resources_link":"https://apps.ecology.wa.gov/cleanupsearch/site/3689#site-documents","suspected_source_link":"https://drive.google.com/file/d/1zyd5mRvoin3KfmgDkD0lkrVGLN-yR1lD/view?usp=share_link","pfas_testing_link":"https://drive.google.com/file/d/1zyd5mRvoin3KfmgDkD0lkrVGLN-yR1lD/view?usp=share_link","site_ref_link":"https://drive.google.com/drive/folders/1TeDRXqtANK2wtx7qtmILrNdDiyEbMXqH?usp=share_link","state_ref_link":"https://drive.google.com/drive/folders/155QqwGqpkTGGSlJeFG-y-3UzCgW2P9LH?usp=share_link","ObjectId":1831}},{"type":"Feature","id":1849,"geometry":{"type":"Point","coordinates":[-122.281554,47.894953]},"properties":{"site_name":"Big Gulch Creek Subbasin 9","other_site_names":"Big Gulch Creek Drainage Sub-Basin 9\nand Swamp Creek Drainage\nSub-Basin 8","state":"Washington","industry":"Airport","matrix_type":"Solid","matrix":"Soil","year":2022,"pfoa":"0","pfos":"2","total_pfas":2,"pfas_level":2,"notes":null,"regulation_gvt_link":null,"resources_link":"https://apps.ecology.wa.gov/cleanupsearch/site/16778#site-documents","suspected_source_link":"https://drive.google.com/file/d/1g-2jl8PSRwVm1-nGTAdP7eOSM5pBV4cN/view?usp=share_link","pfas_testing_link":"https://drive.google.com/file/d/1g-2jl8PSRwVm1-nGTAdP7eOSM5pBV4cN/view?usp=share_link","site_ref_link":"https://drive.google.com/drive/folders/1fCTyr7Pfcy0DB_utwS1wIUyDltR2WaU4?usp=share_link","state_ref_link":"https://drive.google.com/drive/folders/155QqwGqpkTGGSlJeFG-y-3UzCgW2P9LH?usp=share_link","ObjectId":1849}},{"type":"Feature","id":1859,"geometry":{"type":"Point","coordinates":[-122.381605,47.979295]},"properties":{"site_name":"Deer Lake Area PFAS","other_site_names":null,"state":"Washington","industry":"Other","matrix_type":"Groundwater","matrix":"Groundwater","year":2022,"pfoa":"3","pfos":"3","total_pfas":15,"pfas_level":15,"notes":null,"regulation_gvt_link":null,"resources_link":"https://apps.ecology.wa.gov/cleanupsearch/site/16781","suspected_source_link":"https://drive.google.com/file/d/1jKNTK8cPya1zcKuOlmvQKgmU0RS61dXt/view?usp=share_link","pfas_testing_link":"https://drive.google.com/file/d/1jKNTK8cPya1zcKuOlmvQKgmU0RS61dXt/view?usp=share_link","site_ref_link":"https://drive.google.com/drive/folders/1hn-yzqi1RxDawLI4GiDR2oi3XSgNafD8?usp=share_link","state_ref_link":"https://drive.google.com/drive/folders/155QqwGqpkTGGSlJeFG-y-3UzCgW2P9LH?usp=share_link","ObjectId":1859}},{"type":"Feature","id":1884,"geometry":{"type":"Point","coordinates":[-122.045731,47.536604]},"properties":{"site_name":"Issaquah Valley Elementary School & Dodd Fields Park","other_site_names":null,"state":"Washington","industry":"Other","matrix_type":"Groundwater","matrix":"Groundwater","year":2022,"pfoa":"1","pfos":"85","total_pfas":null,"pfas_level":85,"notes":null,"regulation_gvt_link":null,"resources_link":"https://apps.ecology.wa.gov/cleanupsearch/site/16583","suspected_source_link":"https://drive.google.com/file/d/1IABcmA5Gy8NZzJHJ0OeoeucBWUvMOmgP/view?usp=share_link","pfas_testing_link":"https://drive.google.com/file/d/1IABcmA5Gy8NZzJHJ0OeoeucBWUvMOmgP/view?usp=share_link","site_ref_link":"https://drive.google.com/drive/folders/15UWmbcJQzRlvGRimqyrMJQ7R_igzY5pc?usp=share_link","state_ref_link":"https://drive.google.com/drive/folders/155QqwGqpkTGGSlJeFG-y-3UzCgW2P9LH?usp=share_link","ObjectId":1884}},{"type":"Feature","id":1894,"geometry":{"type":"Point","coordinates":[-122.691182,47.600562]},"properties":{"site_name":"Bremerton NAVBASE","other_site_names":"Naval Base Kitsap, Puget Sound Naval Shipyard Complex","state":"Washington","industry":"Military","matrix_type":"Other Water","matrix":"Drinking Water","year":2022,"pfoa":"171","pfos":null,"total_pfas":null,"pfas_level":171,"notes":null,"regulation_gvt_link":"https://cumulis.epa.gov/supercpad/SiteProfiles/index.cfm?fuseaction=second.cleanup&id=1001107","resources_link":"https://kilmer.house.gov/news/in-the-news/navy-to-test-drinking-water-from-wells-bordering-bangor-for-contamination","suspected_source_link":"https://www.ewg.org/news-insights/news-release/2022/05/high-levels-forever-chemicals-detected-dept-defense-community","pfas_testing_link":null,"site_ref_link":"https://apps.ecology.wa.gov/cleanupsearch/site/130#site-documents","state_ref_link":null,"ObjectId":1894}},{"type":"Feature","id":1895,"geometry":{"type":"Point","coordinates":[-122.414145,48.095504]},"properties":{"site_name":"Mabana Area PFAS","other_site_names":null,"state":"Washington","industry":"Other","matrix_type":"Groundwater","matrix":"Groundwater","year":2022,"pfoa":"0","pfos":"0","total_pfas":204,"pfas_level":204,"notes":null,"regulation_gvt_link":null,"resources_link":"https://apps.ecology.wa.gov/cleanupsearch/site/16779","suspected_source_link":"https://drive.google.com/file/d/1lITVdNx_ByAoFrMVqHTqTyCQc_2U2PGr/view?usp=share_link","pfas_testing_link":"https://drive.google.com/file/d/1lITVdNx_ByAoFrMVqHTqTyCQc_2U2PGr/view?usp=share_link","site_ref_link":"https://drive.google.com/drive/folders/1IqSn0LOP33A3LKeBeiYfLl87nJU9M053?usp=share_link","state_ref_link":"https://drive.google.com/drive/folders/155QqwGqpkTGGSlJeFG-y-3UzCgW2P9LH?usp=share_link","ObjectId":1895}},{"type":"Feature","id":1896,"geometry":{"type":"Point","coordinates":[-122.614648,48.208948]},"properties":{"site_name":"Harrington Lagoon Area","other_site_names":null,"state":"Washington","industry":"Other","matrix_type":"Groundwater","matrix":"Groundwater","year":2022,"pfoa":"3","pfos":"80","total_pfas":251,"pfas_level":251,"notes":null,"regulation_gvt_link":null,"resources_link":"https://apps.ecology.wa.gov/cleanupsearch/site/16780","suspected_source_link":"https://drive.google.com/file/d/1XbiRAhFDOVx3JY_5I17wAc6_wPA4ZH_T/view?usp=share_link","pfas_testing_link":"https://drive.google.com/file/d/1XbiRAhFDOVx3JY_5I17wAc6_wPA4ZH_T/view?usp=share_link","site_ref_link":"https://drive.google.com/drive/folders/1WC4cYCjwhJ25K1H3Xkm7fiyZ0nrEqycE?usp=share_link","state_ref_link":"https://drive.google.com/drive/folders/155QqwGqpkTGGSlJeFG-y-3UzCgW2P9LH?usp=share_link","ObjectId":1896}},{"type":"Feature","id":2019,"geometry":{"type":"Point","coordinates":[-122.718103,47.72215]},"properties":{"site_name":"Naval Base Kitsap-Bangor","other_site_names":"Bangor Naval Submarine Base","state":"Washington","industry":"Military","matrix_type":"Groundwater","matrix":"Groundwater","year":null,"pfoa":null,"pfos":null,"total_pfas":null,"pfas_level":70,"notes":"AFFF was used for testing, training, and fire emergencies. PFAS sampled \u003e70 ppt, no data available for actual levels.","regulation_gvt_link":null,"resources_link":"https://www.navfac.navy.mil/navfac_worldwide/pacific/fecs/northwest/about_us/northwest_documents/environmental-restoration/pfas-groundwater-and-drinking-water-investigation/nbk_pfas.html#:~:text=Since%20February%202020%2C%20the%20Navy,substances%2C%20commonly%20known%20as%20PFAS.&text=(Out%20of%20respect%20for%20owner,the%20Navy%20to%20the%20owners.)","suspected_source_link":"https://www.navfac.navy.mil/navfac_worldwide/pacific/fecs/northwest/about_us/northwest_documents/environmental-restoration/pfas-groundwater-and-drinking-water-investigation/nbk_pfas.html#:~:text=Since%20February%202020%2C%20the%20Navy,substances%2C%20commonly%20known%20as%20PFAS.&text=(Out%20of%20respect%20for%20owner,the%20Navy%20to%20the%20owners.)","pfas_testing_link":"https://www.navfac.navy.mil/navfac_worldwide/pacific/fecs/northwest/about_us/northwest_documents/environmental-restoration/pfas-groundwater-and-drinking-water-investigation/nbk_pfas.html#:~:text=Since%20February%202020%2C%20the%20Navy,substances%2C%20commonly%20known%20as%20PFAS.&text=(Out%20of%20respect%20for%20owner,the%20Navy%20to%20the%20owners.)","site_ref_link":"https://drive.google.com/drive/u/0/folders/1JLLe1JqKBWH71sMfEoYVcJQrYv9_V8uw","state_ref_link":"https://drive.google.com/drive/u/0/folders/1McBSeX2VTKGuIpe-IdaFYayBBQsc8_kn","ObjectId":2019}},{"type":"Feature","id":2094,"geometry":{"type":"Point","coordinates":[-122.043607,47.532268]},"properties":{"site_name":"Eastside Fire Rescue","other_site_names":null,"state":"Washington","industry":"Fire Department/Training Facility","matrix_type":"Groundwater","matrix":"Groundwater","year":null,"pfoa":null,"pfos":null,"total_pfas":2354,"pfas_level":2354,"notes":"AFFF used at Eastside Fire Rescue","regulation_gvt_link":"https://www.issaquahwa.gov/1742/PFAS","resources_link":"https://www.doh.wa.gov/CommunityandEnvironment/Contaminants/PFAS","suspected_source_link":"https://www.issaquahwa.gov/PFCs","pfas_testing_link":"https://www.issaquahwa.gov/490/Water-Quality","site_ref_link":"https://drive.google.com/drive/u/0/folders/15UWmbcJQzRlvGRimqyrMJQ7R_igzY5pc","state_ref_link":"https://drive.google.com/drive/u/0/folders/1McBSeX2VTKGuIpe-IdaFYayBBQsc8_kn","ObjectId":2094}},{"type":"Feature","id":2117,"geometry":{"type":"Point","coordinates":[-122.672257,48.34109]},"properties":{"site_name":"Naval Air Station Whidbey Island","other_site_names":"Naval Air Station, Whidbey Island (Ault Field)","state":"Washington","industry":"Military","matrix_type":"Groundwater","matrix":"Groundwater","year":null,"pfoa":"58,500","pfos":"43,100","total_pfas":null,"pfas_level":58922,"notes":"AFFF used at Base","regulation_gvt_link":"https://www.islandcountywa.gov/Health/EH/Hydrogeology/Pages/NAS-PFAS.aspx","resources_link":"https://www.doh.wa.gov/CommunityandEnvironment/Contaminants/PFAS","suspected_source_link":"https://www.ezview.wa.gov/Portals/_1962/Documents/PFAS/083017Slides.pdf  ","pfas_testing_link":"https://www.navfac.navy.mil/content/dam/navfac/NAVFAC%20Atlantic/NAVFAC%20Northwest/PDFs/About%20Us/environmental-restoration-2019/NASWI_DW_April19%20Resampling%20Data%20Summary.pdf","site_ref_link":"https://drive.google.com/drive/u/0/folders/1FjH4As9Eg1a3-3hrRU0UK-uIMwdCssQL","state_ref_link":"https://drive.google.com/drive/u/0/folders/1McBSeX2VTKGuIpe-IdaFYayBBQsc8_kn","ObjectId":2117}},{"type":"Feature","id":2434,"geometry":{"type":"Point","coordinates":[-122.043607,47.532268]},"properties":{"site_name":"Eastside Fire Rescue","other_site_names":null,"state":"Washington","industry":"Fire Department/Training Facility","matrix_type":"Groundwater","matrix":"Groundwater","year":null,"pfoa":null,"pfos":null,"total_pfas":2354,"pfas_level":2354,"notes":"AFFF used at Eastside Fire Rescue","regulation_gvt_link":"https://www.issaquahwa.gov/1742/PFAS","resources_link":"https://www.doh.wa.gov/CommunityandEnvironment/Contaminants/PFAS","suspected_source_link":"https://www.issaquahwa.gov/PFCs","pfas_testing_link":"https://www.issaquahwa.gov/490/Water-Quality","site_ref_link":"https://drive.google.com/drive/u/0/folders/15UWmbcJQzRlvGRimqyrMJQ7R_igzY5pc","state_ref_link":"https://drive.google.com/drive/u/0/folders/1McBSeX2VTKGuIpe-IdaFYayBBQsc8_kn","ObjectId":2434}},{"type":"Feature","id":2435,"geometry":{"type":"Point","coordinates":[-117.643853,47.618258]},"properties":{"site_name":"Fairchild Air Force Base","other_site_names":"Fairchild Air Force Base (4 Waste Areas)","state":"Washington","industry":"Military","matrix_type":"Groundwater","matrix":"Groundwater","year":2017,"pfoa":"22000","pfos":"150000","total_pfas":176200,"pfas_level":176200,"notes":"AFFF used at Fairchild Air Force Base ","regulation_gvt_link":"https://www.fairchild.af.mil/PFOS-PFOA-INFO/","resources_link":" https://www.doh.wa.gov/CommunityandEnvironment/Contaminants/PFAS\nhttps://www.fairchild.af.mil/PFOS-PFOA-INFO/","suspected_source_link":"http://www.spokesman.com/stories/2017/may/03/testing-confirms-chemical-contamination-in-residen/\nhttps://www.fairchild.af.mil/News/Article-Display/Article/1184640/preliminary-ground%20water-sampling-results-indicate-contaminants-in-airway-height/","pfas_testing_link":"https://drive.google.com/file/d/1tdL2wkvJscpluhxwjIvuqkovB9bt4hiV/view?usp=sharing","site_ref_link":"https://drive.google.com/drive/u/0/folders/1DGQhyU9WtPLafVl9aPLXKk6I2XU62_kO","state_ref_link":"https://drive.google.com/drive/u/0/folders/1McBSeX2VTKGuIpe-IdaFYayBBQsc8_kn","ObjectId":2435}},{"type":"Feature","id":2436,"geometry":{"type":"Point","coordinates":[-122.485732,47.134243]},"properties":{"site_name":"Joint Base Lewis-McChord","other_site_names":null,"state":"Washington","industry":"Military","matrix_type":"Other Water","matrix":"Drinking Water","year":2023,"pfoa":null,"pfos":null,"total_pfas":103,"pfas_level":103,"notes":null,"regulation_gvt_link":"https://www.lakewoodwater.org/pwt/page/update-water-sampling-jblm-and-lwd","resources_link":"https://www.doh.wa.gov/CommunityandEnvironment/Contaminants/PFAS","suspected_source_link":"https://www.thenewstribune.com/news/local/military/article136098683.html","pfas_testing_link":"https://aec.army.mil/PFAS/WA/YTC","site_ref_link":"https://drive.google.com/drive/u/0/folders/1Yir4z1sLqj8TuB5VdxXk2PyVT-sYYr7T","state_ref_link":"https://drive.google.com/drive/u/0/folders/1McBSeX2VTKGuIpe-IdaFYayBBQsc8_kn","ObjectId":2436}},{"type":"Feature","id":2437,"geometry":{"type":"Point","coordinates":[-122.672257,48.34109]},"properties":{"site_name":"Naval Air Station Whidbey Island","other_site_names":"Naval Air Station, Whidbey Island (Ault Field)","state":"Washington","industry":"Military","matrix_type":"Groundwater","matrix":"Groundwater","year":null,"pfoa":"58500","pfos":"43100","total_pfas":null,"pfas_level":58922,"notes":"AFFF used at Base","regulation_gvt_link":"https://www.islandcountywa.gov/Health/EH/Hydrogeology/Pages/NAS-PFAS.aspx","resources_link":"https://www.doh.wa.gov/CommunityandEnvironment/Contaminants/PFAS","suspected_source_link":"https://www.ezview.wa.gov/Portals/_1962/Documents/PFAS/083017Slides.pdf  ","pfas_testing_link":"https://www.navfac.navy.mil/content/dam/navfac/NAVFAC%20Atlantic/NAVFAC%20Northwest/PDFs/About%20Us/environmental-restoration-2019/NASWI_DW_April19%20Resampling%20Data%20Summary.pdf","site_ref_link":"https://drive.google.com/drive/u/0/folders/1FjH4As9Eg1a3-3hrRU0UK-uIMwdCssQL","state_ref_link":"https://drive.google.com/drive/u/0/folders/1McBSeX2VTKGuIpe-IdaFYayBBQsc8_kn","ObjectId":2437}},{"type":"Feature","id":2616,"geometry":{"type":"Point","coordinates":[-123.655274,46.979233]},"properties":{"site_name":"Montesano","other_site_names":null,"state":"Washington","industry":"Military","matrix_type":"Other Water","matrix":"Drinking Water","year":2018,"pfoa":null,"pfos":null,"total_pfas":1,"pfas_level":1,"notes":null,"regulation_gvt_link":null,"resources_link":null,"suspected_source_link":"https://drive.google.com/file/d/1g1t60FsMLcfluvkLqorqlbsHnkF_rNZw/view?usp=sharing","pfas_testing_link":"https://drive.google.com/file/d/1g1t60FsMLcfluvkLqorqlbsHnkF_rNZw/view?usp=sharing","site_ref_link":"https://drive.google.com/drive/u/0/folders/17vc5JX3Gvo92Bih-kg-GABnBbExIJhXg","state_ref_link":"https://drive.google.com/drive/u/0/folders/1McBSeX2VTKGuIpe-IdaFYayBBQsc8_kn","ObjectId":2616}},{"type":"Feature","id":2909,"geometry":{"type":"Point","coordinates":[-119.305529,47.16546]},"properties":{"site_name":"Moses Lake Wellfield Contamination","other_site_names":null,"state":"Washington","industry":"Military","matrix_type":"Groundwater","matrix":"Groundwater","year":2016,"pfoa":"336","pfos":"348","total_pfas":1614,"pfas_level":1614,"notes":"Identified by the Environmental Protection Agency (EPA) as having PFAS contamination. Provided to the Senate Committee on Environment and Public Works.","regulation_gvt_link":null,"resources_link":"https://cumulis.epa.gov/supercpad/SiteProfiles/index.cfm?fuseaction=second.cleanup&id=1001249","suspected_source_link":"https://www.epw.senate.gov/public/index.cfm/superfund-sites-identified-by-epa-to-have-pfas-contamination","pfas_testing_link":"https://semspub.epa.gov/work/10/100253690.pdf","site_ref_link":null,"state_ref_link":null,"ObjectId":2909}},{"type":"Feature","id":3081,"geometry":{"type":"Point","coordinates":[-122.691182,47.600562]},"properties":{"site_name":"Bremerton NAVBASE","other_site_names":"Naval Base Kitsap, Puget Sound Naval Shipyard Complex","state":"Washington","industry":"Military","matrix_type":"Other Water","matrix":"Drinking Water","year":2022,"pfoa":"171","pfos":null,"total_pfas":null,"pfas_level":171,"notes":null,"regulation_gvt_link":"https://cumulis.epa.gov/supercpad/SiteProfiles/index.cfm?fuseaction=second.cleanup&id=1001107","resources_link":"https://kilmer.house.gov/news/in-the-news/navy-to-test-drinking-water-from-wells-bordering-bangor-for-contamination","suspected_source_link":"https://www.ewg.org/news-insights/news-release/2022/05/high-levels-forever-chemicals-detected-dept-defense-community","pfas_testing_link":null,"site_ref_link":"https://apps.ecology.wa.gov/cleanupsearch/site/130#site-documents","state_ref_link":null,"ObjectId":3081}},{"type":"Feature","id":3224,"geometry":{"type":"Point","coordinates":[-122.281554,47.894953]},"properties":{"site_name":"Big Gulch Creek Subbasin 9","other_site_names":"Big Gulch Creek Drainage Sub-Basin 9\nand Swamp Creek Drainage\nSub-Basin 8","state":"Washington","industry":"Airport","matrix_type":"Solid","matrix":"Soil","year":2022,"pfoa":"0","pfos":"2","total_pfas":2,"pfas_level":2,"notes":null,"regulation_gvt_link":null,"resources_link":"https://apps.ecology.wa.gov/cleanupsearch/site/16778#site-documents","suspected_source_link":"https://drive.google.com/file/d/1g-2jl8PSRwVm1-nGTAdP7eOSM5pBV4cN/view?usp=share_link","pfas_testing_link":"https://drive.google.com/file/d/1g-2jl8PSRwVm1-nGTAdP7eOSM5pBV4cN/view?usp=share_link","site_ref_link":"https://drive.google.com/drive/folders/1fCTyr7Pfcy0DB_utwS1wIUyDltR2WaU4?usp=share_link","state_ref_link":"https://drive.google.com/drive/folders/155QqwGqpkTGGSlJeFG-y-3UzCgW2P9LH?usp=share_link","ObjectId":3224}},{"type":"Feature","id":3225,"geometry":{"type":"Point","coordinates":[-122.381605,47.979295]},"properties":{"site_name":"Deer Lake Area PFAS","other_site_names":null,"state":"Washington","industry":"Other","matrix_type":"Groundwater","matrix":"Groundwater","year":2022,"pfoa":"3","pfos":"3","total_pfas":15,"pfas_level":15,"notes":null,"regulation_gvt_link":null,"resources_link":"https://apps.ecology.wa.gov/cleanupsearch/site/16781","suspected_source_link":"https://drive.google.com/file/d/1jKNTK8cPya1zcKuOlmvQKgmU0RS61dXt/view?usp=share_link","pfas_testing_link":"https://drive.google.com/file/d/1jKNTK8cPya1zcKuOlmvQKgmU0RS61dXt/view?usp=share_link","site_ref_link":"https://drive.google.com/drive/folders/1hn-yzqi1RxDawLI4GiDR2oi3XSgNafD8?usp=share_link","state_ref_link":"https://drive.google.com/drive/folders/155QqwGqpkTGGSlJeFG-y-3UzCgW2P9LH?usp=share_link","ObjectId":3225}},{"type":"Feature","id":3226,"geometry":{"type":"Point","coordinates":[-122.614648,48.208948]},"properties":{"site_name":"Harrington Lagoon Area","other_site_names":null,"state":"Washington","industry":"Other","matrix_type":"Groundwater","matrix":"Groundwater","year":2022,"pfoa":"3","pfos":"80","total_pfas":251,"pfas_level":251,"notes":null,"regulation_gvt_link":null,"resources_link":"https://apps.ecology.wa.gov/cleanupsearch/site/16780","suspected_source_link":"https://drive.google.com/file/d/1XbiRAhFDOVx3JY_5I17wAc6_wPA4ZH_T/view?usp=share_link","pfas_testing_link":"https://drive.google.com/file/d/1XbiRAhFDOVx3JY_5I17wAc6_wPA4ZH_T/view?usp=share_link","site_ref_link":"https://drive.google.com/drive/folders/1WC4cYCjwhJ25K1H3Xkm7fiyZ0nrEqycE?usp=share_link","state_ref_link":"https://drive.google.com/drive/folders/155QqwGqpkTGGSlJeFG-y-3UzCgW2P9LH?usp=share_link","ObjectId":3226}},{"type":"Feature","id":3227,"geometry":{"type":"Point","coordinates":[-122.045731,47.536604]},"properties":{"site_name":"Issaquah Valley Elementary School & Dodd Fields Park","other_site_names":null,"state":"Washington","industry":"Other","matrix_type":"Groundwater","matrix":"Groundwater","year":2022,"pfoa":"1","pfos":"85","total_pfas":null,"pfas_level":85,"notes":null,"regulation_gvt_link":null,"resources_link":"https://apps.ecology.wa.gov/cleanupsearch/site/16583","suspected_source_link":"https://drive.google.com/file/d/1IABcmA5Gy8NZzJHJ0OeoeucBWUvMOmgP/view?usp=share_link","pfas_testing_link":"https://drive.google.com/file/d/1IABcmA5Gy8NZzJHJ0OeoeucBWUvMOmgP/view?usp=share_link","site_ref_link":"https://drive.google.com/drive/folders/15UWmbcJQzRlvGRimqyrMJQ7R_igzY5pc?usp=share_link","state_ref_link":"https://drive.google.com/drive/folders/155QqwGqpkTGGSlJeFG-y-3UzCgW2P9LH?usp=share_link","ObjectId":3227}},{"type":"Feature","id":3228,"geometry":{"type":"Point","coordinates":[-122.305124,47.526461]},"properties":{"site_name":"Jorgensen Forge Corp","other_site_names":null,"state":"Washington","industry":"Industry","matrix_type":"Groundwater","matrix":"Groundwater","year":2021,"pfoa":"350","pfos":"15000","total_pfas":19670,"pfas_level":19670,"notes":null,"regulation_gvt_link":null,"resources_link":"https://apps.ecology.wa.gov/cleanupsearch/site/3689#site-documents","suspected_source_link":"https://drive.google.com/file/d/1zyd5mRvoin3KfmgDkD0lkrVGLN-yR1lD/view?usp=share_link","pfas_testing_link":"https://drive.google.com/file/d/1zyd5mRvoin3KfmgDkD0lkrVGLN-yR1lD/view?usp=share_link","site_ref_link":"https://drive.google.com/drive/folders/1TeDRXqtANK2wtx7qtmILrNdDiyEbMXqH?usp=share_link","state_ref_link":"https://drive.google.com/drive/folders/155QqwGqpkTGGSlJeFG-y-3UzCgW2P9LH?usp=share_link","ObjectId":3228}},{"type":"Feature","id":3229,"geometry":{"type":"Point","coordinates":[-122.414145,48.095504]},"properties":{"site_name":"Mabana Area PFAS","other_site_names":null,"state":"Washington","industry":"Other","matrix_type":"Groundwater","matrix":"Groundwater","year":2022,"pfoa":"0","pfos":"0","total_pfas":204,"pfas_level":204,"notes":null,"regulation_gvt_link":null,"resources_link":"https://apps.ecology.wa.gov/cleanupsearch/site/16779","suspected_source_link":"https://drive.google.com/file/d/1lITVdNx_ByAoFrMVqHTqTyCQc_2U2PGr/view?usp=share_link","pfas_testing_link":"https://drive.google.com/file/d/1lITVdNx_ByAoFrMVqHTqTyCQc_2U2PGr/view?usp=share_link","site_ref_link":"https://drive.google.com/drive/folders/1IqSn0LOP33A3LKeBeiYfLl87nJU9M053?usp=share_link","state_ref_link":"https://drive.google.com/drive/folders/155QqwGqpkTGGSlJeFG-y-3UzCgW2P9LH?usp=share_link","ObjectId":3229}},{"type":"Feature","id":3230,"geometry":{"type":"Point","coordinates":[-122.04531,47.53661]},"properties":{"site_name":"Rainier Trail","other_site_names":null,"state":"Washington","industry":"AFFF","matrix_type":"Groundwater","matrix":"Groundwater","year":2020,"pfoa":"830","pfos":"21000","total_pfas":null,"pfas_level":21650,"notes":null,"regulation_gvt_link":null,"resources_link":"https://apps.ecology.wa.gov/cleanupsearch/site/16582","suspected_source_link":"https://drive.google.com/file/d/1REni8uzbAVJ-YXkhiY1k9zG4sU6NQQZx/view?usp=share_link","pfas_testing_link":"https://drive.google.com/file/d/1REni8uzbAVJ-YXkhiY1k9zG4sU6NQQZx/view?usp=share_link","site_ref_link":"https://drive.google.com/drive/folders/15UWmbcJQzRlvGRimqyrMJQ7R_igzY5pc?usp=share_link","state_ref_link":"https://drive.google.com/drive/folders/155QqwGqpkTGGSlJeFG-y-3UzCgW2P9LH?usp=share_link","ObjectId":3230}},{"type":"Feature","id":3231,"geometry":{"type":"Point","coordinates":[-122.033716,47.531093]},"properties":{"site_name":"Memorial Field","other_site_names":"Eastside Fire and Rescue Station 71","state":"Washington","industry":"Fire Department/Training Facility","matrix_type":"Groundwater","matrix":"Groundwater","year":2022,"pfoa":"1000","pfos":"8600","total_pfas":9287,"pfas_level":9287,"notes":null,"regulation_gvt_link":null,"resources_link":"https://apps.ecology.wa.gov/cleanupsearch/site/16584","suspected_source_link":"https://drive.google.com/file/d/1ZJeoLUR3-CxNS2042nSF3vXPjvUCxWbH/view?usp=share_link","pfas_testing_link":"https://drive.google.com/file/d/1ZJeoLUR3-CxNS2042nSF3vXPjvUCxWbH/view?usp=share_link","site_ref_link":"https://drive.google.com/drive/folders/15UWmbcJQzRlvGRimqyrMJQ7R_igzY5pc?usp=share_link","state_ref_link":"https://drive.google.com/drive/folders/155QqwGqpkTGGSlJeFG-y-3UzCgW2P9LH?usp=share_link","ObjectId":3231}},{"type":"Feature","id":3232,"geometry":{"type":"Point","coordinates":[-117.53948,47.624111]},"properties":{"site_name":"Spokane International Airport","other_site_names":null,"state":"Washington","industry":"Airport","matrix_type":"Groundwater","matrix":"Groundwater","year":2017,"pfoa":"350","pfos":"120","total_pfas":470,"pfas_level":470,"notes":null,"regulation_gvt_link":null,"resources_link":"https://apps.ecology.wa.gov/cleanupsearch/site/16774","suspected_source_link":"https://drive.google.com/file/d/1KwPHXjQJksjBuQS183SOgJRJiNOjTpHB/view?usp=share_link","pfas_testing_link":"https://drive.google.com/file/d/1KwPHXjQJksjBuQS183SOgJRJiNOjTpHB/view?usp=share_link","site_ref_link":"https://drive.google.com/drive/folders/1t_vKD0QTsKAwWEVIbZDi5XfhQ6_Rer77?usp=share_link","state_ref_link":"https://drive.google.com/drive/folders/155QqwGqpkTGGSlJeFG-y-3UzCgW2P9LH?usp=share_link","ObjectId":3232}},{"type":"Feature","id":3233,"geometry":{"type":"Point","coordinates":[-119.114667,46.259702]},"properties":{"site_name":"Tri-County Airport Jet Engine Crash","other_site_names":"Pasco Airport, Tri-Cities Airport","state":"Washington","industry":"Airport","matrix_type":"Unknown","matrix":null,"year":2022,"pfoa":"380","pfos":"9500","total_pfas":18260,"pfas_level":18260,"notes":null,"regulation_gvt_link":null,"resources_link":"https://apps.ecology.wa.gov/cleanupsearch/site/16738","suspected_source_link":"https://drive.google.com/file/d/1jMcmt6UCQOzGA-sxzqhhavJpeq5mLAiv/view?usp=share_link","pfas_testing_link":"https://drive.google.com/file/d/1jMcmt6UCQOzGA-sxzqhhavJpeq5mLAiv/view?usp=share_link","site_ref_link":"https://drive.google.com/drive/folders/1lznZXrykCc6TOsRw5hALEcK5bPsFGadI?usp=share_link","state_ref_link":"https://drive.google.com/drive/folders/155QqwGqpkTGGSlJeFG-y-3UzCgW2P9LH?usp=share_link","ObjectId":3233}},{"type":"Feature","id":3234,"geometry":{"type":"Point","coordinates":[-120.356517,46.68226]},"properties":{"site_name":"Yakima Training Center","other_site_names":null,"state":"Washington","industry":"Military","matrix_type":"Other Water","matrix":"Drinking Water","year":2022,"pfoa":null,"pfos":null,"total_pfas":null,"pfas_level":1650,"notes":null,"regulation_gvt_link":null,"resources_link":"https://drive.google.com/file/d/1qabRg4MhXX3CUIl9ej8lDrW1FIizqC2y/view?usp=share_link","suspected_source_link":"https://drive.google.com/file/d/1qabRg4MhXX3CUIl9ej8lDrW1FIizqC2y/view?usp=share_link","pfas_testing_link":"https://drive.google.com/file/d/1SOsHTWkc1bT3I-nd3AI4iO_7TWhzMKe_/view?usp=sharing","site_ref_link":"https://drive.google.com/drive/folders/1mRRhgIzNBREH-lzkvTHPSlbwfO5bgiee?usp=share_link","state_ref_link":"https://drive.google.com/drive/folders/155QqwGqpkTGGSlJeFG-y-3UzCgW2P9LH?usp=share_link","ObjectId":3234}},{"type":"Feature","id":3727,"geometry":{"type":"Point","coordinates":[-122.718103,47.72215]},"properties":{"site_name":"Naval Base Kitsap-Bangor","other_site_names":"Bangor Naval Submarine Base","state":"Washington","industry":"Military","matrix_type":"Groundwater","matrix":"Groundwater","year":null,"pfoa":null,"pfos":null,"total_pfas":null,"pfas_level":70,"notes":"AFFF was used for testing, training, and fire emergencies. PFAS sampled \u003e70 ppt, no data available for actual levels.","regulation_gvt_link":null,"resources_link":"https://www.navfac.navy.mil/navfac_worldwide/pacific/fecs/northwest/about_us/northwest_documents/environmental-restoration/pfas-groundwater-and-drinking-water-investigation/nbk_pfas.html#:~:text=Since%20February%202020%2C%20the%20Navy,substances%2C%20commonly%20known%20as%20PFAS.&text=(Out%20of%20respect%20for%20owner,the%20Navy%20to%20the%20owners.)","suspected_source_link":"https://www.navfac.navy.mil/navfac_worldwide/pacific/fecs/northwest/about_us/northwest_documents/environmental-restoration/pfas-groundwater-and-drinking-water-investigation/nbk_pfas.html#:~:text=Since%20February%202020%2C%20the%20Navy,substances%2C%20commonly%20known%20as%20PFAS.&text=(Out%20of%20respect%20for%20owner,the%20Navy%20to%20the%20owners.)","pfas_testing_link":"https://www.navfac.navy.mil/navfac_worldwide/pacific/fecs/northwest/about_us/northwest_documents/environmental-restoration/pfas-groundwater-and-drinking-water-investigation/nbk_pfas.html#:~:text=Since%20February%202020%2C%20the%20Navy,substances%2C%20commonly%20known%20as%20PFAS.&text=(Out%20of%20respect%20for%20owner,the%20Navy%20to%20the%20owners.)","site_ref_link":"https://drive.google.com/drive/u/0/folders/1JLLe1JqKBWH71sMfEoYVcJQrYv9_V8uw","state_ref_link":"https://drive.google.com/drive/u/0/folders/1McBSeX2VTKGuIpe-IdaFYayBBQsc8_kn","ObjectId":3727}},{"type":"Feature","id":4248,"geometry":{"type":"Point","coordinates":[-122.548055,47.574443]},"properties":{"site_name":"Manchester Laboratory","other_site_names":"Old Navy Dump; Manchester Annex","state":"Washington","industry":"Military","matrix_type":"Groundwater","matrix":"Groundwater","year":2021,"pfoa":"45","pfos":"128","total_pfas":null,"pfas_level":139,"notes":null,"regulation_gvt_link":null,"resources_link":null,"suspected_source_link":"https://cumulis.epa.gov/supercpad/SiteProfiles/index.cfm?fuseaction=second.Cleanup&id=1001134#bkground","pfas_testing_link":"https://semspub.epa.gov/work/10/100599390.pdf","site_ref_link":"https://drive.google.com/drive/folders/1r1zpizLcM7Mo-5AgavoeUilWT_bVpDp_?usp=drive_link","state_ref_link":"https://drive.google.com/drive/folders/155QqwGqpkTGGSlJeFG-y-3UzCgW2P9LH?usp=drive_link","ObjectId":4248}},{"type":"Feature","id":4292,"geometry":{"type":"Point","coordinates":[-121.659899,47.453435]},"properties":{"site_name":"WA State Fire Training Academy","other_site_names":null,"state":"Washington","industry":"Fire Department/Training Facility","matrix_type":"Groundwater","matrix":"Groundwater","year":2022,"pfoa":"56","pfos":"520","total_pfas":1108,"pfas_level":1108,"notes":"The Washington State FTA used AFFF from mid-1980s until at least 2013 for training exercises. Sampling in 2017 and  2022. PFAS also measured in finished tap water: 194ppt total PFAS","regulation_gvt_link":"https://apps.ecology.wa.gov/cleanupsearch/site/16863","resources_link":"https://apps.ecology.wa.gov/cleanupsearch/site/16863","suspected_source_link":"https://drive.google.com/drive/folders/1Ci_4vzc2wJih6tgwWbZOXCg5OVRmkTCR?usp=drive_link","pfas_testing_link":"https://drive.google.com/drive/folders/1Ci_4vzc2wJih6tgwWbZOXCg5OVRmkTCR?usp=drive_link","site_ref_link":"https://drive.google.com/drive/folders/1Ci_4vzc2wJih6tgwWbZOXCg5OVRmkTCR?usp=drive_link","state_ref_link":"https://drive.google.com/drive/folders/155QqwGqpkTGGSlJeFG-y-3UzCgW2P9LH?usp=drive_link","ObjectId":4292}}]}