{"type":"FeatureCollection","crs":{"type":"name","properties":{"name":"EPSG:4326"}},"features":[{"type":"Feature","id":595,"geometry":{"type":"Point","coordinates":[-111.927383,40.43417]},"properties":{"site_name":"Camp Williams","other_site_names":null,"state":"Utah","industry":"Military","matrix_type":"Other Water","matrix":"Drinking Water","year":2018,"pfoa":"3","pfos":"2","total_pfas":30,"pfas_level":30,"notes":null,"regulation_gvt_link":null,"resources_link":null,"suspected_source_link":"https://drive.google.com/file/d/1g1t60FsMLcfluvkLqorqlbsHnkF_rNZw/view?usp=sharing","pfas_testing_link":"https://drive.google.com/file/d/1g1t60FsMLcfluvkLqorqlbsHnkF_rNZw/view?usp=sharing","site_ref_link":"https://drive.google.com/drive/u/0/folders/17vc5JX3Gvo92Bih-kg-GABnBbExIJhXg","state_ref_link":"https://drive.google.com/drive/u/0/folders/1A6o4FTnC1drWv54oLHsMSYzSCiWu2yR-","ObjectId":595}},{"type":"Feature","id":801,"geometry":{"type":"Point","coordinates":[-111.954086,40.788231]},"properties":{"site_name":"Salt Lake City International Airport","other_site_names":"Utah Air National Guard Base","state":"Utah","industry":"Military","matrix_type":"Groundwater","matrix":"Groundwater","year":2018,"pfoa":"29,000","pfos":"110,000","total_pfas":541700,"pfas_level":541700,"notes":"AFFF used at Salt Lake City International Airport / Utah Air National Guard Base","regulation_gvt_link":"N/A","resources_link":"https://ar.cce.af.mil/Search","suspected_source_link":null,"pfas_testing_link":"https://drive.google.com/file/d/1Dg9KY12O2vDkW5ixw-aGV9DFcXlvz8YS/view?usp=sharing","site_ref_link":"https://drive.google.com/drive/u/0/folders/1VQxKT8mUcaFb8ySZQjvpvJqSw8IkB-8z","state_ref_link":"https://drive.google.com/drive/u/0/folders/1A6o4FTnC1drWv54oLHsMSYzSCiWu2yR-","ObjectId":801}},{"type":"Feature","id":1061,"geometry":{"type":"Point","coordinates":[-112.410368,40.526461]},"properties":{"site_name":"Tooele Army Depot (North Area)","other_site_names":null,"state":"Utah","industry":"Military","matrix_type":"Groundwater","matrix":"Groundwater","year":2023,"pfoa":"19","pfos":"10","total_pfas":80,"pfas_level":80,"notes":null,"regulation_gvt_link":null,"resources_link":null,"suspected_source_link":"https://cumulis.epa.gov/supercpad/cursites/csitinfo.cfm?id=0800755","pfas_testing_link":"https://aec.army.mil/Portals/115/PFAS/TEAD_BRAC_PFAS_SI.pdf?ver=tlWXbWWzh7ajmMiAHl7AiA%3d%3d","site_ref_link":"https://drive.google.com/drive/folders/1QpHLgwk9HNaRmpPfrOLlC2deob80H_E4?usp=drive_link","state_ref_link":"https://drive.google.com/drive/folders/16qjjytS3XreWOlYNYNeztzyEsVDce378?usp=drive_link","ObjectId":1061}},{"type":"Feature","id":1842,"geometry":{"type":"Point","coordinates":[-111.982698,41.10968]},"properties":{"site_name":"Hill Air Force Base","other_site_names":null,"state":"Utah","industry":"Military","matrix_type":"Groundwater","matrix":"Groundwater","year":2021,"pfoa":"11,000","pfos":"54,000","total_pfas":64900,"pfas_level":64900,"notes":"AFFF used at Hill Air Force Base","regulation_gvt_link":"N/A","resources_link":"https://www.wqpmag.com/coronavirus-covid-19/utah-military-bases-show-pfas-contamination","suspected_source_link":"https://drive.google.com/file/d/1EUMAiROzk8OxvPAWubv0xGGH9zI6mw4d/view?usp=drive_link ","pfas_testing_link":"https://drive.google.com/file/d/1RabKFY9pdhm-DIsmxGBPXOssyvTzy_2r/view?usp=sharing","site_ref_link":"https://drive.google.com/drive/u/0/folders/1xybbOCa5C3sUYR3PpkRC6pE-fsMUZtt8","state_ref_link":"https://drive.google.com/drive/u/0/folders/1A6o4FTnC1drWv54oLHsMSYzSCiWu2yR-","ObjectId":1842}},{"type":"Feature","id":2422,"geometry":{"type":"Point","coordinates":[-111.982698,41.10968]},"properties":{"site_name":"Hill Air Force Base","other_site_names":null,"state":"Utah","industry":"Military","matrix_type":"Groundwater","matrix":"Groundwater","year":2021,"pfoa":"11000","pfos":"54000","total_pfas":64900,"pfas_level":64900,"notes":"AFFF used at Hill Air Force Base","regulation_gvt_link":"N/A","resources_link":"https://www.wqpmag.com/coronavirus-covid-19/utah-military-bases-show-pfas-contamination","suspected_source_link":"https://drive.google.com/file/d/1EUMAiROzk8OxvPAWubv0xGGH9zI6mw4d/view?usp=drive_link ","pfas_testing_link":"https://drive.google.com/file/d/1RabKFY9pdhm-DIsmxGBPXOssyvTzy_2r/view?usp=sharing","site_ref_link":"https://drive.google.com/drive/u/0/folders/1xybbOCa5C3sUYR3PpkRC6pE-fsMUZtt8","state_ref_link":"https://drive.google.com/drive/u/0/folders/1A6o4FTnC1drWv54oLHsMSYzSCiWu2yR-","ObjectId":2422}},{"type":"Feature","id":2423,"geometry":{"type":"Point","coordinates":[-111.954086,40.788231]},"properties":{"site_name":"Salt Lake City International Airport","other_site_names":"Utah Air National Guard Base","state":"Utah","industry":"Military","matrix_type":"Groundwater","matrix":"Groundwater","year":2018,"pfoa":"29000","pfos":"110000","total_pfas":541700,"pfas_level":541700,"notes":"AFFF used at Salt Lake City International Airport / Utah Air National Guard Base","regulation_gvt_link":"N/A","resources_link":"https://ar.cce.af.mil/Search","suspected_source_link":null,"pfas_testing_link":"https://drive.google.com/file/d/1Dg9KY12O2vDkW5ixw-aGV9DFcXlvz8YS/view?usp=sharing","site_ref_link":"https://drive.google.com/drive/u/0/folders/1VQxKT8mUcaFb8ySZQjvpvJqSw8IkB-8z","state_ref_link":"https://drive.google.com/drive/u/0/folders/1A6o4FTnC1drWv54oLHsMSYzSCiWu2yR-","ObjectId":2423}},{"type":"Feature","id":2610,"geometry":{"type":"Point","coordinates":[-111.927383,40.43417]},"properties":{"site_name":"Camp Williams","other_site_names":null,"state":"Utah","industry":"Military","matrix_type":"Other Water","matrix":"Drinking Water","year":2018,"pfoa":"3","pfos":"2","total_pfas":30,"pfas_level":30,"notes":null,"regulation_gvt_link":null,"resources_link":null,"suspected_source_link":"https://drive.google.com/file/d/1g1t60FsMLcfluvkLqorqlbsHnkF_rNZw/view?usp=sharing","pfas_testing_link":"https://drive.google.com/file/d/1g1t60FsMLcfluvkLqorqlbsHnkF_rNZw/view?usp=sharing","site_ref_link":"https://drive.google.com/drive/u/0/folders/17vc5JX3Gvo92Bih-kg-GABnBbExIJhXg","state_ref_link":"https://drive.google.com/drive/u/0/folders/1A6o4FTnC1drWv54oLHsMSYzSCiWu2yR-","ObjectId":2610}},{"type":"Feature","id":4245,"geometry":{"type":"Point","coordinates":[-112.410368,40.526461]},"properties":{"site_name":"Tooele Army Depot (North Area)","other_site_names":null,"state":"Utah","industry":"Military","matrix_type":"Groundwater","matrix":"Groundwater","year":2023,"pfoa":"19","pfos":"10","total_pfas":80,"pfas_level":80,"notes":null,"regulation_gvt_link":null,"resources_link":null,"suspected_source_link":"https://cumulis.epa.gov/supercpad/cursites/csitinfo.cfm?id=0800755","pfas_testing_link":"https://aec.army.mil/Portals/115/PFAS/TEAD_BRAC_PFAS_SI.pdf?ver=tlWXbWWzh7ajmMiAHl7AiA%3d%3d","site_ref_link":"https://drive.google.com/drive/folders/1QpHLgwk9HNaRmpPfrOLlC2deob80H_E4?usp=drive_link","state_ref_link":"https://drive.google.com/drive/folders/16qjjytS3XreWOlYNYNeztzyEsVDce378?usp=drive_link","ObjectId":4245}}]}