{"type":"FeatureCollection","crs":{"type":"name","properties":{"name":"EPSG:4326"}},"features":[{"type":"Feature","id":257,"geometry":{"type":"Point","coordinates":[-99.287914,34.655744]},"properties":{"site_name":"Altus Air Force Base","other_site_names":null,"state":"Oklahoma","industry":"Military","matrix_type":"Groundwater","matrix":"Groundwater","year":2017,"pfoa":"250,000","pfos":"900,000","total_pfas":1180000,"pfas_level":1180000,"notes":"AFFF used at Altus Air Force Base","regulation_gvt_link":"N/A","resources_link":"https://www.altus.af.mil/About-Us/Environmental-Information/","suspected_source_link":"https://drive.google.com/file/d/1EUMAiROzk8OxvPAWubv0xGGH9zI6mw4d/view?usp=drive_link ","pfas_testing_link":"https://drive.google.com/file/d/1lVkNVCsOgb44HYHL3o02NvmbfgdgI-w4/view?usp=sharing","site_ref_link":"https://drive.google.com/drive/u/0/folders/19wuesHyIopJhJye5ukc9O8tgFnF7zjLb","state_ref_link":"https://drive.google.com/drive/u/0/folders/1SrzIY6gLhHkSVGEOu51iLETRLE2RRCUn","ObjectId":257}},{"type":"Feature","id":296,"geometry":{"type":"Point","coordinates":[-95.203285,35.671886]},"properties":{"site_name":"Camp Gruber Training Center","other_site_names":null,"state":"Oklahoma","industry":"Military","matrix_type":"Other Water","matrix":"Drinking Water","year":2018,"pfoa":"1","pfos":null,"total_pfas":4,"pfas_level":4,"notes":null,"regulation_gvt_link":null,"resources_link":null,"suspected_source_link":"https://drive.google.com/file/d/1g1t60FsMLcfluvkLqorqlbsHnkF_rNZw/view?usp=sharing","pfas_testing_link":"https://drive.google.com/file/d/1g1t60FsMLcfluvkLqorqlbsHnkF_rNZw/view?usp=sharing","site_ref_link":"https://drive.google.com/drive/u/0/folders/17vc5JX3Gvo92Bih-kg-GABnBbExIJhXg","state_ref_link":"https://drive.google.com/drive/u/0/folders/1SrzIY6gLhHkSVGEOu51iLETRLE2RRCUn","ObjectId":296}},{"type":"Feature","id":401,"geometry":{"type":"Point","coordinates":[-97.41583,35.4277]},"properties":{"site_name":"Tinker Air Force Base","other_site_names":"Tinker Air Force Base (Soldier Creek/Building 3001)","state":"Oklahoma","industry":"Military","matrix_type":"Groundwater","matrix":"Groundwater","year":2016,"pfoa":"97,000","pfos":"460,000","total_pfas":474300,"pfas_level":474300,"notes":"AFFF used at Tinker Air Force Base","regulation_gvt_link":"N/A","resources_link":"http://afcec.publicadmin-record.us.af.mil/","suspected_source_link":"https://drive.google.com/file/d/1EUMAiROzk8OxvPAWubv0xGGH9zI6mw4d/view?usp=drive_link ","pfas_testing_link":"https://drive.google.com/file/d/1be_h-L5Q4H5Hiq_6heHG0KJgbGJMcrgx/view?usp=sharing","site_ref_link":"https://drive.google.com/drive/u/0/folders/1FC7ltgfD9_tHYdKT-lXgm0ggnRfaxozG","state_ref_link":"https://drive.google.com/drive/u/0/folders/1SrzIY6gLhHkSVGEOu51iLETRLE2RRCUn","ObjectId":401}},{"type":"Feature","id":633,"geometry":{"type":"Point","coordinates":[-95.874302,36.1902]},"properties":{"site_name":"Air Force Plant 3","other_site_names":"Tulsa International Airport","state":"Oklahoma","industry":"Military","matrix_type":"Groundwater","matrix":"Groundwater","year":2018,"pfoa":"410","pfos":"64","total_pfas":12694,"pfas_level":12694,"notes":null,"regulation_gvt_link":null,"resources_link":null,"suspected_source_link":"https://ar.afcec-cloud.af.mil/Search.aspx","pfas_testing_link":"https://drive.google.com/file/d/1ivM77N1kJmnG9YAmgMrwzEJBDArZRRHb/view?usp=sharing","site_ref_link":null,"state_ref_link":null,"ObjectId":633}},{"type":"Feature","id":645,"geometry":{"type":"Point","coordinates":[-97.609136,35.409193]},"properties":{"site_name":"Will Rogers Air National Guard Base","other_site_names":null,"state":"Oklahoma","industry":"Military","matrix_type":"Groundwater","matrix":"Groundwater","year":2018,"pfoa":"3,300","pfos":"10,000","total_pfas":22496,"pfas_level":22496,"notes":"AFFF used at Will Rogers Air National Guard Base","regulation_gvt_link":"N/A","resources_link":"http://afcec.publicadmin-record.us.af.mil/","suspected_source_link":null,"pfas_testing_link":"https://drive.google.com/file/d/13VioDNRJiN4u48mk-LLOmlhLuEvnYlGP/view?usp=sharing","site_ref_link":"https://drive.google.com/drive/u/0/folders/1XM8PGT9Qggca9isMee2gii687uqLvOBz","state_ref_link":"https://drive.google.com/drive/u/0/folders/1SrzIY6gLhHkSVGEOu51iLETRLE2RRCUn","ObjectId":645}},{"type":"Feature","id":665,"geometry":{"type":"Point","coordinates":[-95.875381,36.220092]},"properties":{"site_name":"Tulsa Air National Guard Base","other_site_names":"Tulsa International Airport","state":"Oklahoma","industry":"Military","matrix_type":"Groundwater","matrix":"Groundwater","year":2018,"pfoa":"4,000","pfos":"44,000","total_pfas":69000,"pfas_level":69000,"notes":"AFFF used at Tulsa International Airport / Air National Guard Base","regulation_gvt_link":"N/A","resources_link":"http://afcec.publicadmin-record.us.af.mil/","suspected_source_link":null,"pfas_testing_link":"http://www.cpeo.org/lists/military/2019/pdfWNgAeyWNJH.pdf","site_ref_link":"https://drive.google.com/drive/u/0/folders/1UC8NuQlrBTzgwNiXxKETjj748Rvbtn3K","state_ref_link":"https://drive.google.com/drive/u/0/folders/1SrzIY6gLhHkSVGEOu51iLETRLE2RRCUn","ObjectId":665}},{"type":"Feature","id":696,"geometry":{"type":"Point","coordinates":[-97.913061,36.3393]},"properties":{"site_name":"Vance Air Force Base","other_site_names":"Kegelman Auxiliary Field","state":"Oklahoma","industry":"Military","matrix_type":"Groundwater","matrix":"Groundwater","year":2018,"pfoa":"40,000","pfos":"290,000","total_pfas":347000,"pfas_level":347000,"notes":"AFFF used at Vance Air Force Base / Kegelman Auxiliary Field","regulation_gvt_link":"N/A","resources_link":"http://afcec.publicadmin-record.us.af.mil/","suspected_source_link":null,"pfas_testing_link":"https://drive.google.com/file/d/1MZsGQv0xNNoBhN_mRpisGRlsQwKAnTaY/view?usp=sharing","site_ref_link":"https://drive.google.com/drive/u/0/folders/1B9eiE6V8YiuSJXhpWTkJ3XKRH90-GNg1","state_ref_link":"https://drive.google.com/drive/u/0/folders/1SrzIY6gLhHkSVGEOu51iLETRLE2RRCUn","ObjectId":696}},{"type":"Feature","id":2383,"geometry":{"type":"Point","coordinates":[-99.287914,34.655744]},"properties":{"site_name":"Altus Air Force Base","other_site_names":null,"state":"Oklahoma","industry":"Military","matrix_type":"Groundwater","matrix":"Groundwater","year":2017,"pfoa":"250000","pfos":"900000","total_pfas":1180000,"pfas_level":1180000,"notes":"AFFF used at Altus Air Force Base","regulation_gvt_link":"N/A","resources_link":"https://www.altus.af.mil/About-Us/Environmental-Information/","suspected_source_link":"https://drive.google.com/file/d/1EUMAiROzk8OxvPAWubv0xGGH9zI6mw4d/view?usp=drive_link ","pfas_testing_link":"https://drive.google.com/file/d/1lVkNVCsOgb44HYHL3o02NvmbfgdgI-w4/view?usp=sharing","site_ref_link":"https://drive.google.com/drive/u/0/folders/19wuesHyIopJhJye5ukc9O8tgFnF7zjLb","state_ref_link":"https://drive.google.com/drive/u/0/folders/1SrzIY6gLhHkSVGEOu51iLETRLE2RRCUn","ObjectId":2383}},{"type":"Feature","id":2384,"geometry":{"type":"Point","coordinates":[-97.41583,35.4277]},"properties":{"site_name":"Tinker Air Force Base","other_site_names":"Tinker Air Force Base (Soldier Creek/Building 3001)","state":"Oklahoma","industry":"Military","matrix_type":"Groundwater","matrix":"Groundwater","year":2016,"pfoa":"97000","pfos":"460000","total_pfas":474300,"pfas_level":474300,"notes":"AFFF used at Tinker Air Force Base","regulation_gvt_link":"N/A","resources_link":"http://afcec.publicadmin-record.us.af.mil/","suspected_source_link":"https://drive.google.com/file/d/1EUMAiROzk8OxvPAWubv0xGGH9zI6mw4d/view?usp=drive_link ","pfas_testing_link":"https://drive.google.com/file/d/1be_h-L5Q4H5Hiq_6heHG0KJgbGJMcrgx/view?usp=sharing","site_ref_link":"https://drive.google.com/drive/u/0/folders/1FC7ltgfD9_tHYdKT-lXgm0ggnRfaxozG","state_ref_link":"https://drive.google.com/drive/u/0/folders/1SrzIY6gLhHkSVGEOu51iLETRLE2RRCUn","ObjectId":2384}},{"type":"Feature","id":2385,"geometry":{"type":"Point","coordinates":[-97.609136,35.409193]},"properties":{"site_name":"Will Rogers Air National Guard Base","other_site_names":null,"state":"Oklahoma","industry":"Military","matrix_type":"Groundwater","matrix":"Groundwater","year":2018,"pfoa":"3300","pfos":"10000","total_pfas":22496,"pfas_level":22496,"notes":"AFFF used at Will Rogers Air National Guard Base","regulation_gvt_link":"N/A","resources_link":"http://afcec.publicadmin-record.us.af.mil/","suspected_source_link":null,"pfas_testing_link":"https://drive.google.com/file/d/13VioDNRJiN4u48mk-LLOmlhLuEvnYlGP/view?usp=sharing","site_ref_link":"https://drive.google.com/drive/u/0/folders/1XM8PGT9Qggca9isMee2gii687uqLvOBz","state_ref_link":"https://drive.google.com/drive/u/0/folders/1SrzIY6gLhHkSVGEOu51iLETRLE2RRCUn","ObjectId":2385}},{"type":"Feature","id":2386,"geometry":{"type":"Point","coordinates":[-95.875381,36.220092]},"properties":{"site_name":"Tulsa Air National Guard Base","other_site_names":"Tulsa International Airport","state":"Oklahoma","industry":"Military","matrix_type":"Groundwater","matrix":"Groundwater","year":2018,"pfoa":"4000","pfos":"44000","total_pfas":69000,"pfas_level":69000,"notes":"AFFF used at Tulsa International Airport / Air National Guard Base","regulation_gvt_link":"N/A","resources_link":"http://afcec.publicadmin-record.us.af.mil/","suspected_source_link":null,"pfas_testing_link":"http://www.cpeo.org/lists/military/2019/pdfWNgAeyWNJH.pdf","site_ref_link":"https://drive.google.com/drive/u/0/folders/1UC8NuQlrBTzgwNiXxKETjj748Rvbtn3K","state_ref_link":"https://drive.google.com/drive/u/0/folders/1SrzIY6gLhHkSVGEOu51iLETRLE2RRCUn","ObjectId":2386}},{"type":"Feature","id":2387,"geometry":{"type":"Point","coordinates":[-97.913061,36.3393]},"properties":{"site_name":"Vance Air Force Base","other_site_names":"Kegelman Auxiliary Field","state":"Oklahoma","industry":"Military","matrix_type":"Groundwater","matrix":"Groundwater","year":2018,"pfoa":"40000","pfos":"290000","total_pfas":347000,"pfas_level":347000,"notes":"AFFF used at Vance Air Force Base / Kegelman Auxiliary Field","regulation_gvt_link":"N/A","resources_link":"http://afcec.publicadmin-record.us.af.mil/","suspected_source_link":null,"pfas_testing_link":"https://drive.google.com/file/d/1MZsGQv0xNNoBhN_mRpisGRlsQwKAnTaY/view?usp=sharing","site_ref_link":"https://drive.google.com/drive/u/0/folders/1B9eiE6V8YiuSJXhpWTkJ3XKRH90-GNg1","state_ref_link":"https://drive.google.com/drive/u/0/folders/1SrzIY6gLhHkSVGEOu51iLETRLE2RRCUn","ObjectId":2387}},{"type":"Feature","id":2591,"geometry":{"type":"Point","coordinates":[-95.203285,35.671886]},"properties":{"site_name":"Camp Gruber Training Center","other_site_names":null,"state":"Oklahoma","industry":"Military","matrix_type":"Other Water","matrix":"Drinking Water","year":2018,"pfoa":"1","pfos":null,"total_pfas":4,"pfas_level":4,"notes":null,"regulation_gvt_link":null,"resources_link":null,"suspected_source_link":"https://drive.google.com/file/d/1g1t60FsMLcfluvkLqorqlbsHnkF_rNZw/view?usp=sharing","pfas_testing_link":"https://drive.google.com/file/d/1g1t60FsMLcfluvkLqorqlbsHnkF_rNZw/view?usp=sharing","site_ref_link":"https://drive.google.com/drive/u/0/folders/17vc5JX3Gvo92Bih-kg-GABnBbExIJhXg","state_ref_link":"https://drive.google.com/drive/u/0/folders/1SrzIY6gLhHkSVGEOu51iLETRLE2RRCUn","ObjectId":2591}},{"type":"Feature","id":2986,"geometry":{"type":"Point","coordinates":[-95.874302,36.1902]},"properties":{"site_name":"Air Force Plant 3","other_site_names":"Tulsa International Airport","state":"Oklahoma","industry":"Military","matrix_type":"Groundwater","matrix":"Groundwater","year":2018,"pfoa":"410","pfos":"64","total_pfas":12694,"pfas_level":12694,"notes":null,"regulation_gvt_link":null,"resources_link":null,"suspected_source_link":"https://ar.afcec-cloud.af.mil/Search.aspx","pfas_testing_link":"https://drive.google.com/file/d/1ivM77N1kJmnG9YAmgMrwzEJBDArZRRHb/view?usp=sharing","site_ref_link":null,"state_ref_link":null,"ObjectId":2986}}]}