{"type":"FeatureCollection","crs":{"type":"name","properties":{"name":"EPSG:4326"}},"features":[{"type":"Feature","id":78,"geometry":{"type":"Point","coordinates":[-72.448331,41.8506]},"properties":{"site_name":"Precision Plating Corporation","other_site_names":"Precision Plating Corp.","state":"Connecticut","industry":"Superfund Site","matrix_type":"Groundwater","matrix":"Groundwater","year":2016,"pfoa":"90","pfos":"2,500","total_pfas":null,"pfas_level":2500,"notes":null,"regulation_gvt_link":null,"resources_link":"https://cumulis.epa.gov/supercpad/SiteProfiles/index.cfm?fuseaction=second.docdata&id=0100156","suspected_source_link":"https://www.epw.senate.gov/public/index.cfm/superfund-sites-identified-by-epa-to-have-pfas-contamination","pfas_testing_link":"https://semspub.epa.gov/work/01/595318.pdf","site_ref_link":null,"state_ref_link":null,"ObjectId":78}},{"type":"Feature","id":477,"geometry":{"type":"Point","coordinates":[-72.702493,41.935433]},"properties":{"site_name":"Bradley Air National Guard Base","other_site_names":"Bradley International Airport","state":"Connecticut","industry":"Military","matrix_type":"Groundwater","matrix":"Groundwater","year":2017,"pfoa":"19","pfos":"355","total_pfas":518,"pfas_level":518,"notes":"AFFF used at Bradley International Airport, including a Foam spill on June 8, 2019 resulting from a fire suppression system malfunction. (Hladky - Hartford Courant - 7.17.19)","regulation_gvt_link":"https://portal.ct.gov/-/media/DEEP/site_clean_up/current_projects/BradleyB17CrashResponseUpdatepdf.pdf","resources_link":"https://townofwindsorct.com/health/notice-farmington-river-advisory/","suspected_source_link":"https://www.courant.com/news/connecticut/hc-news-pfas-mdc-versus-deep-20190717-vxk74vwu2nbcbnlivojoqq3cei-story.html","pfas_testing_link":"https://drive.google.com/file/d/11TFtkFx8frEO-JxC66IPJSoxRNwUtYy6/view?usp=sharing","site_ref_link":"https://drive.google.com/drive/u/1/folders/1alHa6CleOFiW5i8YUPVQDtoAL9urK_Qo","state_ref_link":"https://drive.google.com/drive/u/1/folders/1wiJGN1uxOAWAm2cNSmr71PMKafrIPBLH","ObjectId":477}},{"type":"Feature","id":506,"geometry":{"type":"Point","coordinates":[-72.257501,41.352398]},"properties":{"site_name":"Stone Ranch Military Reservation","other_site_names":null,"state":"Connecticut","industry":"Military","matrix_type":"Other Water","matrix":"Drinking Water","year":2018,"pfoa":null,"pfos":null,"total_pfas":5,"pfas_level":5,"notes":null,"regulation_gvt_link":null,"resources_link":"https://portal.ct.gov/DPH/Drinking-Water/DWS/Per--and-Polyfluoroalkyl-Substances","suspected_source_link":"https://drive.google.com/file/d/1g1t60FsMLcfluvkLqorqlbsHnkF_rNZw/view?usp=sharing","pfas_testing_link":"https://drive.google.com/file/d/1g1t60FsMLcfluvkLqorqlbsHnkF_rNZw/view?usp=sharing","site_ref_link":"https://drive.google.com/drive/u/0/folders/17vc5JX3Gvo92Bih-kg-GABnBbExIJhXg","state_ref_link":"https://drive.google.com/drive/u/1/folders/1wiJGN1uxOAWAm2cNSmr71PMKafrIPBLH","ObjectId":506}},{"type":"Feature","id":750,"geometry":{"type":"Point","coordinates":[-73.035846,41.436193]},"properties":{"site_name":"Beacon Heights Landfill","other_site_names":null,"state":"Connecticut","industry":"Landfill","matrix_type":"Groundwater","matrix":"Groundwater","year":2018,"pfoa":"347","pfos":null,"total_pfas":null,"pfas_level":347,"notes":null,"regulation_gvt_link":null,"resources_link":"https://cumulis.epa.gov/supercpad/SiteProfiles/index.cfm?fuseaction=second.docdata&id=0100180","suspected_source_link":"https://www.epw.senate.gov/public/index.cfm/superfund-sites-identified-by-epa-to-have-pfas-contamination","pfas_testing_link":"https://semspub.epa.gov/work/01/100010444.pdf","site_ref_link":null,"state_ref_link":null,"ObjectId":750}},{"type":"Feature","id":924,"geometry":{"type":"Point","coordinates":[-71.964161,41.66945]},"properties":{"site_name":"YAWORSKI WASTE LAGOON","other_site_names":null,"state":"Connecticut","industry":"Waste","matrix_type":"Groundwater","matrix":"Groundwater","year":2019,"pfoa":"16","pfos":"14","total_pfas":42,"pfas_level":42,"notes":null,"regulation_gvt_link":"https://cumulis.epa.gov/supercpad/cursites/csitinfo.cfm?id=0100125","resources_link":"https://cumulis.epa.gov/supercpad/SiteProfiles/index.cfm?fuseaction=second.scs&id=0100125&doc=Y&colid=33137&region=01&type=SC","suspected_source_link":"https://semspub.epa.gov/work/01/100027017.pdf","pfas_testing_link":"2023 - 6th Five-Year Review Report For Yaworski Waste Lagoom Superfund Site Town Of Canterbury Windham County, CT.pdf","site_ref_link":"Windham County, CT - Yaworski Waste Lagoon","state_ref_link":"CT","ObjectId":924}},{"type":"Feature","id":1156,"geometry":{"type":"Point","coordinates":[-72.87837,41.619653]},"properties":{"site_name":"Solvents Recovery Service of New England","other_site_names":null,"state":"Connecticut","industry":"Superfund Site","matrix_type":"Groundwater","matrix":"Groundwater","year":2019,"pfoa":"190","pfos":"60","total_pfas":null,"pfas_level":190,"notes":null,"regulation_gvt_link":null,"resources_link":"https://semspub.epa.gov/src/collections/01/SC/CTD009717604","suspected_source_link":"https://www.epw.senate.gov/public/index.cfm/superfund-sites-identified-by-epa-to-have-pfas-contamination","pfas_testing_link":"https://semspub.epa.gov/work/01/100015302.pdf","site_ref_link":null,"state_ref_link":null,"ObjectId":1156}},{"type":"Feature","id":1276,"geometry":{"type":"Point","coordinates":[-73.427127,41.135392]},"properties":{"site_name":"Kellogg-Deering Well Field","other_site_names":null,"state":"Connecticut","industry":"Industry","matrix_type":"Groundwater","matrix":"Groundwater","year":2021,"pfoa":"22","pfos":"75","total_pfas":158,"pfas_level":158,"notes":null,"regulation_gvt_link":null,"resources_link":"https://cumulis.epa.gov/supercpad/SiteProfiles/index.cfm?fuseaction=second.docdata&id=0100252","suspected_source_link":"https://www.epw.senate.gov/public/index.cfm/superfund-sites-identified-by-epa-to-have-pfas-contamination","pfas_testing_link":"https://semspub.epa.gov/src/document/05/964293","site_ref_link":null,"state_ref_link":null,"ObjectId":1276}},{"type":"Feature","id":1289,"geometry":{"type":"Point","coordinates":[-71.966939,41.940561]},"properties":{"site_name":"LINEMASTER SWITCH CORP.","other_site_names":null,"state":"Connecticut","industry":"Industry","matrix_type":"Groundwater","matrix":"Groundwater","year":2021,"pfoa":"42","pfos":"190","total_pfas":257,"pfas_level":257,"notes":null,"regulation_gvt_link":"https://cumulis.epa.gov/supercpad/SiteProfiles/index.cfm?fuseaction=second.scs&id=0100041&doc=Y&colid=32858&region=01&type=SC","resources_link":"https://semspub.epa.gov/work/01/100031650.pdf","suspected_source_link":"https://semspub.epa.gov/work/01/100031650.pdf","pfas_testing_link":"2024 - 5th Five-year Review Report For Linemaster Switch Corporation Superfund Site Windham County, CT.pdf","site_ref_link":"Windham County, CT - Linemaster Switch Corp - Superfund Site","state_ref_link":"CT","ObjectId":1289}},{"type":"Feature","id":1360,"geometry":{"type":"Point","coordinates":[-71.922888,41.664915]},"properties":{"site_name":"Gallup's Quarry","other_site_names":null,"state":"Connecticut","industry":"Industry","matrix_type":"Groundwater","matrix":"Groundwater","year":2020,"pfoa":null,"pfos":"4","total_pfas":null,"pfas_level":4,"notes":null,"regulation_gvt_link":null,"resources_link":"https://cumulis.epa.gov/supercpad/cursites/csitinfo.cfm?id=0100201","suspected_source_link":"https://www.epw.senate.gov/public/index.cfm/superfund-sites-identified-by-epa-to-have-pfas-contamination","pfas_testing_link":"https://semspub.epa.gov/src/document/05/964293","site_ref_link":null,"state_ref_link":null,"ObjectId":1360}},{"type":"Feature","id":1662,"geometry":{"type":"Point","coordinates":[-72.686053,41.938905]},"properties":{"site_name":"Bradley International Airport","other_site_names":"Bradley Air National Guard Base","state":"Connecticut","industry":"Airport","matrix_type":"Other Water","matrix":"Surface Water","year":2019,"pfoa":null,"pfos":null,"total_pfas":10000,"pfas_level":10000,"notes":"700-800 gallons of PFAS firefighting foam was used at a crash fire. The June 2019 spill involved tens of thousands of gallons of the potentially toxic foam.","regulation_gvt_link":null,"resources_link":null,"suspected_source_link":"https://www.courant.com/news/connecticut/hc-news-pfas-farmington-river-fish-pollution-20191004-t3yion6v3fex3nv6nv7ietkqge-story.html","pfas_testing_link":null,"site_ref_link":null,"state_ref_link":null,"ObjectId":1662}},{"type":"Feature","id":1803,"geometry":{"type":"Point","coordinates":[-73.067227,41.478572]},"properties":{"site_name":"Laurel Park, Inc.","other_site_names":null,"state":"Connecticut","industry":"Waste","matrix_type":"Groundwater","matrix":"Groundwater","year":2021,"pfoa":"458","pfos":"40","total_pfas":824,"pfas_level":824,"notes":null,"regulation_gvt_link":null,"resources_link":"https://cumulis.epa.gov/supercpad/SiteProfiles/index.cfm?fuseaction=second.docdata&id=0100232","suspected_source_link":"https://www.epw.senate.gov/public/index.cfm/superfund-sites-identified-by-epa-to-have-pfas-contamination","pfas_testing_link":"https://semspub.epa.gov/work/01/100026673.pdf","site_ref_link":null,"state_ref_link":null,"ObjectId":1803}},{"type":"Feature","id":1899,"geometry":{"type":"Point","coordinates":[-72.989337,41.893947]},"properties":{"site_name":"BARKHAMSTED-NEW HARTFORD LANDFILL","other_site_names":null,"state":"Connecticut","industry":"Waste","matrix_type":"Groundwater","matrix":"Groundwater","year":2022,"pfoa":"270","pfos":"12","total_pfas":270,"pfas_level":270,"notes":null,"regulation_gvt_link":"https://cumulis.epa.gov/supercpad/SiteProfiles/index.cfm?fuseaction=second.scs&id=0100255&doc=Y&colid=32713&region=01&type=SC","resources_link":"https://cumulis.epa.gov/supercpad/SiteProfiles/index.cfm?fuseaction=second.scs&id=0100255&doc=Y&colid=32713&region=01&type=SC","suspected_source_link":"https://semspub.epa.gov/work/01/100026871.pdf","pfas_testing_link":"September 2023 - FIFTH FIVE-YEAR REVIEW REPORT FOR BARKHAMSTED-NEW HARTFORD LANDFILL SUPERFUND SITE LITCHFIELD COUNTY, CONNECTICUT.pdf","site_ref_link":"Litchfield County, CT - Barkhamsted-New Hartford Landfill - Superfund Site","state_ref_link":"CT","ObjectId":1899}},{"type":"Feature","id":1915,"geometry":{"type":"Point","coordinates":[-72.506353,41.929742]},"properties":{"site_name":"Ellington Landfill","other_site_names":null,"state":"Connecticut","industry":"Landfill","matrix_type":"Other Water","matrix":"Drinking Water","year":2019,"pfoa":null,"pfos":null,"total_pfas":613,"pfas_level":613,"notes":"PFAS-containing leachate coming from the Ellington landfill. (Hladky 8.15.2019)","regulation_gvt_link":"N/A","resources_link":"https://portal.ct.gov/-/media/Departments-and-Agencies/DPH/dph/environmental_health/private_wells/PW_Conference_Presentations/2019PWConference/3PrivateWellConfPFASpresentationFINALforDist20190423.pdf?la=en","suspected_source_link":"https://www.courant.com/news/connecticut/hc-news-pfas-landfill-worries-20190815-ozvn6kfidfhu5apowususpmusy-story.html","pfas_testing_link":"N/A","site_ref_link":"https://drive.google.com/drive/u/0/folders/17oOy8kDSxF7_hOh1nBVot8Vzz0e6v9w3","state_ref_link":"https://drive.google.com/drive/u/0/folders/1CNNk_CxjiGz98jA_vaMTb4W0sGHqfaBl","ObjectId":1915}},{"type":"Feature","id":2016,"geometry":{"type":"Point","coordinates":[-72.190281,41.718799]},"properties":{"site_name":"Eastern CT Fire School","other_site_names":null,"state":"Connecticut","industry":"Fire Department/Training Facility","matrix_type":"Other Water","matrix":"Drinking Water","year":null,"pfoa":null,"pfos":null,"total_pfas":null,"pfas_level":70,"notes":"AFFF used at the Eastern CT Fire School","regulation_gvt_link":"N/A","resources_link":"https://portal.ct.gov/-/media/Departments-and-Agencies/DPH/dph/environmental_health/private_wells/PW_Conference_Presentations/2019PWConference/3PrivateWellConfPFASpresentationFINALforDist20190423.pdf?la=en","suspected_source_link":"https://portal.ct.gov/-/media/Departments-and-Agencies/DPH/dph/environmental_health/private_wells/PW_Conference_Presentations/2019PWConference/3PrivateWellConfPFASpresentationFINALforDist20190423.pdf?la=en","pfas_testing_link":"N/A","site_ref_link":"https://drive.google.com/drive/u/1/folders/1rEBSFEDFLFN-jJ5AO8Nq-xYt2FesnEg7","state_ref_link":"https://drive.google.com/drive/u/1/folders/1wiJGN1uxOAWAm2cNSmr71PMKafrIPBLH","ObjectId":2016}},{"type":"Feature","id":2017,"geometry":{"type":"Point","coordinates":[-72.65445,41.790954]},"properties":{"site_name":"Hartford Landfill","other_site_names":null,"state":"Connecticut","industry":"Landfill","matrix_type":"Other Water","matrix":"Leachate","year":null,"pfoa":null,"pfos":null,"total_pfas":null,"pfas_level":70,"notes":"Leachate containing PFAS is draining through a sewage treatment facility and into the Connecticut River. (Hladky 8.15.2019). Reference mentions PFAS detections over DWAL (70 ppt) but doesn't provide specifics","regulation_gvt_link":"N/A","resources_link":"https://portal.ct.gov/-/media/Departments-and-Agencies/DPH/dph/environmental_health/private_wells/PW_Conference_Presentations/2019PWConference/3PrivateWellConfPFASpresentationFINALforDist20190423.pdf?la=en","suspected_source_link":"https://www.courant.com/news/connecticut/hc-news-pfas-landfill-worries-20190815-ozvn6kfidfhu5apowususpmusy-story.html","pfas_testing_link":"N/A","site_ref_link":"https://drive.google.com/drive/u/1/folders/1MvXFH0ZrlRPDcMzaaLz6HRaaccORS-zk","state_ref_link":"https://drive.google.com/drive/u/0/folders/1CNNk_CxjiGz98jA_vaMTb4W0sGHqfaBl","ObjectId":2017}},{"type":"Feature","id":2188,"geometry":{"type":"Point","coordinates":[-72.702493,41.935433]},"properties":{"site_name":"Bradley Air National Guard Base","other_site_names":"Bradley International Airport","state":"Connecticut","industry":"Military","matrix_type":"Groundwater","matrix":"Groundwater","year":2017,"pfoa":"19","pfos":"355","total_pfas":518,"pfas_level":518,"notes":"AFFF used at Bradley International Airport, including a Foam spill on June 8, 2019 resulting from a fire suppression system malfunction. (Hladky - Hartford Courant - 7.17.19)","regulation_gvt_link":"https://portal.ct.gov/-/media/DEEP/site_clean_up/current_projects/BradleyB17CrashResponseUpdatepdf.pdf","resources_link":"https://townofwindsorct.com/health/notice-farmington-river-advisory/","suspected_source_link":"https://www.courant.com/news/connecticut/hc-news-pfas-mdc-versus-deep-20190717-vxk74vwu2nbcbnlivojoqq3cei-story.html","pfas_testing_link":"https://drive.google.com/file/d/11TFtkFx8frEO-JxC66IPJSoxRNwUtYy6/view?usp=sharing","site_ref_link":"https://drive.google.com/drive/u/1/folders/1alHa6CleOFiW5i8YUPVQDtoAL9urK_Qo","state_ref_link":"https://drive.google.com/drive/u/1/folders/1wiJGN1uxOAWAm2cNSmr71PMKafrIPBLH","ObjectId":2188}},{"type":"Feature","id":2189,"geometry":{"type":"Point","coordinates":[-72.190281,41.718799]},"properties":{"site_name":"Eastern CT Fire School","other_site_names":null,"state":"Connecticut","industry":"Fire Department/Training Facility","matrix_type":"Other Water","matrix":"Drinking Water","year":null,"pfoa":null,"pfos":null,"total_pfas":null,"pfas_level":70,"notes":"AFFF used at the Eastern CT Fire School","regulation_gvt_link":"N/A","resources_link":"https://portal.ct.gov/-/media/Departments-and-Agencies/DPH/dph/environmental_health/private_wells/PW_Conference_Presentations/2019PWConference/3PrivateWellConfPFASpresentationFINALforDist20190423.pdf?la=en","suspected_source_link":"https://portal.ct.gov/-/media/Departments-and-Agencies/DPH/dph/environmental_health/private_wells/PW_Conference_Presentations/2019PWConference/3PrivateWellConfPFASpresentationFINALforDist20190423.pdf?la=en","pfas_testing_link":"N/A","site_ref_link":"https://drive.google.com/drive/u/1/folders/1rEBSFEDFLFN-jJ5AO8Nq-xYt2FesnEg7","state_ref_link":"https://drive.google.com/drive/u/1/folders/1wiJGN1uxOAWAm2cNSmr71PMKafrIPBLH","ObjectId":2189}},{"type":"Feature","id":2190,"geometry":{"type":"Point","coordinates":[-72.506353,41.929742]},"properties":{"site_name":"Ellington Landfill","other_site_names":null,"state":"Connecticut","industry":"Landfill","matrix_type":"Other Water","matrix":"Drinking Water","year":2019,"pfoa":null,"pfos":null,"total_pfas":613,"pfas_level":613,"notes":"PFAS-containing leachate coming from the Ellington landfill. (Hladky 8.15.2019)","regulation_gvt_link":"N/A","resources_link":"https://portal.ct.gov/-/media/Departments-and-Agencies/DPH/dph/environmental_health/private_wells/PW_Conference_Presentations/2019PWConference/3PrivateWellConfPFASpresentationFINALforDist20190423.pdf?la=en","suspected_source_link":"https://www.courant.com/news/connecticut/hc-news-pfas-landfill-worries-20190815-ozvn6kfidfhu5apowususpmusy-story.html","pfas_testing_link":"N/A","site_ref_link":"https://drive.google.com/drive/u/0/folders/17oOy8kDSxF7_hOh1nBVot8Vzz0e6v9w3","state_ref_link":"https://drive.google.com/drive/u/0/folders/1CNNk_CxjiGz98jA_vaMTb4W0sGHqfaBl","ObjectId":2190}},{"type":"Feature","id":2191,"geometry":{"type":"Point","coordinates":[-72.65445,41.790954]},"properties":{"site_name":"Hartford Landfill","other_site_names":null,"state":"Connecticut","industry":"Landfill","matrix_type":"Other Water","matrix":"Leachate","year":null,"pfoa":null,"pfos":null,"total_pfas":null,"pfas_level":70,"notes":"Leachate containing PFAS is draining through a sewage treatment facility and into the Connecticut River. (Hladky 8.15.2019). Reference mentions PFAS detections over DWAL (70 ppt) but doesn't provide specifics","regulation_gvt_link":"N/A","resources_link":"https://portal.ct.gov/-/media/Departments-and-Agencies/DPH/dph/environmental_health/private_wells/PW_Conference_Presentations/2019PWConference/3PrivateWellConfPFASpresentationFINALforDist20190423.pdf?la=en","suspected_source_link":"https://www.courant.com/news/connecticut/hc-news-pfas-landfill-worries-20190815-ozvn6kfidfhu5apowususpmusy-story.html","pfas_testing_link":"N/A","site_ref_link":"https://drive.google.com/drive/u/1/folders/1MvXFH0ZrlRPDcMzaaLz6HRaaccORS-zk","state_ref_link":"https://drive.google.com/drive/u/0/folders/1CNNk_CxjiGz98jA_vaMTb4W0sGHqfaBl","ObjectId":2191}},{"type":"Feature","id":2543,"geometry":{"type":"Point","coordinates":[-72.257501,41.352398]},"properties":{"site_name":"Stone Ranch Military Reservation","other_site_names":null,"state":"Connecticut","industry":"Military","matrix_type":"Other Water","matrix":"Drinking Water","year":2018,"pfoa":null,"pfos":null,"total_pfas":5,"pfas_level":5,"notes":null,"regulation_gvt_link":null,"resources_link":"https://portal.ct.gov/DPH/Drinking-Water/DWS/Per--and-Polyfluoroalkyl-Substances","suspected_source_link":"https://drive.google.com/file/d/1g1t60FsMLcfluvkLqorqlbsHnkF_rNZw/view?usp=sharing","pfas_testing_link":"https://drive.google.com/file/d/1g1t60FsMLcfluvkLqorqlbsHnkF_rNZw/view?usp=sharing","site_ref_link":"https://drive.google.com/drive/u/0/folders/17vc5JX3Gvo92Bih-kg-GABnBbExIJhXg","state_ref_link":"https://drive.google.com/drive/u/1/folders/1wiJGN1uxOAWAm2cNSmr71PMKafrIPBLH","ObjectId":2543}},{"type":"Feature","id":2731,"geometry":{"type":"Point","coordinates":[-73.035846,41.436193]},"properties":{"site_name":"Beacon Heights Landfill","other_site_names":null,"state":"Connecticut","industry":"Landfill","matrix_type":"Groundwater","matrix":"Groundwater","year":2018,"pfoa":"347","pfos":null,"total_pfas":null,"pfas_level":347,"notes":null,"regulation_gvt_link":null,"resources_link":"https://cumulis.epa.gov/supercpad/SiteProfiles/index.cfm?fuseaction=second.docdata&id=0100180","suspected_source_link":"https://www.epw.senate.gov/public/index.cfm/superfund-sites-identified-by-epa-to-have-pfas-contamination","pfas_testing_link":"https://semspub.epa.gov/work/01/100010444.pdf","site_ref_link":null,"state_ref_link":null,"ObjectId":2731}},{"type":"Feature","id":2732,"geometry":{"type":"Point","coordinates":[-72.686053,41.938905]},"properties":{"site_name":"Bradley International Airport","other_site_names":"Bradley Air National Guard Base","state":"Connecticut","industry":"Airport","matrix_type":"Other Water","matrix":"Surface Water","year":2019,"pfoa":null,"pfos":null,"total_pfas":10000,"pfas_level":10000,"notes":"700-800 gallons of PFAS firefighting foam was used at a crash fire. The June 2019 spill involved tens of thousands of gallons of the potentially toxic foam.","regulation_gvt_link":null,"resources_link":null,"suspected_source_link":"https://www.courant.com/news/connecticut/hc-news-pfas-farmington-river-fish-pollution-20191004-t3yion6v3fex3nv6nv7ietkqge-story.html","pfas_testing_link":null,"site_ref_link":null,"state_ref_link":null,"ObjectId":2732}},{"type":"Feature","id":2733,"geometry":{"type":"Point","coordinates":[-71.922888,41.664915]},"properties":{"site_name":"Gallup's Quarry","other_site_names":null,"state":"Connecticut","industry":"Industry","matrix_type":"Groundwater","matrix":"Groundwater","year":2020,"pfoa":null,"pfos":"4","total_pfas":null,"pfas_level":4,"notes":null,"regulation_gvt_link":null,"resources_link":"https://cumulis.epa.gov/supercpad/cursites/csitinfo.cfm?id=0100201","suspected_source_link":"https://www.epw.senate.gov/public/index.cfm/superfund-sites-identified-by-epa-to-have-pfas-contamination","pfas_testing_link":"https://semspub.epa.gov/src/document/05/964293","site_ref_link":null,"state_ref_link":null,"ObjectId":2733}},{"type":"Feature","id":2734,"geometry":{"type":"Point","coordinates":[-73.427127,41.135392]},"properties":{"site_name":"Kellogg-Deering Well Field","other_site_names":null,"state":"Connecticut","industry":"Industry","matrix_type":"Groundwater","matrix":"Groundwater","year":2021,"pfoa":"22","pfos":"75","total_pfas":158,"pfas_level":158,"notes":null,"regulation_gvt_link":null,"resources_link":"https://cumulis.epa.gov/supercpad/SiteProfiles/index.cfm?fuseaction=second.docdata&id=0100252","suspected_source_link":"https://www.epw.senate.gov/public/index.cfm/superfund-sites-identified-by-epa-to-have-pfas-contamination","pfas_testing_link":"https://semspub.epa.gov/src/document/05/964293","site_ref_link":null,"state_ref_link":null,"ObjectId":2734}},{"type":"Feature","id":2735,"geometry":{"type":"Point","coordinates":[-73.067227,41.478572]},"properties":{"site_name":"Laurel Park, Inc.","other_site_names":null,"state":"Connecticut","industry":"Waste","matrix_type":"Groundwater","matrix":"Groundwater","year":2021,"pfoa":"458","pfos":"40","total_pfas":824,"pfas_level":824,"notes":null,"regulation_gvt_link":null,"resources_link":"https://cumulis.epa.gov/supercpad/SiteProfiles/index.cfm?fuseaction=second.docdata&id=0100232","suspected_source_link":"https://www.epw.senate.gov/public/index.cfm/superfund-sites-identified-by-epa-to-have-pfas-contamination","pfas_testing_link":"https://semspub.epa.gov/work/01/100026673.pdf","site_ref_link":null,"state_ref_link":null,"ObjectId":2735}},{"type":"Feature","id":2736,"geometry":{"type":"Point","coordinates":[-72.448331,41.8506]},"properties":{"site_name":"Precision Plating Corporation","other_site_names":"Precision Plating Corp.","state":"Connecticut","industry":"Superfund Site","matrix_type":"Groundwater","matrix":"Groundwater","year":2016,"pfoa":"90","pfos":"2500","total_pfas":null,"pfas_level":2500,"notes":null,"regulation_gvt_link":null,"resources_link":"https://cumulis.epa.gov/supercpad/SiteProfiles/index.cfm?fuseaction=second.docdata&id=0100156","suspected_source_link":"https://www.epw.senate.gov/public/index.cfm/superfund-sites-identified-by-epa-to-have-pfas-contamination","pfas_testing_link":"https://semspub.epa.gov/work/01/595318.pdf","site_ref_link":null,"state_ref_link":null,"ObjectId":2736}},{"type":"Feature","id":2737,"geometry":{"type":"Point","coordinates":[-72.87837,41.619653]},"properties":{"site_name":"Solvents Recovery Service of New England","other_site_names":null,"state":"Connecticut","industry":"Superfund Site","matrix_type":"Groundwater","matrix":"Groundwater","year":2019,"pfoa":"190","pfos":"60","total_pfas":null,"pfas_level":190,"notes":null,"regulation_gvt_link":null,"resources_link":"https://semspub.epa.gov/src/collections/01/SC/CTD009717604","suspected_source_link":"https://www.epw.senate.gov/public/index.cfm/superfund-sites-identified-by-epa-to-have-pfas-contamination","pfas_testing_link":"https://semspub.epa.gov/work/01/100015302.pdf","site_ref_link":null,"state_ref_link":null,"ObjectId":2737}},{"type":"Feature","id":3330,"geometry":{"type":"Point","coordinates":[-72.989337,41.893947]},"properties":{"site_name":"BARKHAMSTED-NEW HARTFORD LANDFILL","other_site_names":null,"state":"Connecticut","industry":"Waste","matrix_type":"Groundwater","matrix":"Groundwater","year":2022,"pfoa":"270","pfos":"12","total_pfas":270,"pfas_level":270,"notes":null,"regulation_gvt_link":"https://cumulis.epa.gov/supercpad/SiteProfiles/index.cfm?fuseaction=second.scs&id=0100255&doc=Y&colid=32713&region=01&type=SC","resources_link":"https://cumulis.epa.gov/supercpad/SiteProfiles/index.cfm?fuseaction=second.scs&id=0100255&doc=Y&colid=32713&region=01&type=SC","suspected_source_link":"https://semspub.epa.gov/work/01/100026871.pdf","pfas_testing_link":"September 2023 - FIFTH FIVE-YEAR REVIEW REPORT FOR BARKHAMSTED-NEW HARTFORD LANDFILL SUPERFUND SITE LITCHFIELD COUNTY, CONNECTICUT.pdf","site_ref_link":"Litchfield County, CT - Barkhamsted-New Hartford Landfill - Superfund Site","state_ref_link":"CT","ObjectId":3330}},{"type":"Feature","id":3331,"geometry":{"type":"Point","coordinates":[-71.966939,41.940561]},"properties":{"site_name":"LINEMASTER SWITCH CORP.","other_site_names":null,"state":"Connecticut","industry":"Industry","matrix_type":"Groundwater","matrix":"Groundwater","year":2021,"pfoa":"42","pfos":"190","total_pfas":257,"pfas_level":257,"notes":null,"regulation_gvt_link":"https://cumulis.epa.gov/supercpad/SiteProfiles/index.cfm?fuseaction=second.scs&id=0100041&doc=Y&colid=32858&region=01&type=SC","resources_link":"https://semspub.epa.gov/work/01/100031650.pdf","suspected_source_link":"https://semspub.epa.gov/work/01/100031650.pdf","pfas_testing_link":"2024 - 5th Five-year Review Report For Linemaster Switch Corporation Superfund Site Windham County, CT.pdf","site_ref_link":"Windham County, CT - Linemaster Switch Corp - Superfund Site","state_ref_link":"CT","ObjectId":3331}},{"type":"Feature","id":3332,"geometry":{"type":"Point","coordinates":[-71.964161,41.66945]},"properties":{"site_name":"YAWORSKI WASTE LAGOON","other_site_names":null,"state":"Connecticut","industry":"Waste","matrix_type":"Groundwater","matrix":"Groundwater","year":2019,"pfoa":"16","pfos":"14","total_pfas":42,"pfas_level":42,"notes":null,"regulation_gvt_link":"https://cumulis.epa.gov/supercpad/cursites/csitinfo.cfm?id=0100125","resources_link":"https://cumulis.epa.gov/supercpad/SiteProfiles/index.cfm?fuseaction=second.scs&id=0100125&doc=Y&colid=33137&region=01&type=SC","suspected_source_link":"https://semspub.epa.gov/work/01/100027017.pdf","pfas_testing_link":"2023 - 6th Five-Year Review Report For Yaworski Waste Lagoom Superfund Site Town Of Canterbury Windham County, CT.pdf","site_ref_link":"Windham County, CT - Yaworski Waste Lagoon","state_ref_link":"CT","ObjectId":3332}}]}