{"type":"FeatureCollection","crs":{"type":"name","properties":{"name":"EPSG:4326"}},"features":[{"type":"Feature","id":248,"geometry":{"type":"Point","coordinates":[-76.303611,36.813349]},"properties":{"site_name":"Norfolk Naval Shipyard","other_site_names":null,"state":"Virginia","industry":"Military","matrix_type":"Groundwater","matrix":"Groundwater","year":2017,"pfoa":"506,000","pfos":"24,400","total_pfas":515624,"pfas_level":515624,"notes":null,"regulation_gvt_link":null,"resources_link":null,"suspected_source_link":"https://www.navfac.navy.mil/products_and_services/ev/products_and_services/env_restoration/pfas_reading_room.html","pfas_testing_link":"https://drive.google.com/file/d/1FDK92LDsSllnarmGNbvbnQOxXYMG6RLR/view?usp=sharing","site_ref_link":"https://drive.google.com/drive/u/0/folders/1ayj6zCCQxBFTLLcEBwKNCIgcY8v5jTca","state_ref_link":null,"ObjectId":248}},{"type":"Feature","id":402,"geometry":{"type":"Point","coordinates":[-76.024804,36.812364]},"properties":{"site_name":"Naval Air Station Oceana","other_site_names":null,"state":"Virginia","industry":"Military","matrix_type":"Groundwater","matrix":"Groundwater","year":2016,"pfoa":"22,600","pfos":"471,000","total_pfas":562790,"pfas_level":562790,"notes":"AFFF used at Field","regulation_gvt_link":"https://www.cnic.navy.mil/regions/cnrma/installations/nas_oceana/om/environmental_support/oceana_drinking_water.html","resources_link":"https://www.navfac.navy.mil/products_and_services/ev/products_and_services/env_restoration/installation_map/navfac_atlantic/midlant/oceana/oceana_pfas.html","suspected_source_link":"https://www.cnic.navy.mil/content/dam/cnic/cnrma/pdfs/Environmental/Drinking_Water_and_Testing_Information/General_Information_and_Facts/CO_letter_NFE_Personnel.pdf","pfas_testing_link":"https://www.navfac.navy.mil/niris/MID_ATLANTIC/OCEANA_NAS/N60191_001287.pdf","site_ref_link":"https://drive.google.com/drive/u/0/folders/1xKEraxTzOFTrX1KGueO4rzGQO1uUjdtX","state_ref_link":"https://drive.google.com/drive/u/0/folders/1jI2qfUNHJx9JWwCQcG49AABEIOL-IKdx","ObjectId":402}},{"type":"Feature","id":610,"geometry":{"type":"Point","coordinates":[-77.320811,37.50658]},"properties":{"site_name":"Richmond International Airport","other_site_names":"Byrd Field, Virginia Air National Guard 192nd Fighter Wing","state":"Virginia","industry":"Military","matrix_type":"Groundwater","matrix":"Groundwater","year":2018,"pfoa":"588","pfos":"1,680","total_pfas":6732,"pfas_level":6732,"notes":"AFFF used by the former 192nd Air National Guard Fighter Wing at Richmond International Airport","regulation_gvt_link":"N/A","resources_link":"https://ar.cce.af.mil/Search","suspected_source_link":null,"pfas_testing_link":"https://drive.google.com/file/d/1sQ-oNwJYDaG-BfrNz_6C79GQOyXvaFnr/view?usp=sharing","site_ref_link":"https://drive.google.com/drive/u/0/folders/1Q3UuYSv9ESUsZkmazjq2sllIVcHK3JbL","state_ref_link":"https://drive.google.com/drive/u/0/folders/1jI2qfUNHJx9JWwCQcG49AABEIOL-IKdx","ObjectId":610}},{"type":"Feature","id":814,"geometry":{"type":"Point","coordinates":[-76.359224,37.083507]},"properties":{"site_name":"Joint Base Langley-Eustis","other_site_names":"Fort Eustis (US ARMY), Langley Air Force Base/NASA Langley Research Center","state":"Virginia","industry":"Military","matrix_type":"Groundwater","matrix":"Groundwater","year":2018,"pfoa":"33,000","pfos":"2,200,000","total_pfas":2275000,"pfas_level":2275000,"notes":"AFFF used and stored at Joint Base Lewis-McChord (JBLM)","regulation_gvt_link":"https://www.jble.af.mil/","resources_link":"https://ar.cce.af.mil/Search","suspected_source_link":"https://drive.google.com/file/d/1EUMAiROzk8OxvPAWubv0xGGH9zI6mw4d/view?usp=drive_link ","pfas_testing_link":"https://drive.google.com/file/d/11qG8rJFOeJqi_jrLFmHx0SeDLq9EhFTI/view?usp=sharing","site_ref_link":"https://drive.google.com/drive/u/0/folders/1KptuMzrGi8DIxafGkFGiouAzpVal-S4R","state_ref_link":"https://drive.google.com/drive/u/0/folders/1jI2qfUNHJx9JWwCQcG49AABEIOL-IKdx","ObjectId":814}},{"type":"Feature","id":1034,"geometry":{"type":"Point","coordinates":[-76.32293,36.79401]},"properties":{"site_name":"St. Juliens Creek Annex (U.S. Navy)","other_site_names":null,"state":"Virginia","industry":"Military","matrix_type":"Groundwater","matrix":"Groundwater","year":2022,"pfoa":"1,690","pfos":"50,800","total_pfas":69186,"pfas_level":69186,"notes":"Identified by the Environmental Protection Agency (EPA) as having PFAS contamination. Provided to the Senate Committee on Environment and Public Works.","regulation_gvt_link":null,"resources_link":"https://cumulis.epa.gov/supercpad/cursites/csitinfo.cfm?id=0302852","suspected_source_link":"https://www.epw.senate.gov/public/index.cfm/superfund-sites-identified-by-epa-to-have-pfas-contamination","pfas_testing_link":"https://administrative-records.navfac.navy.mil/Public_Documents/MID_ATLANTIC/ST_JULIENS_CREEK/N69118_002172.pdf","site_ref_link":"https://drive.google.com/drive/folders/1gs-sMao5zxogt3B21kDHx4ca2Q84v5ty?usp=drive_link","state_ref_link":"https://drive.google.com/drive/folders/10p_W6a_m4Huz3O3zvXBsrHs-oKb-PIJZ?usp=drive_link","ObjectId":1034}},{"type":"Feature","id":1646,"geometry":{"type":"Point","coordinates":[-75.457427,37.938329]},"properties":{"site_name":"NASA Wallops Flight Center","other_site_names":"NASA Wallops Flight Facility","state":"Virginia","industry":"Military","matrix_type":"Groundwater","matrix":"Groundwater","year":2019,"pfoa":"2,500","pfos":"1,200","total_pfas":6744,"pfas_level":6744,"notes":"AFFF used at Wallops Flight Center","regulation_gvt_link":"https://www.nasa.gov/feature/background-latest-information-on-pfas-at-nasa-wallops/","resources_link":"https://www.nasa.gov/feature/background-latest-information-on-pfas-at-nasa-wallops/","suspected_source_link":"https://apnews.com/ad64d656f942466b8ecd201b47a8d29e","pfas_testing_link":"https://www.nasa.gov/sites/default/files/atoms/files/final_nasa_wff_pfas_si_report.pdf","site_ref_link":"https://drive.google.com/drive/folders/1pf0aEtf5rlXE1uHxkVz6akgOjhNOQFEZ","state_ref_link":"https://drive.google.com/drive/u/0/folders/1jI2qfUNHJx9JWwCQcG49AABEIOL-IKdx","ObjectId":1646}},{"type":"Feature","id":1701,"geometry":{"type":"Point","coordinates":[-77.424175,39.056131]},"properties":{"site_name":"Hidden Lane Landfill","other_site_names":null,"state":"Virginia","industry":"Waste","matrix_type":"Groundwater","matrix":"Groundwater","year":2024,"pfoa":"330","pfos":"60","total_pfas":443,"pfas_level":443,"notes":null,"regulation_gvt_link":"https://cumulis.epa.gov/supercpad/SiteProfiles/index.cfm?fuseaction=second.cleanup&id=0302762","resources_link":null,"suspected_source_link":"https://cumulis.epa.gov/supercpad/cursites/csitinfo.cfm?id=0302762","pfas_testing_link":"https://semspub.epa.gov/work/03/2426971.pdf","site_ref_link":"https://drive.google.com/drive/folders/1S34bRf4EzTvN8f_gn7jns9_kh5Ex-RlW?usp=drive_link","state_ref_link":"https://drive.google.com/drive/folders/10p_W6a_m4Huz3O3zvXBsrHs-oKb-PIJZ?usp=drive_link","ObjectId":1701}},{"type":"Feature","id":1811,"geometry":{"type":"Point","coordinates":[-77.44068,37.41464]},"properties":{"site_name":"US Defense General Supply Center (DLA)","other_site_names":"Defense General Supply Center (DLA)","state":"Virginia","industry":"Military","matrix_type":"Groundwater","matrix":"Groundwater","year":2021,"pfoa":"1,500","pfos":"1,800","total_pfas":null,"pfas_level":1800,"notes":"Identified by the Environmental Protection Agency (EPA) as having PFAS contamination. Provided to the Senate Committee on Environment and Public Works.","regulation_gvt_link":null,"resources_link":"https://cumulis.epa.gov/supercpad/cursites/csitinfo.cfm?id=0302849","suspected_source_link":"https://www.epw.senate.gov/public/index.cfm/superfund-sites-identified-by-epa-to-have-pfas-contamination","pfas_testing_link":"https://semspub.epa.gov/work/03/2398221.pdf","site_ref_link":null,"state_ref_link":null,"ObjectId":1811}},{"type":"Feature","id":1844,"geometry":{"type":"Point","coordinates":[-76.55209,37.23815]},"properties":{"site_name":"Naval Weapons Station - Yorktown","other_site_names":"NMC DET YORKTOWN","state":"Virginia","industry":"Military","matrix_type":"Groundwater","matrix":"Groundwater","year":2021,"pfoa":"148,000","pfos":"5,460","total_pfas":null,"pfas_level":148000,"notes":"Identified by the Environmental Protection Agency (EPA) as having PFAS contamination. Provided to the Senate Committee on Environment and Public Works.","regulation_gvt_link":null,"resources_link":"https://cumulis.epa.gov/supercpad/cursites/csitinfo.cfm?id=0302869","suspected_source_link":"https://www.epw.senate.gov/public/index.cfm/superfund-sites-identified-by-epa-to-have-pfas-contamination","pfas_testing_link":null,"site_ref_link":"https://drive.google.com/file/d/1lkEXk3IT2BGcH0vj9zUuWEjRx9vRFPAD/view?usp=drive_link","state_ref_link":null,"ObjectId":1844}},{"type":"Feature","id":2064,"geometry":{"type":"Point","coordinates":[-76.327406,36.947139]},"properties":{"site_name":"NAVSUP Fleet Logistics Center Norfolk","other_site_names":"Formerly Norfolk FISC","state":"Virginia","industry":"Military","matrix_type":"Groundwater","matrix":"Groundwater","year":null,"pfoa":"69","pfos":"332","total_pfas":null,"pfas_level":332,"notes":null,"regulation_gvt_link":null,"resources_link":"https://www.navsup.navy.mil/public/navsup/flcn/","suspected_source_link":null,"pfas_testing_link":"https://www.agri-pulse.com/ext/resources/pdfs/congress/STATUS-OF-NOTIFICATIONS-TO-AGRICULTURAL-OPERATIONS-PURSUANT-TO-SECTION-335-OF-THE-FISCAL-YEAR-2021-NATIONAL-DEFENSE-AUTHORIZATION-ACT-1.pdf","site_ref_link":null,"state_ref_link":null,"ObjectId":2064}},{"type":"Feature","id":2097,"geometry":{"type":"Point","coordinates":[-76.302238,36.947857]},"properties":{"site_name":"Norfolk Naval Base","other_site_names":"Norfolk Naval Base (Sewells Point Naval Complex)","state":"Virginia","industry":"Military","matrix_type":"Groundwater","matrix":"Groundwater","year":null,"pfoa":null,"pfos":null,"total_pfas":null,"pfas_level":3373,"notes":"AFFF used at Norfolk Virginia Naval Base","regulation_gvt_link":"N/A","resources_link":"https://www.deq.virginia.gov/get-involved/the-environment-you/per-and-polyfluoroalkyl-substances-pfas","suspected_source_link":"https://drive.google.com/file/d/1EUMAiROzk8OxvPAWubv0xGGH9zI6mw4d/view?usp=drive_link ","pfas_testing_link":"https://www.denix.osd.mil/derp/home/documents/pfos-pfoa-briefing-to-the-hasc/FY18%20HASC%20Brief%20on%20PFOS-PFOA_Mar2018.pdf","site_ref_link":"https://drive.google.com/drive/u/0/folders/1M1Scut6KPJD_7dQyfloKzUjDXmW5NOgP","state_ref_link":"https://drive.google.com/drive/u/0/folders/1jI2qfUNHJx9JWwCQcG49AABEIOL-IKdx","ObjectId":2097}},{"type":"Feature","id":2108,"geometry":{"type":"Point","coordinates":[-76.248445,36.567749]},"properties":{"site_name":"Chesapeake NSGA NW","other_site_names":null,"state":"Virginia","industry":"Military","matrix_type":"Groundwater","matrix":"Groundwater","year":null,"pfoa":"230","pfos":"15,221","total_pfas":null,"pfas_level":15221,"notes":null,"regulation_gvt_link":null,"resources_link":null,"suspected_source_link":null,"pfas_testing_link":"https://www.agri-pulse.com/ext/resources/pdfs/congress/STATUS-OF-NOTIFICATIONS-TO-AGRICULTURAL-OPERATIONS-PURSUANT-TO-SECTION-335-OF-THE-FISCAL-YEAR-2021-NATIONAL-DEFENSE-AUTHORIZATION-ACT-1.pdf","site_ref_link":null,"state_ref_link":null,"ObjectId":2108}},{"type":"Feature","id":2112,"geometry":{"type":"Point","coordinates":[-77.426751,37.453303]},"properties":{"site_name":"DuPont Spruance Plant","other_site_names":null,"state":"Virginia","industry":"Industry","matrix_type":"Groundwater","matrix":"Groundwater","year":null,"pfoa":"25,000","pfos":null,"total_pfas":null,"pfas_level":25000,"notes":"DuPont's Spruance plant ","regulation_gvt_link":"https://www.epa.gov/hwcorrectiveaction/hazardous-waste-cleanup-dupont-spruance-facility-richmond-va","resources_link":"https://www.epa.gov/hwcorrectiveaction/hazardous-waste-cleanup-dupont-spruance-facility-richmond-va","suspected_source_link":"https://nam12.safelinks.protection.outlook.com/?url=https%3A%2F%2Fwww.epa.gov%2Fsites%2Fdefault%2Ffiles%2F2015-10%2Fdocuments%2Fdupontspruance_sb.pdf&data=05%7C01%7Ccaluwe.a%40northeastern.edu%7C450499dd753e4a164f8508db26647b15%7Ca8eec281aaa34daeac9b9a398b9215e7%7C0%7C0%7C638145985225955287%7CUnknown%7CTWFpbGZsb3d8eyJWIjoiMC4wLjAwMDAiLCJQIjoiV2luMzIiLCJBTiI6Ik1haWwiLCJXVCI6Mn0%3D%7C3000%7C%7C%7C&sdata=HtD06n4ZkcLJSZnMWNuif1Zk5lPgCjJCGzfO7Ni9i6A%3D&reserved=0","pfas_testing_link":"https://nam12.safelinks.protection.outlook.com/?url=https%3A%2F%2Fwww.epa.gov%2Fsites%2Fdefault%2Ffiles%2F2015-10%2Fdocuments%2Fdupontspruance_sb.pdf&data=05%7C01%7Ccaluwe.a%40northeastern.edu%7C450499dd753e4a164f8508db26647b15%7Ca8eec281aaa34daeac9b9a398b9215e7%7C0%7C0%7C638145985225955287%7CUnknown%7CTWFpbGZsb3d8eyJWIjoiMC4wLjAwMDAiLCJQIjoiV2luMzIiLCJBTiI6Ik1haWwiLCJXVCI6Mn0%3D%7C3000%7C%7C%7C&sdata=HtD06n4ZkcLJSZnMWNuif1Zk5lPgCjJCGzfO7Ni9i6A%3D&reserved=0","site_ref_link":"https://drive.google.com/drive/u/0/folders/19fTuqoZz6ifFmIIi1n64K5_HuZ0tTFP_","state_ref_link":"https://drive.google.com/drive/u/0/folders/1jI2qfUNHJx9JWwCQcG49AABEIOL-IKdx","ObjectId":2112}},{"type":"Feature","id":2115,"geometry":{"type":"Point","coordinates":[-76.126843,36.699531]},"properties":{"site_name":"NALF Fentress","other_site_names":null,"state":"Virginia","industry":"Military","matrix_type":"Groundwater","matrix":"Groundwater","year":null,"pfoa":null,"pfos":null,"total_pfas":null,"pfas_level":52900,"notes":"AFFF Naval Auxiliary Landing Field Fentress ","regulation_gvt_link":"https://www.cnic.navy.mil/regions/cnrma/installations/nas_oceana/om/environmental_support/NALF_fentress_drinking_water.html","resources_link":"https://www.navfac.navy.mil/products_and_services/ev/products_and_services/env_restoration/installation_map/navfac_atlantic/midlant/oceana/fentress_pfas.html","suspected_source_link":"http://wtkr.com/2016/01/20/drinking-water-at-nalf-fentress-shows-pfc-chemicals-present/  ","pfas_testing_link":"https://www.cnic.navy.mil/content/dam/cnic/cnrma/pdfs/Environmental/Drinking_Water_and_Testing_Information/Installation_Scheduling_and_Results/Oceana/Fentress/Final%20NALF_Fentress_Basewide_PFAS_SI_Report.pdf","site_ref_link":"https://drive.google.com/drive/u/0/folders/1QKXqUlFDznZk9NEZRKkRlyEbtjnj8kIT","state_ref_link":"https://drive.google.com/drive/u/0/folders/1jI2qfUNHJx9JWwCQcG49AABEIOL-IKdx","ObjectId":2115}},{"type":"Feature","id":2427,"geometry":{"type":"Point","coordinates":[-76.126843,36.699531]},"properties":{"site_name":"NALF Fentress","other_site_names":null,"state":"Virginia","industry":"Military","matrix_type":"Groundwater","matrix":"Groundwater","year":null,"pfoa":null,"pfos":null,"total_pfas":null,"pfas_level":52900,"notes":"AFFF Naval Auxiliary Landing Field Fentress ","regulation_gvt_link":"https://www.cnic.navy.mil/regions/cnrma/installations/nas_oceana/om/environmental_support/NALF_fentress_drinking_water.html","resources_link":"https://www.navfac.navy.mil/products_and_services/ev/products_and_services/env_restoration/installation_map/navfac_atlantic/midlant/oceana/fentress_pfas.html","suspected_source_link":"http://wtkr.com/2016/01/20/drinking-water-at-nalf-fentress-shows-pfc-chemicals-present/  ","pfas_testing_link":"https://www.cnic.navy.mil/content/dam/cnic/cnrma/pdfs/Environmental/Drinking_Water_and_Testing_Information/Installation_Scheduling_and_Results/Oceana/Fentress/Final%20NALF_Fentress_Basewide_PFAS_SI_Report.pdf","site_ref_link":"https://drive.google.com/drive/u/0/folders/1QKXqUlFDznZk9NEZRKkRlyEbtjnj8kIT","state_ref_link":"https://drive.google.com/drive/u/0/folders/1jI2qfUNHJx9JWwCQcG49AABEIOL-IKdx","ObjectId":2427}},{"type":"Feature","id":2428,"geometry":{"type":"Point","coordinates":[-76.024804,36.812364]},"properties":{"site_name":"Naval Air Station Oceana","other_site_names":null,"state":"Virginia","industry":"Military","matrix_type":"Groundwater","matrix":"Groundwater","year":2016,"pfoa":"22600","pfos":"471000","total_pfas":562790,"pfas_level":562790,"notes":"AFFF used at Field","regulation_gvt_link":"https://www.cnic.navy.mil/regions/cnrma/installations/nas_oceana/om/environmental_support/oceana_drinking_water.html","resources_link":"https://www.navfac.navy.mil/products_and_services/ev/products_and_services/env_restoration/installation_map/navfac_atlantic/midlant/oceana/oceana_pfas.html","suspected_source_link":"https://www.cnic.navy.mil/content/dam/cnic/cnrma/pdfs/Environmental/Drinking_Water_and_Testing_Information/General_Information_and_Facts/CO_letter_NFE_Personnel.pdf","pfas_testing_link":"https://www.navfac.navy.mil/niris/MID_ATLANTIC/OCEANA_NAS/N60191_001287.pdf","site_ref_link":"https://drive.google.com/drive/u/0/folders/1xKEraxTzOFTrX1KGueO4rzGQO1uUjdtX","state_ref_link":"https://drive.google.com/drive/u/0/folders/1jI2qfUNHJx9JWwCQcG49AABEIOL-IKdx","ObjectId":2428}},{"type":"Feature","id":2429,"geometry":{"type":"Point","coordinates":[-77.426751,37.453303]},"properties":{"site_name":"DuPont Spruance Plant","other_site_names":null,"state":"Virginia","industry":"Industry","matrix_type":"Groundwater","matrix":"Groundwater","year":null,"pfoa":"25000","pfos":null,"total_pfas":null,"pfas_level":25000,"notes":"DuPont's Spruance plant ","regulation_gvt_link":"https://www.epa.gov/hwcorrectiveaction/hazardous-waste-cleanup-dupont-spruance-facility-richmond-va","resources_link":"https://www.epa.gov/hwcorrectiveaction/hazardous-waste-cleanup-dupont-spruance-facility-richmond-va","suspected_source_link":"https://nam12.safelinks.protection.outlook.com/?url=https%3A%2F%2Fwww.epa.gov%2Fsites%2Fdefault%2Ffiles%2F2015-10%2Fdocuments%2Fdupontspruance_sb.pdf&data=05%7C01%7Ccaluwe.a%40northeastern.edu%7C450499dd753e4a164f8508db26647b15%7Ca8eec281aaa34daeac9b9a398b9215e7%7C0%7C0%7C638145985225955287%7CUnknown%7CTWFpbGZsb3d8eyJWIjoiMC4wLjAwMDAiLCJQIjoiV2luMzIiLCJBTiI6Ik1haWwiLCJXVCI6Mn0%3D%7C3000%7C%7C%7C&sdata=HtD06n4ZkcLJSZnMWNuif1Zk5lPgCjJCGzfO7Ni9i6A%3D&reserved=0","pfas_testing_link":"https://nam12.safelinks.protection.outlook.com/?url=https%3A%2F%2Fwww.epa.gov%2Fsites%2Fdefault%2Ffiles%2F2015-10%2Fdocuments%2Fdupontspruance_sb.pdf&data=05%7C01%7Ccaluwe.a%40northeastern.edu%7C450499dd753e4a164f8508db26647b15%7Ca8eec281aaa34daeac9b9a398b9215e7%7C0%7C0%7C638145985225955287%7CUnknown%7CTWFpbGZsb3d8eyJWIjoiMC4wLjAwMDAiLCJQIjoiV2luMzIiLCJBTiI6Ik1haWwiLCJXVCI6Mn0%3D%7C3000%7C%7C%7C&sdata=HtD06n4ZkcLJSZnMWNuif1Zk5lPgCjJCGzfO7Ni9i6A%3D&reserved=0","site_ref_link":"https://drive.google.com/drive/u/0/folders/19fTuqoZz6ifFmIIi1n64K5_HuZ0tTFP_","state_ref_link":"https://drive.google.com/drive/u/0/folders/1jI2qfUNHJx9JWwCQcG49AABEIOL-IKdx","ObjectId":2429}},{"type":"Feature","id":2430,"geometry":{"type":"Point","coordinates":[-77.320811,37.50658]},"properties":{"site_name":"Richmond International Airport","other_site_names":"Byrd Field, Virginia Air National Guard 192nd Fighter Wing","state":"Virginia","industry":"Military","matrix_type":"Groundwater","matrix":"Groundwater","year":2018,"pfoa":"588","pfos":"1680","total_pfas":6732,"pfas_level":6732,"notes":"AFFF used by the former 192nd Air National Guard Fighter Wing at Richmond International Airport","regulation_gvt_link":"N/A","resources_link":"https://ar.cce.af.mil/Search","suspected_source_link":null,"pfas_testing_link":"https://drive.google.com/file/d/1sQ-oNwJYDaG-BfrNz_6C79GQOyXvaFnr/view?usp=sharing","site_ref_link":"https://drive.google.com/drive/u/0/folders/1Q3UuYSv9ESUsZkmazjq2sllIVcHK3JbL","state_ref_link":"https://drive.google.com/drive/u/0/folders/1jI2qfUNHJx9JWwCQcG49AABEIOL-IKdx","ObjectId":2430}},{"type":"Feature","id":2431,"geometry":{"type":"Point","coordinates":[-76.302238,36.947857]},"properties":{"site_name":"Norfolk Naval Base","other_site_names":"Norfolk Naval Base (Sewells Point Naval Complex)","state":"Virginia","industry":"Military","matrix_type":"Groundwater","matrix":"Groundwater","year":null,"pfoa":null,"pfos":null,"total_pfas":null,"pfas_level":3373,"notes":"AFFF used at Norfolk Virginia Naval Base","regulation_gvt_link":"N/A","resources_link":"https://www.deq.virginia.gov/get-involved/the-environment-you/per-and-polyfluoroalkyl-substances-pfas","suspected_source_link":"https://drive.google.com/file/d/1EUMAiROzk8OxvPAWubv0xGGH9zI6mw4d/view?usp=drive_link ","pfas_testing_link":"https://www.denix.osd.mil/derp/home/documents/pfos-pfoa-briefing-to-the-hasc/FY18%20HASC%20Brief%20on%20PFOS-PFOA_Mar2018.pdf","site_ref_link":"https://drive.google.com/drive/u/0/folders/1M1Scut6KPJD_7dQyfloKzUjDXmW5NOgP","state_ref_link":"https://drive.google.com/drive/u/0/folders/1jI2qfUNHJx9JWwCQcG49AABEIOL-IKdx","ObjectId":2431}},{"type":"Feature","id":2432,"geometry":{"type":"Point","coordinates":[-76.359224,37.083507]},"properties":{"site_name":"Joint Base Langley-Eustis","other_site_names":"Fort Eustis (US ARMY), Langley Air Force Base/NASA Langley Research Center","state":"Virginia","industry":"Military","matrix_type":"Groundwater","matrix":"Groundwater","year":2018,"pfoa":"33000","pfos":"2200000","total_pfas":2275000,"pfas_level":2275000,"notes":"AFFF used and stored at Joint Base Lewis-McChord (JBLM)","regulation_gvt_link":"https://www.jble.af.mil/","resources_link":"https://ar.cce.af.mil/Search","suspected_source_link":"https://drive.google.com/file/d/1EUMAiROzk8OxvPAWubv0xGGH9zI6mw4d/view?usp=drive_link ","pfas_testing_link":"https://drive.google.com/file/d/11qG8rJFOeJqi_jrLFmHx0SeDLq9EhFTI/view?usp=sharing","site_ref_link":"https://drive.google.com/drive/u/0/folders/1KptuMzrGi8DIxafGkFGiouAzpVal-S4R","state_ref_link":"https://drive.google.com/drive/u/0/folders/1jI2qfUNHJx9JWwCQcG49AABEIOL-IKdx","ObjectId":2432}},{"type":"Feature","id":2433,"geometry":{"type":"Point","coordinates":[-75.457427,37.938329]},"properties":{"site_name":"NASA Wallops Flight Center","other_site_names":"NASA Wallops Flight Facility","state":"Virginia","industry":"Military","matrix_type":"Groundwater","matrix":"Groundwater","year":2019,"pfoa":"2500","pfos":"1200","total_pfas":6744,"pfas_level":6744,"notes":"AFFF used at Wallops Flight Center","regulation_gvt_link":"https://www.nasa.gov/feature/background-latest-information-on-pfas-at-nasa-wallops/","resources_link":"https://www.nasa.gov/feature/background-latest-information-on-pfas-at-nasa-wallops/","suspected_source_link":"https://apnews.com/ad64d656f942466b8ecd201b47a8d29e","pfas_testing_link":"https://www.nasa.gov/sites/default/files/atoms/files/final_nasa_wff_pfas_si_report.pdf","site_ref_link":"https://drive.google.com/drive/folders/1pf0aEtf5rlXE1uHxkVz6akgOjhNOQFEZ","state_ref_link":"https://drive.google.com/drive/u/0/folders/1jI2qfUNHJx9JWwCQcG49AABEIOL-IKdx","ObjectId":2433}},{"type":"Feature","id":2906,"geometry":{"type":"Point","coordinates":[-76.55209,37.23815]},"properties":{"site_name":"Naval Weapons Station - Yorktown","other_site_names":"NMC DET YORKTOWN","state":"Virginia","industry":"Military","matrix_type":"Groundwater","matrix":"Groundwater","year":2021,"pfoa":"148000","pfos":"5460","total_pfas":null,"pfas_level":148000,"notes":"Identified by the Environmental Protection Agency (EPA) as having PFAS contamination. Provided to the Senate Committee on Environment and Public Works.","regulation_gvt_link":null,"resources_link":"https://cumulis.epa.gov/supercpad/cursites/csitinfo.cfm?id=0302869","suspected_source_link":"https://www.epw.senate.gov/public/index.cfm/superfund-sites-identified-by-epa-to-have-pfas-contamination","pfas_testing_link":null,"site_ref_link":"https://drive.google.com/file/d/1lkEXk3IT2BGcH0vj9zUuWEjRx9vRFPAD/view?usp=drive_link","state_ref_link":null,"ObjectId":2906}},{"type":"Feature","id":2907,"geometry":{"type":"Point","coordinates":[-76.32293,36.79401]},"properties":{"site_name":"St. Juliens Creek Annex (U.S. Navy)","other_site_names":null,"state":"Virginia","industry":"Military","matrix_type":"Groundwater","matrix":"Groundwater","year":2022,"pfoa":"1690","pfos":"50800","total_pfas":69186,"pfas_level":69186,"notes":"Identified by the Environmental Protection Agency (EPA) as having PFAS contamination. Provided to the Senate Committee on Environment and Public Works.","regulation_gvt_link":null,"resources_link":"https://cumulis.epa.gov/supercpad/cursites/csitinfo.cfm?id=0302852","suspected_source_link":"https://www.epw.senate.gov/public/index.cfm/superfund-sites-identified-by-epa-to-have-pfas-contamination","pfas_testing_link":"https://administrative-records.navfac.navy.mil/Public_Documents/MID_ATLANTIC/ST_JULIENS_CREEK/N69118_002172.pdf","site_ref_link":"https://drive.google.com/drive/folders/1gs-sMao5zxogt3B21kDHx4ca2Q84v5ty?usp=drive_link","state_ref_link":"https://drive.google.com/drive/folders/10p_W6a_m4Huz3O3zvXBsrHs-oKb-PIJZ?usp=drive_link","ObjectId":2907}},{"type":"Feature","id":2908,"geometry":{"type":"Point","coordinates":[-77.44068,37.41464]},"properties":{"site_name":"US Defense General Supply Center (DLA)","other_site_names":"Defense General Supply Center (DLA)","state":"Virginia","industry":"Military","matrix_type":"Groundwater","matrix":"Groundwater","year":2021,"pfoa":"1500","pfos":"1800","total_pfas":null,"pfas_level":1800,"notes":"Identified by the Environmental Protection Agency (EPA) as having PFAS contamination. Provided to the Senate Committee on Environment and Public Works.","regulation_gvt_link":null,"resources_link":"https://cumulis.epa.gov/supercpad/cursites/csitinfo.cfm?id=0302849","suspected_source_link":"https://www.epw.senate.gov/public/index.cfm/superfund-sites-identified-by-epa-to-have-pfas-contamination","pfas_testing_link":"https://semspub.epa.gov/work/03/2398221.pdf","site_ref_link":null,"state_ref_link":null,"ObjectId":2908}},{"type":"Feature","id":3027,"geometry":{"type":"Point","coordinates":[-76.248445,36.567749]},"properties":{"site_name":"Chesapeake NSGA NW","other_site_names":null,"state":"Virginia","industry":"Military","matrix_type":"Groundwater","matrix":"Groundwater","year":null,"pfoa":"230","pfos":"15221","total_pfas":null,"pfas_level":15221,"notes":null,"regulation_gvt_link":null,"resources_link":null,"suspected_source_link":null,"pfas_testing_link":"https://www.agri-pulse.com/ext/resources/pdfs/congress/STATUS-OF-NOTIFICATIONS-TO-AGRICULTURAL-OPERATIONS-PURSUANT-TO-SECTION-335-OF-THE-FISCAL-YEAR-2021-NATIONAL-DEFENSE-AUTHORIZATION-ACT-1.pdf","site_ref_link":null,"state_ref_link":null,"ObjectId":3027}},{"type":"Feature","id":3028,"geometry":{"type":"Point","coordinates":[-76.327406,36.947139]},"properties":{"site_name":"NAVSUP Fleet Logistics Center Norfolk","other_site_names":"Formerly Norfolk FISC","state":"Virginia","industry":"Military","matrix_type":"Groundwater","matrix":"Groundwater","year":null,"pfoa":"69","pfos":"332","total_pfas":null,"pfas_level":332,"notes":null,"regulation_gvt_link":null,"resources_link":"https://www.navsup.navy.mil/public/navsup/flcn/","suspected_source_link":null,"pfas_testing_link":"https://www.agri-pulse.com/ext/resources/pdfs/congress/STATUS-OF-NOTIFICATIONS-TO-AGRICULTURAL-OPERATIONS-PURSUANT-TO-SECTION-335-OF-THE-FISCAL-YEAR-2021-NATIONAL-DEFENSE-AUTHORIZATION-ACT-1.pdf","site_ref_link":null,"state_ref_link":null,"ObjectId":3028}},{"type":"Feature","id":3029,"geometry":{"type":"Point","coordinates":[-76.303611,36.813349]},"properties":{"site_name":"Norfolk Naval Shipyard","other_site_names":null,"state":"Virginia","industry":"Military","matrix_type":"Groundwater","matrix":"Groundwater","year":2017,"pfoa":"506000","pfos":"24400","total_pfas":515624,"pfas_level":515624,"notes":null,"regulation_gvt_link":null,"resources_link":null,"suspected_source_link":"https://www.navfac.navy.mil/products_and_services/ev/products_and_services/env_restoration/pfas_reading_room.html","pfas_testing_link":"https://drive.google.com/file/d/1FDK92LDsSllnarmGNbvbnQOxXYMG6RLR/view?usp=sharing","site_ref_link":"https://drive.google.com/drive/u/0/folders/1ayj6zCCQxBFTLLcEBwKNCIgcY8v5jTca","state_ref_link":null,"ObjectId":3029}},{"type":"Feature","id":4246,"geometry":{"type":"Point","coordinates":[-77.424175,39.056131]},"properties":{"site_name":"Hidden Lane Landfill","other_site_names":null,"state":"Virginia","industry":"Waste","matrix_type":"Groundwater","matrix":"Groundwater","year":2024,"pfoa":"330","pfos":"60","total_pfas":443,"pfas_level":443,"notes":null,"regulation_gvt_link":"https://cumulis.epa.gov/supercpad/SiteProfiles/index.cfm?fuseaction=second.cleanup&id=0302762","resources_link":null,"suspected_source_link":"https://cumulis.epa.gov/supercpad/cursites/csitinfo.cfm?id=0302762","pfas_testing_link":"https://semspub.epa.gov/work/03/2426971.pdf","site_ref_link":"https://drive.google.com/drive/folders/1S34bRf4EzTvN8f_gn7jns9_kh5Ex-RlW?usp=drive_link","state_ref_link":"https://drive.google.com/drive/folders/10p_W6a_m4Huz3O3zvXBsrHs-oKb-PIJZ?usp=drive_link","ObjectId":4246}}]}