{"type":"FeatureCollection","crs":{"type":"name","properties":{"name":"EPSG:4326"}},"features":[{"type":"Feature","id":267,"geometry":{"type":"Point","coordinates":[-98.27826,40.567752]},"properties":{"site_name":"Greenlief Training Site","other_site_names":null,"state":"Nebraska","industry":"Military","matrix_type":"Other Water","matrix":"Drinking Water","year":2018,"pfoa":null,"pfos":null,"total_pfas":1,"pfas_level":1,"notes":null,"regulation_gvt_link":null,"resources_link":null,"suspected_source_link":"https://drive.google.com/file/d/1g1t60FsMLcfluvkLqorqlbsHnkF_rNZw/view?usp=sharing","pfas_testing_link":"https://drive.google.com/file/d/1g1t60FsMLcfluvkLqorqlbsHnkF_rNZw/view?usp=sharing","site_ref_link":"https://drive.google.com/drive/u/0/folders/17vc5JX3Gvo92Bih-kg-GABnBbExIJhXg","state_ref_link":"https://drive.google.com/drive/u/1/folders/1oeaM5yDQ1UIO4nchvIiTClArnkW-MH4J","ObjectId":267}},{"type":"Feature","id":505,"geometry":{"type":"Point","coordinates":[-96.333886,41.065176]},"properties":{"site_name":"Camp Ashland","other_site_names":null,"state":"Nebraska","industry":"Military","matrix_type":"Other Water","matrix":"Drinking Water","year":2018,"pfoa":"1","pfos":"2","total_pfas":5,"pfas_level":5,"notes":null,"regulation_gvt_link":null,"resources_link":null,"suspected_source_link":"https://drive.google.com/file/d/1g1t60FsMLcfluvkLqorqlbsHnkF_rNZw/view?usp=sharing","pfas_testing_link":"https://drive.google.com/file/d/1g1t60FsMLcfluvkLqorqlbsHnkF_rNZw/view?usp=sharing","site_ref_link":"https://drive.google.com/drive/u/0/folders/17vc5JX3Gvo92Bih-kg-GABnBbExIJhXg","state_ref_link":"https://drive.google.com/drive/u/1/folders/1oeaM5yDQ1UIO4nchvIiTClArnkW-MH4J","ObjectId":505}},{"type":"Feature","id":555,"geometry":{"type":"Point","coordinates":[-97.425766,42.016897]},"properties":{"site_name":"Norfolk FMS 07","other_site_names":null,"state":"Nebraska","industry":"Military","matrix_type":"Other Water","matrix":"Drinking Water","year":2018,"pfoa":"1","pfos":null,"total_pfas":14,"pfas_level":14,"notes":null,"regulation_gvt_link":null,"resources_link":null,"suspected_source_link":"https://drive.google.com/file/d/1g1t60FsMLcfluvkLqorqlbsHnkF_rNZw/view?usp=sharing","pfas_testing_link":"https://drive.google.com/file/d/1g1t60FsMLcfluvkLqorqlbsHnkF_rNZw/view?usp=sharing","site_ref_link":"https://drive.google.com/drive/u/0/folders/17vc5JX3Gvo92Bih-kg-GABnBbExIJhXg","state_ref_link":"https://drive.google.com/drive/u/1/folders/1oeaM5yDQ1UIO4nchvIiTClArnkW-MH4J","ObjectId":555}},{"type":"Feature","id":652,"geometry":{"type":"Point","coordinates":[-96.754893,40.841864]},"properties":{"site_name":"Lincoln Air National Guard Base","other_site_names":"Lincoln Municipal Airport","state":"Nebraska","industry":"Military","matrix_type":"Groundwater","matrix":"Groundwater","year":2018,"pfoa":"1,700","pfos":"13,000","total_pfas":32651,"pfas_level":32651,"notes":"AFFF used at Lincoln Municipal Airport / Air National Guard Base","regulation_gvt_link":"N/A","resources_link":"https://ar.cce.af.mil/Search","suspected_source_link":null,"pfas_testing_link":"https://drive.google.com/file/d/1sraUkPz7-4aYIi5Sj1AbDsDu_vzFyXl5/view?usp=sharing","site_ref_link":"https://drive.google.com/drive/u/0/folders/1BnuynTdqCbtbcz-epKuBdIuG48D772kH","state_ref_link":"https://drive.google.com/drive/u/1/folders/1oeaM5yDQ1UIO4nchvIiTClArnkW-MH4J","ObjectId":652}},{"type":"Feature","id":1341,"geometry":{"type":"Point","coordinates":[-95.914557,41.124272]},"properties":{"site_name":"Offutt Air Force Base","other_site_names":null,"state":"Nebraska","industry":"Military","matrix_type":"Groundwater","matrix":"Groundwater","year":2019,"pfoa":"410,000","pfos":"42,000","total_pfas":null,"pfas_level":410780,"notes":null,"regulation_gvt_link":null,"resources_link":null,"suspected_source_link":"https://ar.afcec-cloud.af.mil/Search.aspx","pfas_testing_link":"https://drive.google.com/file/d/1R14NohJNrvGlC78oKl-4W9VLnhwsifWL/view?usp=sharing","site_ref_link":null,"state_ref_link":null,"ObjectId":1341}},{"type":"Feature","id":2325,"geometry":{"type":"Point","coordinates":[-96.754893,40.841864]},"properties":{"site_name":"Lincoln Air National Guard Base","other_site_names":"Lincoln Municipal Airport","state":"Nebraska","industry":"Military","matrix_type":"Groundwater","matrix":"Groundwater","year":2018,"pfoa":"1700","pfos":"13000","total_pfas":32651,"pfas_level":32651,"notes":"AFFF used at Lincoln Municipal Airport / Air National Guard Base","regulation_gvt_link":"N/A","resources_link":"https://ar.cce.af.mil/Search","suspected_source_link":null,"pfas_testing_link":"https://drive.google.com/file/d/1sraUkPz7-4aYIi5Sj1AbDsDu_vzFyXl5/view?usp=sharing","site_ref_link":"https://drive.google.com/drive/u/0/folders/1BnuynTdqCbtbcz-epKuBdIuG48D772kH","state_ref_link":"https://drive.google.com/drive/u/1/folders/1oeaM5yDQ1UIO4nchvIiTClArnkW-MH4J","ObjectId":2325}},{"type":"Feature","id":2569,"geometry":{"type":"Point","coordinates":[-96.333886,41.065176]},"properties":{"site_name":"Camp Ashland","other_site_names":null,"state":"Nebraska","industry":"Military","matrix_type":"Other Water","matrix":"Drinking Water","year":2018,"pfoa":"1","pfos":"2","total_pfas":5,"pfas_level":5,"notes":null,"regulation_gvt_link":null,"resources_link":null,"suspected_source_link":"https://drive.google.com/file/d/1g1t60FsMLcfluvkLqorqlbsHnkF_rNZw/view?usp=sharing","pfas_testing_link":"https://drive.google.com/file/d/1g1t60FsMLcfluvkLqorqlbsHnkF_rNZw/view?usp=sharing","site_ref_link":"https://drive.google.com/drive/u/0/folders/17vc5JX3Gvo92Bih-kg-GABnBbExIJhXg","state_ref_link":"https://drive.google.com/drive/u/1/folders/1oeaM5yDQ1UIO4nchvIiTClArnkW-MH4J","ObjectId":2569}},{"type":"Feature","id":2570,"geometry":{"type":"Point","coordinates":[-98.27826,40.567752]},"properties":{"site_name":"Greenlief Training Site","other_site_names":null,"state":"Nebraska","industry":"Military","matrix_type":"Other Water","matrix":"Drinking Water","year":2018,"pfoa":null,"pfos":null,"total_pfas":1,"pfas_level":1,"notes":null,"regulation_gvt_link":null,"resources_link":null,"suspected_source_link":"https://drive.google.com/file/d/1g1t60FsMLcfluvkLqorqlbsHnkF_rNZw/view?usp=sharing","pfas_testing_link":"https://drive.google.com/file/d/1g1t60FsMLcfluvkLqorqlbsHnkF_rNZw/view?usp=sharing","site_ref_link":"https://drive.google.com/drive/u/0/folders/17vc5JX3Gvo92Bih-kg-GABnBbExIJhXg","state_ref_link":"https://drive.google.com/drive/u/1/folders/1oeaM5yDQ1UIO4nchvIiTClArnkW-MH4J","ObjectId":2570}},{"type":"Feature","id":2571,"geometry":{"type":"Point","coordinates":[-97.425766,42.016897]},"properties":{"site_name":"Norfolk FMS 07","other_site_names":null,"state":"Nebraska","industry":"Military","matrix_type":"Other Water","matrix":"Drinking Water","year":2018,"pfoa":"1","pfos":null,"total_pfas":14,"pfas_level":14,"notes":null,"regulation_gvt_link":null,"resources_link":null,"suspected_source_link":"https://drive.google.com/file/d/1g1t60FsMLcfluvkLqorqlbsHnkF_rNZw/view?usp=sharing","pfas_testing_link":"https://drive.google.com/file/d/1g1t60FsMLcfluvkLqorqlbsHnkF_rNZw/view?usp=sharing","site_ref_link":"https://drive.google.com/drive/u/0/folders/17vc5JX3Gvo92Bih-kg-GABnBbExIJhXg","state_ref_link":"https://drive.google.com/drive/u/1/folders/1oeaM5yDQ1UIO4nchvIiTClArnkW-MH4J","ObjectId":2571}},{"type":"Feature","id":2950,"geometry":{"type":"Point","coordinates":[-95.914557,41.124272]},"properties":{"site_name":"Offutt Air Force Base","other_site_names":null,"state":"Nebraska","industry":"Military","matrix_type":"Groundwater","matrix":"Groundwater","year":2019,"pfoa":"410000","pfos":"42000","total_pfas":null,"pfas_level":410780,"notes":null,"regulation_gvt_link":null,"resources_link":null,"suspected_source_link":"https://ar.afcec-cloud.af.mil/Search.aspx","pfas_testing_link":"https://drive.google.com/file/d/1R14NohJNrvGlC78oKl-4W9VLnhwsifWL/view?usp=sharing","site_ref_link":null,"state_ref_link":null,"ObjectId":2950}}]}