{"type":"FeatureCollection","crs":{"type":"name","properties":{"name":"EPSG:4326"}},"features":[{"type":"Feature","id":118,"geometry":{"type":"Point","coordinates":[-90.08244,32.325708]},"properties":{"site_name":"Jackson Air National Guard Base","other_site_names":"Jackson International Airport, Mississippi Air National Guard 172nd Airlift Wing, Allen C. Thompson Field, Camp Shelby Assault Strip","state":"Mississippi","industry":"Military","matrix_type":"Groundwater","matrix":"Groundwater","year":2018,"pfoa":"88","pfos":"440","total_pfas":1753,"pfas_level":1753,"notes":"AFFF used at Jackson International Airport / Air National Guard Base","regulation_gvt_link":"N/A","resources_link":"http://afcec.publicadmin-record.us.af.mil/","suspected_source_link":"https://ar.afcec-cloud.af.mil/Search.aspx","pfas_testing_link":"https://drive.google.com/file/d/19jfEkpkmGQf2w2iVc1LvkdTz1fHclrYK/view?usp=sharing","site_ref_link":"https://drive.google.com/drive/u/0/folders/1MbvsI6OgGbtzIAKEwpYmPnreSrr_XVXS","state_ref_link":"https://drive.google.com/drive/u/1/folders/1fdnPvEwMee0suQ4rqkndVAEfhxrAC72i","ObjectId":118}},{"type":"Feature","id":259,"geometry":{"type":"Point","coordinates":[-88.450079,33.641473]},"properties":{"site_name":"Columbus Air Force Base","other_site_names":null,"state":"Mississippi","industry":"Military","matrix_type":"Groundwater","matrix":"Groundwater","year":2017,"pfoa":"70,700","pfos":"740,000","total_pfas":1446118,"pfas_level":1446118,"notes":"AFFF used at Columbus Air Force Base","regulation_gvt_link":"N/A","resources_link":"https://ar.cce.af.mil/Search","suspected_source_link":"https://ar.afcec-cloud.af.mil/Search.aspx","pfas_testing_link":"https://drive.google.com/file/d/1l2SqSn84-SROdrj-H4cuU1bw28AUVSN2/view?usp=sharing","site_ref_link":"https://drive.google.com/drive/u/0/folders/1QlSYp3tFgDQvrhwyAWnWfTJaUPlXQSWc","state_ref_link":"https://drive.google.com/drive/u/1/folders/1fdnPvEwMee0suQ4rqkndVAEfhxrAC72i","ObjectId":259}},{"type":"Feature","id":280,"geometry":{"type":"Point","coordinates":[-89.190652,31.199022]},"properties":{"site_name":"Camp Shelby","other_site_names":null,"state":"Mississippi","industry":"Military","matrix_type":"Other Water","matrix":"Drinking Water","year":2018,"pfoa":null,"pfos":null,"total_pfas":2,"pfas_level":2,"notes":null,"regulation_gvt_link":null,"resources_link":null,"suspected_source_link":"https://drive.google.com/file/d/1g1t60FsMLcfluvkLqorqlbsHnkF_rNZw/view?usp=sharing","pfas_testing_link":"https://drive.google.com/file/d/1g1t60FsMLcfluvkLqorqlbsHnkF_rNZw/view?usp=sharing","site_ref_link":"https://drive.google.com/drive/u/0/folders/17vc5JX3Gvo92Bih-kg-GABnBbExIJhXg","state_ref_link":"https://drive.google.com/drive/u/1/folders/1fdnPvEwMee0suQ4rqkndVAEfhxrAC72i","ObjectId":280}},{"type":"Feature","id":295,"geometry":{"type":"Point","coordinates":[-89.712712,33.698034]},"properties":{"site_name":"Camp McCain","other_site_names":null,"state":"Mississippi","industry":"Military","matrix_type":"Other Water","matrix":"Drinking Water","year":2018,"pfoa":"1","pfos":null,"total_pfas":4,"pfas_level":4,"notes":null,"regulation_gvt_link":null,"resources_link":null,"suspected_source_link":"https://drive.google.com/file/d/1g1t60FsMLcfluvkLqorqlbsHnkF_rNZw/view?usp=sharing","pfas_testing_link":"https://drive.google.com/file/d/1g1t60FsMLcfluvkLqorqlbsHnkF_rNZw/view?usp=sharing","site_ref_link":"https://drive.google.com/drive/u/0/folders/17vc5JX3Gvo92Bih-kg-GABnBbExIJhXg","state_ref_link":"https://drive.google.com/drive/u/1/folders/1fdnPvEwMee0suQ4rqkndVAEfhxrAC72i","ObjectId":295}},{"type":"Feature","id":671,"geometry":{"type":"Point","coordinates":[-89.062649,30.408212]},"properties":{"site_name":"Gulfport Combat Readiness Training Center","other_site_names":"Gulfport-Biloxi International Airport","state":"Mississippi","industry":"Military","matrix_type":"Groundwater","matrix":"Groundwater","year":2018,"pfoa":"6,600","pfos":"71,000","total_pfas":89720,"pfas_level":89720,"notes":"AFFF used at Gulfport Regional Airport / Combat Readiness Training Center","regulation_gvt_link":"N/A","resources_link":"http://afcec.publicadmin-record.us.af.mil/","suspected_source_link":"https://ar.afcec-cloud.af.mil/Search.aspx","pfas_testing_link":"https://drive.google.com/file/d/12t9ULb2AGYf02bzhutqEtgyShbZ9OsUP/view?usp=sharing","site_ref_link":"https://drive.google.com/drive/u/0/folders/11ujeREsdgHGhW-2iJpSaEFWhQLMnObwE","state_ref_link":"https://drive.google.com/drive/u/1/folders/1fdnPvEwMee0suQ4rqkndVAEfhxrAC72i","ObjectId":671}},{"type":"Feature","id":672,"geometry":{"type":"Point","coordinates":[-88.925266,30.409416]},"properties":{"site_name":"Keesler Air Force Base","other_site_names":null,"state":"Mississippi","industry":"Military","matrix_type":"Groundwater","matrix":"Groundwater","year":2018,"pfoa":"18,800","pfos":"80,400","total_pfas":90362,"pfas_level":90362,"notes":"AFFF used at Keesler Air Force Base","regulation_gvt_link":"https://www.keesler.af.mil/Portals/14/documents/Environmental/CCR%202016%20Annual%20Water%20Quality%20Report.pdf","resources_link":"http://afcec.publicadmin-record.us.af.mil/","suspected_source_link":"https://ar.afcec-cloud.af.mil/Search.aspx","pfas_testing_link":"https://drive.google.com/file/d/1rqg-Eyn2BLERYTRW6iemR_bNE9c0TaHI/view?usp=sharing","site_ref_link":"https://drive.google.com/drive/u/0/folders/1mmm7lcEf12z5lYWg2G87cTNIGXYzOpOf","state_ref_link":"https://drive.google.com/drive/u/1/folders/1fdnPvEwMee0suQ4rqkndVAEfhxrAC72i","ObjectId":672}},{"type":"Feature","id":678,"geometry":{"type":"Point","coordinates":[-88.741987,32.344333]},"properties":{"site_name":"Key Field Air National Guard Base","other_site_names":"Mississippi Air National Guard 186th Air Refueling Wing","state":"Mississippi","industry":"Military","matrix_type":"Groundwater","matrix":"Groundwater","year":2018,"pfoa":"4,100","pfos":"67,000","total_pfas":111280,"pfas_level":111280,"notes":null,"regulation_gvt_link":null,"resources_link":null,"suspected_source_link":null,"pfas_testing_link":"https://drive.google.com/file/d/1_6i7esixz13s-vIHJzM_0Z70cqO4qOll/view?usp=sharing","site_ref_link":null,"state_ref_link":"https://drive.google.com/drive/u/1/folders/1fdnPvEwMee0suQ4rqkndVAEfhxrAC72i","ObjectId":678}},{"type":"Feature","id":1928,"geometry":{"type":"Point","coordinates":[-89.121119,30.373783]},"properties":{"site_name":"Gulfport Naval Construction Battalion Center","other_site_names":null,"state":"Mississippi","industry":"Military","matrix_type":"Groundwater","matrix":"Groundwater","year":2019,"pfoa":"719","pfos":"69","total_pfas":798,"pfas_level":798,"notes":"AFFF used at Gulfport Naval Construction Battalion Center","regulation_gvt_link":"N/A","resources_link":"https://www.secnav.navy.mil/eie/pages/pfc-pfas.aspx","suspected_source_link":"https://www.navfac.navy.mil/products_and_services/ev/products_and_services/env_restoration/pfas_reading_room.html","pfas_testing_link":"https://drive.google.com/drive/u/0/folders/1-S-34qNYvHpGOf0Z_ZgvbRIxhaFAaO83","site_ref_link":"https://drive.google.com/drive/u/0/folders/1-S-34qNYvHpGOf0Z_ZgvbRIxhaFAaO83","state_ref_link":"https://drive.google.com/drive/u/1/folders/1fdnPvEwMee0suQ4rqkndVAEfhxrAC72i","ObjectId":1928}},{"type":"Feature","id":2114,"geometry":{"type":"Point","coordinates":[-88.557814,32.553192]},"properties":{"site_name":"Naval Air Station Meridian","other_site_names":null,"state":"Mississippi","industry":"Military","matrix_type":"Groundwater","matrix":"Groundwater","year":null,"pfoa":"38,000","pfos":"15,000","total_pfas":null,"pfas_level":38000,"notes":"AFFF used at Naval Air Station Meridian","regulation_gvt_link":"N/A","resources_link":"https://www.secnav.navy.mil/eie/pages/pfc-pfas.aspx","suspected_source_link":"https://drive.google.com/file/d/1EUMAiROzk8OxvPAWubv0xGGH9zI6mw4d/view?usp=drive_link ","pfas_testing_link":"https://www.navfac.navy.mil/niris/SOUTHEAST/MERIDIAN_NAS/N63043_000343.pdf","site_ref_link":"https://drive.google.com/drive/u/1/folders/1LgOhJ2m8teOpbl10sw30tBVMRnkTZDN6","state_ref_link":"https://drive.google.com/drive/u/1/folders/1fdnPvEwMee0suQ4rqkndVAEfhxrAC72i","ObjectId":2114}},{"type":"Feature","id":2317,"geometry":{"type":"Point","coordinates":[-89.121119,30.373783]},"properties":{"site_name":"Gulfport Naval Construction Battalion Center","other_site_names":null,"state":"Mississippi","industry":"Military","matrix_type":"Groundwater","matrix":"Groundwater","year":2019,"pfoa":"719","pfos":"69","total_pfas":798,"pfas_level":798,"notes":"AFFF used at Gulfport Naval Construction Battalion Center","regulation_gvt_link":"N/A","resources_link":"https://www.secnav.navy.mil/eie/pages/pfc-pfas.aspx","suspected_source_link":"https://www.navfac.navy.mil/products_and_services/ev/products_and_services/env_restoration/pfas_reading_room.html","pfas_testing_link":"https://drive.google.com/drive/u/0/folders/1-S-34qNYvHpGOf0Z_ZgvbRIxhaFAaO83","site_ref_link":"https://drive.google.com/drive/u/0/folders/1-S-34qNYvHpGOf0Z_ZgvbRIxhaFAaO83","state_ref_link":"https://drive.google.com/drive/u/1/folders/1fdnPvEwMee0suQ4rqkndVAEfhxrAC72i","ObjectId":2317}},{"type":"Feature","id":2318,"geometry":{"type":"Point","coordinates":[-89.062649,30.408212]},"properties":{"site_name":"Gulfport Combat Readiness Training Center","other_site_names":"Gulfport-Biloxi International Airport","state":"Mississippi","industry":"Military","matrix_type":"Groundwater","matrix":"Groundwater","year":2018,"pfoa":"6600","pfos":"71000","total_pfas":89720,"pfas_level":89720,"notes":"AFFF used at Gulfport Regional Airport / Combat Readiness Training Center","regulation_gvt_link":"N/A","resources_link":"http://afcec.publicadmin-record.us.af.mil/","suspected_source_link":"https://ar.afcec-cloud.af.mil/Search.aspx","pfas_testing_link":"https://drive.google.com/file/d/12t9ULb2AGYf02bzhutqEtgyShbZ9OsUP/view?usp=sharing","site_ref_link":"https://drive.google.com/drive/u/0/folders/11ujeREsdgHGhW-2iJpSaEFWhQLMnObwE","state_ref_link":"https://drive.google.com/drive/u/1/folders/1fdnPvEwMee0suQ4rqkndVAEfhxrAC72i","ObjectId":2318}},{"type":"Feature","id":2319,"geometry":{"type":"Point","coordinates":[-90.08244,32.325708]},"properties":{"site_name":"Jackson Air National Guard Base","other_site_names":"Jackson International Airport, Mississippi Air National Guard 172nd Airlift Wing, Allen C. Thompson Field, Camp Shelby Assault Strip","state":"Mississippi","industry":"Military","matrix_type":"Groundwater","matrix":"Groundwater","year":2018,"pfoa":"88","pfos":"440","total_pfas":1753,"pfas_level":1753,"notes":"AFFF used at Jackson International Airport / Air National Guard Base","regulation_gvt_link":"N/A","resources_link":"http://afcec.publicadmin-record.us.af.mil/","suspected_source_link":"https://ar.afcec-cloud.af.mil/Search.aspx","pfas_testing_link":"https://drive.google.com/file/d/19jfEkpkmGQf2w2iVc1LvkdTz1fHclrYK/view?usp=sharing","site_ref_link":"https://drive.google.com/drive/u/0/folders/1MbvsI6OgGbtzIAKEwpYmPnreSrr_XVXS","state_ref_link":"https://drive.google.com/drive/u/1/folders/1fdnPvEwMee0suQ4rqkndVAEfhxrAC72i","ObjectId":2319}},{"type":"Feature","id":2320,"geometry":{"type":"Point","coordinates":[-88.925266,30.409416]},"properties":{"site_name":"Keesler Air Force Base","other_site_names":null,"state":"Mississippi","industry":"Military","matrix_type":"Groundwater","matrix":"Groundwater","year":2018,"pfoa":"18800","pfos":"80400","total_pfas":90362,"pfas_level":90362,"notes":"AFFF used at Keesler Air Force Base","regulation_gvt_link":"https://www.keesler.af.mil/Portals/14/documents/Environmental/CCR%202016%20Annual%20Water%20Quality%20Report.pdf","resources_link":"http://afcec.publicadmin-record.us.af.mil/","suspected_source_link":"https://ar.afcec-cloud.af.mil/Search.aspx","pfas_testing_link":"https://drive.google.com/file/d/1rqg-Eyn2BLERYTRW6iemR_bNE9c0TaHI/view?usp=sharing","site_ref_link":"https://drive.google.com/drive/u/0/folders/1mmm7lcEf12z5lYWg2G87cTNIGXYzOpOf","state_ref_link":"https://drive.google.com/drive/u/1/folders/1fdnPvEwMee0suQ4rqkndVAEfhxrAC72i","ObjectId":2320}},{"type":"Feature","id":2321,"geometry":{"type":"Point","coordinates":[-88.557814,32.553192]},"properties":{"site_name":"Naval Air Station Meridian","other_site_names":null,"state":"Mississippi","industry":"Military","matrix_type":"Groundwater","matrix":"Groundwater","year":null,"pfoa":"38000","pfos":"15000","total_pfas":null,"pfas_level":38000,"notes":"AFFF used at Naval Air Station Meridian","regulation_gvt_link":"N/A","resources_link":"https://www.secnav.navy.mil/eie/pages/pfc-pfas.aspx","suspected_source_link":"https://drive.google.com/file/d/1EUMAiROzk8OxvPAWubv0xGGH9zI6mw4d/view?usp=drive_link ","pfas_testing_link":"https://www.navfac.navy.mil/niris/SOUTHEAST/MERIDIAN_NAS/N63043_000343.pdf","site_ref_link":"https://drive.google.com/drive/u/1/folders/1LgOhJ2m8teOpbl10sw30tBVMRnkTZDN6","state_ref_link":"https://drive.google.com/drive/u/1/folders/1fdnPvEwMee0suQ4rqkndVAEfhxrAC72i","ObjectId":2321}},{"type":"Feature","id":2322,"geometry":{"type":"Point","coordinates":[-88.450079,33.641473]},"properties":{"site_name":"Columbus Air Force Base","other_site_names":null,"state":"Mississippi","industry":"Military","matrix_type":"Groundwater","matrix":"Groundwater","year":2017,"pfoa":"70700","pfos":"740000","total_pfas":1446118,"pfas_level":1446118,"notes":"AFFF used at Columbus Air Force Base","regulation_gvt_link":"N/A","resources_link":"https://ar.cce.af.mil/Search","suspected_source_link":"https://ar.afcec-cloud.af.mil/Search.aspx","pfas_testing_link":"https://drive.google.com/file/d/1l2SqSn84-SROdrj-H4cuU1bw28AUVSN2/view?usp=sharing","site_ref_link":"https://drive.google.com/drive/u/0/folders/1QlSYp3tFgDQvrhwyAWnWfTJaUPlXQSWc","state_ref_link":"https://drive.google.com/drive/u/1/folders/1fdnPvEwMee0suQ4rqkndVAEfhxrAC72i","ObjectId":2322}},{"type":"Feature","id":2565,"geometry":{"type":"Point","coordinates":[-89.712712,33.698034]},"properties":{"site_name":"Camp McCain","other_site_names":null,"state":"Mississippi","industry":"Military","matrix_type":"Other Water","matrix":"Drinking Water","year":2018,"pfoa":"1","pfos":null,"total_pfas":4,"pfas_level":4,"notes":null,"regulation_gvt_link":null,"resources_link":null,"suspected_source_link":"https://drive.google.com/file/d/1g1t60FsMLcfluvkLqorqlbsHnkF_rNZw/view?usp=sharing","pfas_testing_link":"https://drive.google.com/file/d/1g1t60FsMLcfluvkLqorqlbsHnkF_rNZw/view?usp=sharing","site_ref_link":"https://drive.google.com/drive/u/0/folders/17vc5JX3Gvo92Bih-kg-GABnBbExIJhXg","state_ref_link":"https://drive.google.com/drive/u/1/folders/1fdnPvEwMee0suQ4rqkndVAEfhxrAC72i","ObjectId":2565}},{"type":"Feature","id":2566,"geometry":{"type":"Point","coordinates":[-89.190652,31.199022]},"properties":{"site_name":"Camp Shelby","other_site_names":null,"state":"Mississippi","industry":"Military","matrix_type":"Other Water","matrix":"Drinking Water","year":2018,"pfoa":null,"pfos":null,"total_pfas":2,"pfas_level":2,"notes":null,"regulation_gvt_link":null,"resources_link":null,"suspected_source_link":"https://drive.google.com/file/d/1g1t60FsMLcfluvkLqorqlbsHnkF_rNZw/view?usp=sharing","pfas_testing_link":"https://drive.google.com/file/d/1g1t60FsMLcfluvkLqorqlbsHnkF_rNZw/view?usp=sharing","site_ref_link":"https://drive.google.com/drive/u/0/folders/17vc5JX3Gvo92Bih-kg-GABnBbExIJhXg","state_ref_link":"https://drive.google.com/drive/u/1/folders/1fdnPvEwMee0suQ4rqkndVAEfhxrAC72i","ObjectId":2566}},{"type":"Feature","id":3597,"geometry":{"type":"Point","coordinates":[-88.741987,32.344333]},"properties":{"site_name":"Key Field Air National Guard Base","other_site_names":"Mississippi Air National Guard 186th Air Refueling Wing","state":"Mississippi","industry":"Military","matrix_type":"Groundwater","matrix":"Groundwater","year":2018,"pfoa":"4100","pfos":"67000","total_pfas":111280,"pfas_level":111280,"notes":null,"regulation_gvt_link":null,"resources_link":null,"suspected_source_link":null,"pfas_testing_link":"https://drive.google.com/file/d/1_6i7esixz13s-vIHJzM_0Z70cqO4qOll/view?usp=sharing","site_ref_link":null,"state_ref_link":"https://drive.google.com/drive/u/1/folders/1fdnPvEwMee0suQ4rqkndVAEfhxrAC72i","ObjectId":3597}}]}