{"type":"FeatureCollection","crs":{"type":"name","properties":{"name":"EPSG:4326"}},"features":[{"type":"Feature","id":17,"geometry":{"type":"Point","coordinates":[-104.895269,39.721088]},"properties":{"site_name":"Former Lowry Air Force Base","other_site_names":null,"state":"Colorado","industry":"Military","matrix_type":"Groundwater","matrix":"Groundwater","year":2014,"pfoa":"344","pfos":"341","total_pfas":null,"pfas_level":344,"notes":"AFFF used at former Lowry Air Force Base","regulation_gvt_link":"N/A","resources_link":"http://afcec.publicadmin-record.us.af.mil/","suspected_source_link":null,"pfas_testing_link":"https://cohealthviz.dphe.state.co.us/t/EnvironmentalEpidemiologyPublic/views/PFAS_results_DRAFT/SamplingSummary?:showAppBanner=false&:display_count=n&:showVizHome=n&:origin=viz_share_link&:isGuestRedirectFromVizportal=y&:embed=y","site_ref_link":"https://drive.google.com/drive/u/0/folders/1hooq7gg995Z1UEPCyOOFcjMJCMAUciHd","state_ref_link":"https://drive.google.com/drive/u/1/folders/1qA-x3qSPtUj2HLNua_HFYWqKo72aFbny","ObjectId":17}},{"type":"Feature","id":504,"geometry":{"type":"Point","coordinates":[-104.846063,38.744491]},"properties":{"site_name":"Cheyenne Mountain Air Force Station","other_site_names":null,"state":"Colorado","industry":"Military","matrix_type":"Other Water","matrix":"Surface Water","year":2018,"pfoa":"2","pfos":"4","total_pfas":null,"pfas_level":4,"notes":null,"regulation_gvt_link":null,"resources_link":null,"suspected_source_link":"https://ar.afcec-cloud.af.mil/Search.aspx","pfas_testing_link":"https://drive.google.com/file/d/1uRhfCJx6fww8okXya-Vvp_N_j2QHEIzM/view?usp=sharing","site_ref_link":null,"state_ref_link":null,"ObjectId":504}},{"type":"Feature","id":677,"geometry":{"type":"Point","coordinates":[-104.703968,38.819433]},"properties":{"site_name":"Peterson Air Force Base","other_site_names":"Colorado Springs Municipal Airport","state":"Colorado","industry":"Military","matrix_type":"Groundwater","matrix":"Groundwater","year":2018,"pfoa":"8,000","pfos":"80,000","total_pfas":104000,"pfas_level":104000,"notes":"AFFF used at Peterson Air Force Base and Colorado Springs Airport ","regulation_gvt_link":"N/A","resources_link":"El Paso County Public Health: https://www.elpasocountyhealth.org/services/perfluorinated-compounds-pfcs-fountain-widefield-security","suspected_source_link":"http://krcc.org/post/closer-look-pfc-contamination-southern-el-paso-county ","pfas_testing_link":"https://drive.google.com/file/d/13mUCT0TAO1r9i7PurDa-mdtZ9omdvrzE/view?usp=sharing","site_ref_link":"https://drive.google.com/drive/folders/1J_NwNftx24zTq0zk70GPKP7uLqwyq_rm","state_ref_link":"https://drive.google.com/drive/u/1/folders/1qA-x3qSPtUj2HLNua_HFYWqKo72aFbny","ObjectId":677}},{"type":"Feature","id":693,"geometry":{"type":"Point","coordinates":[-104.773611,39.725447]},"properties":{"site_name":"Buckley Air Force Base","other_site_names":null,"state":"Colorado","industry":"Military","matrix_type":"Groundwater","matrix":"Groundwater","year":2018,"pfoa":"190,000","pfos":"90,000","total_pfas":299000,"pfas_level":299000,"notes":"AFFF used at Buckley Air Force Base","regulation_gvt_link":"N/A","resources_link":"http://afcec.publicadmin-record.us.af.mil/","suspected_source_link":null,"pfas_testing_link":"https://drive.google.com/file/d/1oi-muDE2lifgA5oWizHb2SnsgRUNimnO/view?usp=sharing","site_ref_link":"https://drive.google.com/drive/u/0/folders/1TF6Scr5XIvkS84-PU0RzRuuMuwDha6Af","state_ref_link":"https://drive.google.com/drive/u/1/folders/1qA-x3qSPtUj2HLNua_HFYWqKo72aFbny","ObjectId":693}},{"type":"Feature","id":787,"geometry":{"type":"Point","coordinates":[-105.406449,40.019218]},"properties":{"site_name":"Sugarloaf Fire Department","other_site_names":null,"state":"Colorado","industry":"Fire Department/Training Facility","matrix_type":"Groundwater","matrix":"Groundwater","year":2018,"pfoa":"42","pfos":"520","total_pfas":970,"pfas_level":970,"notes":"AFFF used at Sugarloaf Fire Department","regulation_gvt_link":"http://www.slfpd.org/water","resources_link":"http://www.slfpd.org/water","suspected_source_link":"http://www.slfpd.org/water","pfas_testing_link":"https://cohealthviz.dphe.state.co.us/t/EnvironmentalEpidemiologyPublic/views/PFAS_results_DRAFT/SamplingSummary?:showAppBanner=false&:display_count=n&:showVizHome=n&:origin=viz_share_link&:isGuestRedirectFromVizportal=y&:embed=y","site_ref_link":"https://drive.google.com/drive/u/1/folders/1XeawQf0LpTHY8uWcHnaYP9d8Nojdg8_n","state_ref_link":"https://drive.google.com/drive/u/1/folders/1qA-x3qSPtUj2HLNua_HFYWqKo72aFbny","ObjectId":787}},{"type":"Feature","id":805,"geometry":{"type":"Point","coordinates":[-104.536413,38.816238]},"properties":{"site_name":"Schriever Air Force Base","other_site_names":null,"state":"Colorado","industry":"Military","matrix_type":"Other Water","matrix":"Surface Water","year":2018,"pfoa":"110,000","pfos":"760,000","total_pfas":null,"pfas_level":760000,"notes":null,"regulation_gvt_link":null,"resources_link":null,"suspected_source_link":"https://ar.afcec-cloud.af.mil/Search.aspx","pfas_testing_link":"https://drive.google.com/file/d/1aTeZL8aKlLVPnPPfDxx7J9z3_qNwsMTF/view?usp=sharing","site_ref_link":null,"state_ref_link":null,"ObjectId":805}},{"type":"Feature","id":1104,"geometry":{"type":"Point","coordinates":[-105.1996,39.892897]},"properties":{"site_name":"ROCKY FLATS PLANT (USDOE)","other_site_names":null,"state":"Colorado","industry":"Military","matrix_type":"Groundwater","matrix":"Groundwater","year":2024,"pfoa":"27","pfos":"120","total_pfas":147,"pfas_level":147,"notes":null,"regulation_gvt_link":"https://drive.google.com/file/d/11EYz4y17QXBLy7HyyQ6j6mzYEXFqkGsD/view?usp=drive_link","resources_link":"https://drive.google.com/file/d/11EYz4y17QXBLy7HyyQ6j6mzYEXFqkGsD/view?usp=drive_link","suspected_source_link":"https://lmpublicsearch.lm.doe.gov/lmsites/50541_annual_2024_pfas.pdf","pfas_testing_link":"April 2025 - Annual PFAS Monitoring Report Rocky Flats Site, Colorado Calendar Year 2024 .pdf","site_ref_link":"Superior, CO - Rocky Flats Site","state_ref_link":"CO","ObjectId":1104}},{"type":"Feature","id":1209,"geometry":{"type":"Point","coordinates":[-105.2017,39.89416]},"properties":{"site_name":"Rocky Flats, Colorado, Site","other_site_names":null,"state":"Colorado","industry":"Military","matrix_type":"Groundwater","matrix":"Groundwater","year":2019,"pfoa":"120","pfos":"310","total_pfas":430,"pfas_level":430,"notes":"This was a nuclear weapons factory that had an on-site fire department. The highest PFAS detections were identified at the former fire department/oil burn pit. ","regulation_gvt_link":"https://www.energy.gov/sites/default/files/2022-11/DOE%20Initial%20PFAS%20Assessment%20-508.pdf","resources_link":null,"suspected_source_link":null,"pfas_testing_link":"https://drive.google.com/drive/folders/1MdFno11wQsLnON3sTYG_YT8bLtdg9w5I","site_ref_link":"Superior, CO - Rocky Flats Site","state_ref_link":null,"ObjectId":1209}},{"type":"Feature","id":1349,"geometry":{"type":"Point","coordinates":[-108.743182,38.993961]},"properties":{"site_name":"Glade Park Volunteer Fire Department","other_site_names":null,"state":"Colorado","industry":"Fire Department/Training Facility","matrix_type":"Groundwater","matrix":"Groundwater","year":2020,"pfoa":null,"pfos":null,"total_pfas":1,"pfas_level":1,"notes":null,"regulation_gvt_link":"https://www.colorado.gov/pacific/cdphe/PFCs/2020-Sampling-Project","resources_link":"https://cdphe.colorado.gov/pfas","suspected_source_link":null,"pfas_testing_link":"https://cohealthviz.dphe.state.co.us/t/EnvironmentalEpidemiologyPublic/views/PFAS_results_DRAFT/FD?%3AshowAppBanner=false&%3Adisplay_count=n&%3AshowVizHome=n&%3Aorigin=viz_share_link&%3AisGuestRedirectFromVizportal=y&%3Aembed=y","site_ref_link":"https://drive.google.com/drive/folders/1TvQaqhhqbwd28uQYqVXBduQPi_7zDDLl?usp=sharing","state_ref_link":"https://drive.google.com/drive/u/1/folders/1qA-x3qSPtUj2HLNua_HFYWqKo72aFbny","ObjectId":1349}},{"type":"Feature","id":1350,"geometry":{"type":"Point","coordinates":[-105.299513,40.131518]},"properties":{"site_name":"Lefthand Fire Protection District","other_site_names":null,"state":"Colorado","industry":"Fire Department/Training Facility","matrix_type":"Groundwater","matrix":"Groundwater","year":2020,"pfoa":null,"pfos":null,"total_pfas":1,"pfas_level":1,"notes":null,"regulation_gvt_link":"https://www.colorado.gov/pacific/cdphe/PFCs/2020-Sampling-Project","resources_link":"https://cdphe.colorado.gov/pfas","suspected_source_link":null,"pfas_testing_link":"https://cohealthviz.dphe.state.co.us/t/EnvironmentalEpidemiologyPublic/views/PFAS_results_DRAFT/FD?%3AshowAppBanner=false&%3Adisplay_count=n&%3AshowVizHome=n&%3Aorigin=viz_share_link&%3AisGuestRedirectFromVizportal=y&%3Aembed=y","site_ref_link":"https://drive.google.com/drive/folders/1qXLJ4DW2vacWvvMazprfMwFAdFw-nzMD?usp=sharing","state_ref_link":"https://drive.google.com/drive/u/1/folders/1qA-x3qSPtUj2HLNua_HFYWqKo72aFbny","ObjectId":1350}},{"type":"Feature","id":1364,"geometry":{"type":"Point","coordinates":[-105.792994,39.934761]},"properties":{"site_name":"East Grand County Fire Protection District","other_site_names":null,"state":"Colorado","industry":"Fire Department/Training Facility","matrix_type":"Groundwater","matrix":"Groundwater","year":2020,"pfoa":"2","pfos":"1","total_pfas":6,"pfas_level":6,"notes":"Unconfirmed, but likely a fire station","regulation_gvt_link":"https://www.colorado.gov/pacific/cdphe/PFCs/2020-Sampling-Project","resources_link":"https://cdphe.colorado.gov/pfas","suspected_source_link":null,"pfas_testing_link":"https://cohealthviz.dphe.state.co.us/t/EnvironmentalEpidemiologyPublic/views/PFAS_results_DRAFT/FD?%3AshowAppBanner=false&%3Adisplay_count=n&%3AshowVizHome=n&%3Aorigin=viz_share_link&%3AisGuestRedirectFromVizportal=y&%3Aembed=y","site_ref_link":"https://drive.google.com/drive/folders/1dwLyan6x3AYZizQ7l08RjHXm1i_kCJuE?usp=sharing","state_ref_link":"https://drive.google.com/drive/u/1/folders/1qA-x3qSPtUj2HLNua_HFYWqKo72aFbny","ObjectId":1364}},{"type":"Feature","id":1365,"geometry":{"type":"Point","coordinates":[-105.364051,40.061086]},"properties":{"site_name":"Sunshine Fire Protection District","other_site_names":null,"state":"Colorado","industry":"Fire Department/Training Facility","matrix_type":"Groundwater","matrix":"Groundwater","year":2020,"pfoa":null,"pfos":"1","total_pfas":6,"pfas_level":6,"notes":"Unconfirmed, but likely a fire station","regulation_gvt_link":"https://www.colorado.gov/pacific/cdphe/PFCs/2020-Sampling-Project","resources_link":"https://cdphe.colorado.gov/pfas","suspected_source_link":null,"pfas_testing_link":"https://cohealthviz.dphe.state.co.us/t/EnvironmentalEpidemiologyPublic/views/PFAS_results_DRAFT/FD?%3AshowAppBanner=false&%3Adisplay_count=n&%3AshowVizHome=n&%3Aorigin=viz_share_link&%3AisGuestRedirectFromVizportal=y&%3Aembed=y","site_ref_link":null,"state_ref_link":"https://drive.google.com/drive/u/1/folders/1qA-x3qSPtUj2HLNua_HFYWqKo72aFbny","ObjectId":1365}},{"type":"Feature","id":1377,"geometry":{"type":"Point","coordinates":[-105.219892,40.793341]},"properties":{"site_name":"Livermore Fire Protection District","other_site_names":null,"state":"Colorado","industry":"Fire Department/Training Facility","matrix_type":"Groundwater","matrix":"Groundwater","year":2020,"pfoa":"3","pfos":"4","total_pfas":16,"pfas_level":16,"notes":"Unconfirmed, but likely a fire station","regulation_gvt_link":"https://www.colorado.gov/pacific/cdphe/PFCs/2020-Sampling-Project","resources_link":"https://cdphe.colorado.gov/pfas","suspected_source_link":null,"pfas_testing_link":"https://cohealthviz.dphe.state.co.us/t/EnvironmentalEpidemiologyPublic/views/PFAS_results_DRAFT/FD?%3AshowAppBanner=false&%3Adisplay_count=n&%3AshowVizHome=n&%3Aorigin=viz_share_link&%3AisGuestRedirectFromVizportal=y&%3Aembed=y","site_ref_link":"https://drive.google.com/drive/folders/19yQzhjqctGHcQeRH_2OFTdIWCuDivoBC?usp=sharing","state_ref_link":"https://drive.google.com/drive/u/1/folders/1qA-x3qSPtUj2HLNua_HFYWqKo72aFbny","ObjectId":1377}},{"type":"Feature","id":1399,"geometry":{"type":"Point","coordinates":[-105.061795,39.568085]},"properties":{"site_name":"Air Force Plant PJKS","other_site_names":null,"state":"Colorado","industry":"Military","matrix_type":"Groundwater","matrix":"Groundwater","year":2020,"pfoa":"28","pfos":"36","total_pfas":null,"pfas_level":36,"notes":null,"regulation_gvt_link":null,"resources_link":"https://cumulis.epa.gov/supercpad/SiteProfiles/index.cfm?fuseaction=second.docdata&id=0800359","suspected_source_link":"https://www.epw.senate.gov/public/index.cfm/superfund-sites-identified-by-epa-to-have-pfas-contamination","pfas_testing_link":"https://drive.google.com/file/d/152bhgeXxLOcJpUoMXLuiF4mZezdvhPnT/view?usp=sharing","site_ref_link":null,"state_ref_link":null,"ObjectId":1399}},{"type":"Feature","id":1560,"geometry":{"type":"Point","coordinates":[-105.282159,38.797221]},"properties":{"site_name":"Four Mile Fire Protection District #4","other_site_names":null,"state":"Colorado","industry":"Fire Department/Training Facility","matrix_type":"Groundwater","matrix":"Groundwater","year":2020,"pfoa":"100","pfos":"550","total_pfas":2461,"pfas_level":2461,"notes":"Unconfirmed, but likely a fire station","regulation_gvt_link":"https://www.colorado.gov/pacific/cdphe/PFCs/2020-Sampling-Project","resources_link":"https://cdphe.colorado.gov/pfas","suspected_source_link":null,"pfas_testing_link":"https://cohealthviz.dphe.state.co.us/t/EnvironmentalEpidemiologyPublic/views/PFAS_results_DRAFT/FD?%3AshowAppBanner=false&%3Adisplay_count=n&%3AshowVizHome=n&%3Aorigin=viz_share_link&%3AisGuestRedirectFromVizportal=y&%3Aembed=y","site_ref_link":"https://drive.google.com/drive/folders/1UH10FiNGvwUvb_loKcffWIqRxJ0smcAh?usp=sharing","state_ref_link":"https://drive.google.com/drive/u/1/folders/1qA-x3qSPtUj2HLNua_HFYWqKo72aFbny","ObjectId":1560}},{"type":"Feature","id":1644,"geometry":{"type":"Point","coordinates":[-104.842445,39.833398]},"properties":{"site_name":"ROCKY MOUNTAIN ARSENAL (USARMY)","other_site_names":null,"state":"Colorado","industry":"Military","matrix_type":"Groundwater","matrix":"Groundwater","year":2019,"pfoa":"170","pfos":"6,100","total_pfas":6270,"pfas_level":6270,"notes":null,"regulation_gvt_link":"https://home.army.mil/carson/5616/7890/0494/FINAL-4-2020-PFC_Fa.pdf","resources_link":"https://home.army.mil/carson/5616/7890/0494/FINAL-4-2020-PFC_Fa.pdf","suspected_source_link":"https://home.army.mil/carson/5616/7890/0494/FINAL-4-2020-PFC_Fa.pdf","pfas_testing_link":"2020 - Fiscal Year 2019 Perfluorinated Compounds Data Summary Report.pdf","site_ref_link":"Adams County, CO - Rocky Mountain Arsenal (USARMY) - Superfund Site","state_ref_link":"CO","ObjectId":1644}},{"type":"Feature","id":1664,"geometry":{"type":"Point","coordinates":[-104.949107,39.802386]},"properties":{"site_name":"Suncor Energy USA Inc.","other_site_names":null,"state":"Colorado","industry":"Industry","matrix_type":"Groundwater","matrix":"Groundwater","year":2019,"pfoa":null,"pfos":null,"total_pfas":null,"pfas_level":10340,"notes":"AFFF used at Suncor oil refinery","regulation_gvt_link":"N/A","resources_link":"https://www.suncor.com/en-ca/about-us/refining/commerce-city-refinery/safety-and-environment-information","suspected_source_link":"https://www.denverpost.com/2019/09/10/pfas-chemical-contamination-denver-colorado/","pfas_testing_link":"https://coloradosun.com/2023/06/29/suncor-forever-chemicals-metro-denver-leaks/","site_ref_link":"https://drive.google.com/drive/u/1/folders/1AduhAglfPMLyAmFthPX7TO5shVIOgCxI","state_ref_link":"https://drive.google.com/drive/u/1/folders/1qA-x3qSPtUj2HLNua_HFYWqKo72aFbny","ObjectId":1664}},{"type":"Feature","id":1670,"geometry":{"type":"Point","coordinates":[-104.861318,38.998309]},"properties":{"site_name":"United States Air Force Academy","other_site_names":null,"state":"Colorado","industry":"Military","matrix_type":"Groundwater","matrix":"Groundwater","year":2019,"pfoa":"2,800","pfos":"12,000","total_pfas":null,"pfas_level":12000,"notes":null,"regulation_gvt_link":null,"resources_link":null,"suspected_source_link":"https://ar.afcec-cloud.af.mil/Search.aspx","pfas_testing_link":"https://drive.google.com/file/d/15v0lE1nutjZi3SsItCHdtRszJ_LXGOKc/view?usp=sharing","site_ref_link":null,"state_ref_link":null,"ObjectId":1670}},{"type":"Feature","id":2183,"geometry":{"type":"Point","coordinates":[-104.703968,38.819433]},"properties":{"site_name":"Peterson Air Force Base","other_site_names":"Colorado Springs Municipal Airport","state":"Colorado","industry":"Military","matrix_type":"Groundwater","matrix":"Groundwater","year":2018,"pfoa":"8000","pfos":"80000","total_pfas":104000,"pfas_level":104000,"notes":"AFFF used at Peterson Air Force Base and Colorado Springs Airport ","regulation_gvt_link":"N/A","resources_link":"El Paso County Public Health: https://www.elpasocountyhealth.org/services/perfluorinated-compounds-pfcs-fountain-widefield-security","suspected_source_link":"http://krcc.org/post/closer-look-pfc-contamination-southern-el-paso-county ","pfas_testing_link":"https://drive.google.com/file/d/13mUCT0TAO1r9i7PurDa-mdtZ9omdvrzE/view?usp=sharing","site_ref_link":"https://drive.google.com/drive/folders/1J_NwNftx24zTq0zk70GPKP7uLqwyq_rm","state_ref_link":"https://drive.google.com/drive/u/1/folders/1qA-x3qSPtUj2HLNua_HFYWqKo72aFbny","ObjectId":2183}},{"type":"Feature","id":2184,"geometry":{"type":"Point","coordinates":[-105.406449,40.019218]},"properties":{"site_name":"Sugarloaf Fire Department","other_site_names":null,"state":"Colorado","industry":"Fire Department/Training Facility","matrix_type":"Groundwater","matrix":"Groundwater","year":2018,"pfoa":"42","pfos":"520","total_pfas":970,"pfas_level":970,"notes":"AFFF used at Sugarloaf Fire Department","regulation_gvt_link":"http://www.slfpd.org/water","resources_link":"http://www.slfpd.org/water","suspected_source_link":"http://www.slfpd.org/water","pfas_testing_link":"https://cohealthviz.dphe.state.co.us/t/EnvironmentalEpidemiologyPublic/views/PFAS_results_DRAFT/SamplingSummary?:showAppBanner=false&:display_count=n&:showVizHome=n&:origin=viz_share_link&:isGuestRedirectFromVizportal=y&:embed=y","site_ref_link":"https://drive.google.com/drive/u/1/folders/1XeawQf0LpTHY8uWcHnaYP9d8Nojdg8_n","state_ref_link":"https://drive.google.com/drive/u/1/folders/1qA-x3qSPtUj2HLNua_HFYWqKo72aFbny","ObjectId":2184}},{"type":"Feature","id":2185,"geometry":{"type":"Point","coordinates":[-104.949107,39.802386]},"properties":{"site_name":"Suncor Energy USA Inc.","other_site_names":null,"state":"Colorado","industry":"Industry","matrix_type":"Groundwater","matrix":"Groundwater","year":2019,"pfoa":null,"pfos":null,"total_pfas":null,"pfas_level":10340,"notes":"AFFF used at Suncor oil refinery","regulation_gvt_link":"N/A","resources_link":"https://www.suncor.com/en-ca/about-us/refining/commerce-city-refinery/safety-and-environment-information","suspected_source_link":"https://www.denverpost.com/2019/09/10/pfas-chemical-contamination-denver-colorado/","pfas_testing_link":"https://coloradosun.com/2023/06/29/suncor-forever-chemicals-metro-denver-leaks/","site_ref_link":"https://drive.google.com/drive/u/1/folders/1AduhAglfPMLyAmFthPX7TO5shVIOgCxI","state_ref_link":"https://drive.google.com/drive/u/1/folders/1qA-x3qSPtUj2HLNua_HFYWqKo72aFbny","ObjectId":2185}},{"type":"Feature","id":2186,"geometry":{"type":"Point","coordinates":[-104.895269,39.721088]},"properties":{"site_name":"Former Lowry Air Force Base","other_site_names":null,"state":"Colorado","industry":"Military","matrix_type":"Groundwater","matrix":"Groundwater","year":2014,"pfoa":"344","pfos":"341","total_pfas":null,"pfas_level":344,"notes":"AFFF used at former Lowry Air Force Base","regulation_gvt_link":"N/A","resources_link":"http://afcec.publicadmin-record.us.af.mil/","suspected_source_link":null,"pfas_testing_link":"https://cohealthviz.dphe.state.co.us/t/EnvironmentalEpidemiologyPublic/views/PFAS_results_DRAFT/SamplingSummary?:showAppBanner=false&:display_count=n&:showVizHome=n&:origin=viz_share_link&:isGuestRedirectFromVizportal=y&:embed=y","site_ref_link":"https://drive.google.com/drive/u/0/folders/1hooq7gg995Z1UEPCyOOFcjMJCMAUciHd","state_ref_link":"https://drive.google.com/drive/u/1/folders/1qA-x3qSPtUj2HLNua_HFYWqKo72aFbny","ObjectId":2186}},{"type":"Feature","id":2187,"geometry":{"type":"Point","coordinates":[-104.773611,39.725447]},"properties":{"site_name":"Buckley Air Force Base","other_site_names":null,"state":"Colorado","industry":"Military","matrix_type":"Groundwater","matrix":"Groundwater","year":2018,"pfoa":"190000","pfos":"90000","total_pfas":299000,"pfas_level":299000,"notes":"AFFF used at Buckley Air Force Base","regulation_gvt_link":"N/A","resources_link":"http://afcec.publicadmin-record.us.af.mil/","suspected_source_link":null,"pfas_testing_link":"https://drive.google.com/file/d/1oi-muDE2lifgA5oWizHb2SnsgRUNimnO/view?usp=sharing","site_ref_link":"https://drive.google.com/drive/u/0/folders/1TF6Scr5XIvkS84-PU0RzRuuMuwDha6Af","state_ref_link":"https://drive.google.com/drive/u/1/folders/1qA-x3qSPtUj2HLNua_HFYWqKo72aFbny","ObjectId":2187}},{"type":"Feature","id":2448,"geometry":{"type":"Point","coordinates":[-105.792994,39.934761]},"properties":{"site_name":"East Grand County Fire Protection District","other_site_names":null,"state":"Colorado","industry":"Fire Department/Training Facility","matrix_type":"Groundwater","matrix":"Groundwater","year":2020,"pfoa":"2","pfos":"1","total_pfas":6,"pfas_level":6,"notes":"Unconfirmed, but likely a fire station","regulation_gvt_link":"https://www.colorado.gov/pacific/cdphe/PFCs/2020-Sampling-Project","resources_link":"https://cdphe.colorado.gov/pfas","suspected_source_link":null,"pfas_testing_link":"https://cohealthviz.dphe.state.co.us/t/EnvironmentalEpidemiologyPublic/views/PFAS_results_DRAFT/FD?%3AshowAppBanner=false&%3Adisplay_count=n&%3AshowVizHome=n&%3Aorigin=viz_share_link&%3AisGuestRedirectFromVizportal=y&%3Aembed=y","site_ref_link":"https://drive.google.com/drive/folders/1dwLyan6x3AYZizQ7l08RjHXm1i_kCJuE?usp=sharing","state_ref_link":"https://drive.google.com/drive/u/1/folders/1qA-x3qSPtUj2HLNua_HFYWqKo72aFbny","ObjectId":2448}},{"type":"Feature","id":2449,"geometry":{"type":"Point","coordinates":[-105.282159,38.797221]},"properties":{"site_name":"Four Mile Fire Protection District #4","other_site_names":null,"state":"Colorado","industry":"Fire Department/Training Facility","matrix_type":"Groundwater","matrix":"Groundwater","year":2020,"pfoa":"100","pfos":"550","total_pfas":2461,"pfas_level":2461,"notes":"Unconfirmed, but likely a fire station","regulation_gvt_link":"https://www.colorado.gov/pacific/cdphe/PFCs/2020-Sampling-Project","resources_link":"https://cdphe.colorado.gov/pfas","suspected_source_link":null,"pfas_testing_link":"https://cohealthviz.dphe.state.co.us/t/EnvironmentalEpidemiologyPublic/views/PFAS_results_DRAFT/FD?%3AshowAppBanner=false&%3Adisplay_count=n&%3AshowVizHome=n&%3Aorigin=viz_share_link&%3AisGuestRedirectFromVizportal=y&%3Aembed=y","site_ref_link":"https://drive.google.com/drive/folders/1UH10FiNGvwUvb_loKcffWIqRxJ0smcAh?usp=sharing","state_ref_link":"https://drive.google.com/drive/u/1/folders/1qA-x3qSPtUj2HLNua_HFYWqKo72aFbny","ObjectId":2449}},{"type":"Feature","id":2450,"geometry":{"type":"Point","coordinates":[-108.743182,38.993961]},"properties":{"site_name":"Glade Park Volunteer Fire Department","other_site_names":null,"state":"Colorado","industry":"Fire Department/Training Facility","matrix_type":"Groundwater","matrix":"Groundwater","year":2020,"pfoa":null,"pfos":null,"total_pfas":1,"pfas_level":1,"notes":null,"regulation_gvt_link":"https://www.colorado.gov/pacific/cdphe/PFCs/2020-Sampling-Project","resources_link":"https://cdphe.colorado.gov/pfas","suspected_source_link":null,"pfas_testing_link":"https://cohealthviz.dphe.state.co.us/t/EnvironmentalEpidemiologyPublic/views/PFAS_results_DRAFT/FD?%3AshowAppBanner=false&%3Adisplay_count=n&%3AshowVizHome=n&%3Aorigin=viz_share_link&%3AisGuestRedirectFromVizportal=y&%3Aembed=y","site_ref_link":"https://drive.google.com/drive/folders/1TvQaqhhqbwd28uQYqVXBduQPi_7zDDLl?usp=sharing","state_ref_link":"https://drive.google.com/drive/u/1/folders/1qA-x3qSPtUj2HLNua_HFYWqKo72aFbny","ObjectId":2450}},{"type":"Feature","id":2451,"geometry":{"type":"Point","coordinates":[-105.299513,40.131518]},"properties":{"site_name":"Lefthand Fire Protection District","other_site_names":null,"state":"Colorado","industry":"Fire Department/Training Facility","matrix_type":"Groundwater","matrix":"Groundwater","year":2020,"pfoa":null,"pfos":null,"total_pfas":1,"pfas_level":1,"notes":null,"regulation_gvt_link":"https://www.colorado.gov/pacific/cdphe/PFCs/2020-Sampling-Project","resources_link":"https://cdphe.colorado.gov/pfas","suspected_source_link":null,"pfas_testing_link":"https://cohealthviz.dphe.state.co.us/t/EnvironmentalEpidemiologyPublic/views/PFAS_results_DRAFT/FD?%3AshowAppBanner=false&%3Adisplay_count=n&%3AshowVizHome=n&%3Aorigin=viz_share_link&%3AisGuestRedirectFromVizportal=y&%3Aembed=y","site_ref_link":"https://drive.google.com/drive/folders/1qXLJ4DW2vacWvvMazprfMwFAdFw-nzMD?usp=sharing","state_ref_link":"https://drive.google.com/drive/u/1/folders/1qA-x3qSPtUj2HLNua_HFYWqKo72aFbny","ObjectId":2451}},{"type":"Feature","id":2452,"geometry":{"type":"Point","coordinates":[-105.219892,40.793341]},"properties":{"site_name":"Livermore Fire Protection District","other_site_names":null,"state":"Colorado","industry":"Fire Department/Training Facility","matrix_type":"Groundwater","matrix":"Groundwater","year":2020,"pfoa":"3","pfos":"4","total_pfas":16,"pfas_level":16,"notes":"Unconfirmed, but likely a fire station","regulation_gvt_link":"https://www.colorado.gov/pacific/cdphe/PFCs/2020-Sampling-Project","resources_link":"https://cdphe.colorado.gov/pfas","suspected_source_link":null,"pfas_testing_link":"https://cohealthviz.dphe.state.co.us/t/EnvironmentalEpidemiologyPublic/views/PFAS_results_DRAFT/FD?%3AshowAppBanner=false&%3Adisplay_count=n&%3AshowVizHome=n&%3Aorigin=viz_share_link&%3AisGuestRedirectFromVizportal=y&%3Aembed=y","site_ref_link":"https://drive.google.com/drive/folders/19yQzhjqctGHcQeRH_2OFTdIWCuDivoBC?usp=sharing","state_ref_link":"https://drive.google.com/drive/u/1/folders/1qA-x3qSPtUj2HLNua_HFYWqKo72aFbny","ObjectId":2452}},{"type":"Feature","id":2453,"geometry":{"type":"Point","coordinates":[-105.364051,40.061086]},"properties":{"site_name":"Sunshine Fire Protection District","other_site_names":null,"state":"Colorado","industry":"Fire Department/Training Facility","matrix_type":"Groundwater","matrix":"Groundwater","year":2020,"pfoa":null,"pfos":"1","total_pfas":6,"pfas_level":6,"notes":"Unconfirmed, but likely a fire station","regulation_gvt_link":"https://www.colorado.gov/pacific/cdphe/PFCs/2020-Sampling-Project","resources_link":"https://cdphe.colorado.gov/pfas","suspected_source_link":null,"pfas_testing_link":"https://cohealthviz.dphe.state.co.us/t/EnvironmentalEpidemiologyPublic/views/PFAS_results_DRAFT/FD?%3AshowAppBanner=false&%3Adisplay_count=n&%3AshowVizHome=n&%3Aorigin=viz_share_link&%3AisGuestRedirectFromVizportal=y&%3Aembed=y","site_ref_link":null,"state_ref_link":"https://drive.google.com/drive/u/1/folders/1qA-x3qSPtUj2HLNua_HFYWqKo72aFbny","ObjectId":2453}},{"type":"Feature","id":2730,"geometry":{"type":"Point","coordinates":[-105.061795,39.568085]},"properties":{"site_name":"Air Force Plant PJKS","other_site_names":null,"state":"Colorado","industry":"Military","matrix_type":"Groundwater","matrix":"Groundwater","year":2020,"pfoa":"28","pfos":"36","total_pfas":null,"pfas_level":36,"notes":null,"regulation_gvt_link":null,"resources_link":"https://cumulis.epa.gov/supercpad/SiteProfiles/index.cfm?fuseaction=second.docdata&id=0800359","suspected_source_link":"https://www.epw.senate.gov/public/index.cfm/superfund-sites-identified-by-epa-to-have-pfas-contamination","pfas_testing_link":"https://drive.google.com/file/d/152bhgeXxLOcJpUoMXLuiF4mZezdvhPnT/view?usp=sharing","site_ref_link":null,"state_ref_link":null,"ObjectId":2730}},{"type":"Feature","id":2922,"geometry":{"type":"Point","coordinates":[-104.846063,38.744491]},"properties":{"site_name":"Cheyenne Mountain Air Force Station","other_site_names":null,"state":"Colorado","industry":"Military","matrix_type":"Other Water","matrix":"Surface Water","year":2018,"pfoa":"2","pfos":"4","total_pfas":null,"pfas_level":4,"notes":null,"regulation_gvt_link":null,"resources_link":null,"suspected_source_link":"https://ar.afcec-cloud.af.mil/Search.aspx","pfas_testing_link":"https://drive.google.com/file/d/1uRhfCJx6fww8okXya-Vvp_N_j2QHEIzM/view?usp=sharing","site_ref_link":null,"state_ref_link":null,"ObjectId":2922}},{"type":"Feature","id":2923,"geometry":{"type":"Point","coordinates":[-104.536413,38.816238]},"properties":{"site_name":"Schriever Air Force Base","other_site_names":null,"state":"Colorado","industry":"Military","matrix_type":"Other Water","matrix":"Surface Water","year":2018,"pfoa":"110000","pfos":"760000","total_pfas":null,"pfas_level":760000,"notes":null,"regulation_gvt_link":null,"resources_link":null,"suspected_source_link":"https://ar.afcec-cloud.af.mil/Search.aspx","pfas_testing_link":"https://drive.google.com/file/d/1aTeZL8aKlLVPnPPfDxx7J9z3_qNwsMTF/view?usp=sharing","site_ref_link":null,"state_ref_link":null,"ObjectId":2923}},{"type":"Feature","id":2924,"geometry":{"type":"Point","coordinates":[-104.861318,38.998309]},"properties":{"site_name":"United States Air Force Academy","other_site_names":null,"state":"Colorado","industry":"Military","matrix_type":"Groundwater","matrix":"Groundwater","year":2019,"pfoa":"2800","pfos":"12000","total_pfas":null,"pfas_level":12000,"notes":null,"regulation_gvt_link":null,"resources_link":null,"suspected_source_link":"https://ar.afcec-cloud.af.mil/Search.aspx","pfas_testing_link":"https://drive.google.com/file/d/15v0lE1nutjZi3SsItCHdtRszJ_LXGOKc/view?usp=sharing","site_ref_link":null,"state_ref_link":null,"ObjectId":2924}},{"type":"Feature","id":3327,"geometry":{"type":"Point","coordinates":[-105.1996,39.892897]},"properties":{"site_name":"ROCKY FLATS PLANT (USDOE)","other_site_names":null,"state":"Colorado","industry":"Military","matrix_type":"Groundwater","matrix":"Groundwater","year":2024,"pfoa":"27","pfos":"120","total_pfas":147,"pfas_level":147,"notes":null,"regulation_gvt_link":"https://drive.google.com/file/d/11EYz4y17QXBLy7HyyQ6j6mzYEXFqkGsD/view?usp=drive_link","resources_link":"https://drive.google.com/file/d/11EYz4y17QXBLy7HyyQ6j6mzYEXFqkGsD/view?usp=drive_link","suspected_source_link":"https://lmpublicsearch.lm.doe.gov/lmsites/50541_annual_2024_pfas.pdf","pfas_testing_link":"April 2025 - Annual PFAS Monitoring Report Rocky Flats Site, Colorado Calendar Year 2024 .pdf","site_ref_link":"Superior, CO - Rocky Flats Site","state_ref_link":"CO","ObjectId":3327}},{"type":"Feature","id":3328,"geometry":{"type":"Point","coordinates":[-105.2017,39.89416]},"properties":{"site_name":"Rocky Flats, Colorado, Site","other_site_names":null,"state":"Colorado","industry":"Military","matrix_type":"Groundwater","matrix":"Groundwater","year":2019,"pfoa":"120","pfos":"310","total_pfas":430,"pfas_level":430,"notes":"This was a nuclear weapons factory that had an on-site fire department. The highest PFAS detections were identified at the former fire department/oil burn pit. ","regulation_gvt_link":"https://www.energy.gov/sites/default/files/2022-11/DOE%20Initial%20PFAS%20Assessment%20-508.pdf","resources_link":null,"suspected_source_link":null,"pfas_testing_link":"https://drive.google.com/drive/folders/1MdFno11wQsLnON3sTYG_YT8bLtdg9w5I","site_ref_link":"Superior, CO - Rocky Flats Site","state_ref_link":null,"ObjectId":3328}},{"type":"Feature","id":3329,"geometry":{"type":"Point","coordinates":[-104.842445,39.833398]},"properties":{"site_name":"ROCKY MOUNTAIN ARSENAL (USARMY)","other_site_names":null,"state":"Colorado","industry":"Military","matrix_type":"Groundwater","matrix":"Groundwater","year":2019,"pfoa":"170","pfos":"6100","total_pfas":6270,"pfas_level":6270,"notes":null,"regulation_gvt_link":"https://home.army.mil/carson/5616/7890/0494/FINAL-4-2020-PFC_Fa.pdf","resources_link":"https://home.army.mil/carson/5616/7890/0494/FINAL-4-2020-PFC_Fa.pdf","suspected_source_link":"https://home.army.mil/carson/5616/7890/0494/FINAL-4-2020-PFC_Fa.pdf","pfas_testing_link":"2020 - Fiscal Year 2019 Perfluorinated Compounds Data Summary Report.pdf","site_ref_link":"Adams County, CO - Rocky Mountain Arsenal (USARMY) - Superfund Site","state_ref_link":"CO","ObjectId":3329}}]}