{"type":"FeatureCollection","crs":{"type":"name","properties":{"name":"EPSG:4326"}},"features":[{"type":"Feature","id":482,"geometry":{"type":"Point","coordinates":[-94.92221,39.352783]},"properties":{"site_name":"Ft. Leavenworth","other_site_names":null,"state":"Kansas","industry":"Military","matrix_type":"Other Water","matrix":"Drinking Water","year":2017,"pfoa":null,"pfos":null,"total_pfas":null,"pfas_level":649,"notes":"AFFF used at Fort Leavenworth","regulation_gvt_link":"https://www.epa.gov/pfas/pfas-community-engagement-leavenworth-ks","resources_link":"https://www.epa.gov/pfas/pfas-community-engagement-leavenworth-ks","suspected_source_link":"https://drive.google.com/file/d/1EUMAiROzk8OxvPAWubv0xGGH9zI6mw4d/view?usp=drive_link ","pfas_testing_link":"https://www.kdheks.gov/pws/documents/PFAS_Inventory_Report.pdf","site_ref_link":"https://drive.google.com/drive/u/1/folders/1tWCdf8-BkIeQzcbz7EOmBfE0wsovHiAv","state_ref_link":"https://drive.google.com/drive/u/1/folders/1rmZE4iibfB7C5oa7QzmCzWSJ4oWUfgJv","ObjectId":482}},{"type":"Feature","id":651,"geometry":{"type":"Point","coordinates":[-96.772095,39.076566]},"properties":{"site_name":"Fort Riley","other_site_names":null,"state":"Kansas","industry":"Military","matrix_type":"Groundwater","matrix":"Groundwater","year":2018,"pfoa":null,"pfos":"30,000","total_pfas":null,"pfas_level":30000,"notes":null,"regulation_gvt_link":null,"resources_link":"https://home.army.mil/riley/index.php/about/dir-staff/dpw/env-div/pfas","suspected_source_link":null,"pfas_testing_link":"https://www.agri-pulse.com/ext/resources/pdfs/congress/STATUS-OF-NOTIFICATIONS-TO-AGRICULTURAL-OPERATIONS-PURSUANT-TO-SECTION-335-OF-THE-FISCAL-YEAR-2021-NATIONAL-DEFENSE-AUTHORIZATION-ACT-1.pdf","site_ref_link":"https://drive.google.com/drive/u/0/folders/17vc5JX3Gvo92Bih-kg-GABnBbExIJhXg","state_ref_link":"https://drive.google.com/drive/u/1/folders/1rmZE4iibfB7C5oa7QzmCzWSJ4oWUfgJv","ObjectId":651}},{"type":"Feature","id":662,"geometry":{"type":"Point","coordinates":[-95.678839,38.957844]},"properties":{"site_name":"Forbes Field Air National Guard Base","other_site_names":"Kansas Air National Guard 190th Air Refueling Wing, Topeka Regional Airport","state":"Kansas","industry":"Military","matrix_type":"Groundwater","matrix":"Groundwater","year":2018,"pfoa":"8,100","pfos":"2,930","total_pfas":48967,"pfas_level":48967,"notes":null,"regulation_gvt_link":null,"resources_link":null,"suspected_source_link":"https://ar.afcec-cloud.af.mil/Search.aspx","pfas_testing_link":"https://drive.google.com/file/d/1ZRgkyLjSkpAlPjFzfbC2fqKaw2VHUsEr/view?usp=sharing","site_ref_link":null,"state_ref_link":null,"ObjectId":662}},{"type":"Feature","id":1343,"geometry":{"type":"Point","coordinates":[-97.251425,37.631893]},"properties":{"site_name":"McConnell Air Force Base","other_site_names":null,"state":"Kansas","industry":"Military","matrix_type":"Groundwater","matrix":"Groundwater","year":2019,"pfoa":"26,000","pfos":"430,000","total_pfas":null,"pfas_level":453000,"notes":null,"regulation_gvt_link":null,"resources_link":null,"suspected_source_link":"https://ar.afcec-cloud.af.mil/Search.aspx","pfas_testing_link":"https://drive.google.com/file/d/1NpmAV2HRtDMol6iwrXcQXVcJ5RKkbVDS/view?usp=sharing","site_ref_link":null,"state_ref_link":null,"ObjectId":1343}},{"type":"Feature","id":2221,"geometry":{"type":"Point","coordinates":[-94.92221,39.352783]},"properties":{"site_name":"Ft. Leavenworth","other_site_names":null,"state":"Kansas","industry":"Military","matrix_type":"Other Water","matrix":"Drinking Water","year":2017,"pfoa":null,"pfos":null,"total_pfas":null,"pfas_level":649,"notes":"AFFF used at Fort Leavenworth","regulation_gvt_link":"https://www.epa.gov/pfas/pfas-community-engagement-leavenworth-ks","resources_link":"https://www.epa.gov/pfas/pfas-community-engagement-leavenworth-ks","suspected_source_link":"https://drive.google.com/file/d/1EUMAiROzk8OxvPAWubv0xGGH9zI6mw4d/view?usp=drive_link ","pfas_testing_link":"https://www.kdheks.gov/pws/documents/PFAS_Inventory_Report.pdf","site_ref_link":"https://drive.google.com/drive/u/1/folders/1tWCdf8-BkIeQzcbz7EOmBfE0wsovHiAv","state_ref_link":"https://drive.google.com/drive/u/1/folders/1rmZE4iibfB7C5oa7QzmCzWSJ4oWUfgJv","ObjectId":2221}},{"type":"Feature","id":2549,"geometry":{"type":"Point","coordinates":[-96.772095,39.076566]},"properties":{"site_name":"Fort Riley","other_site_names":null,"state":"Kansas","industry":"Military","matrix_type":"Groundwater","matrix":"Groundwater","year":2018,"pfoa":null,"pfos":"30000","total_pfas":null,"pfas_level":30000,"notes":null,"regulation_gvt_link":null,"resources_link":"https://home.army.mil/riley/index.php/about/dir-staff/dpw/env-div/pfas","suspected_source_link":null,"pfas_testing_link":"https://www.agri-pulse.com/ext/resources/pdfs/congress/STATUS-OF-NOTIFICATIONS-TO-AGRICULTURAL-OPERATIONS-PURSUANT-TO-SECTION-335-OF-THE-FISCAL-YEAR-2021-NATIONAL-DEFENSE-AUTHORIZATION-ACT-1.pdf","site_ref_link":"https://drive.google.com/drive/u/0/folders/17vc5JX3Gvo92Bih-kg-GABnBbExIJhXg","state_ref_link":"https://drive.google.com/drive/u/1/folders/1rmZE4iibfB7C5oa7QzmCzWSJ4oWUfgJv","ObjectId":2549}},{"type":"Feature","id":2941,"geometry":{"type":"Point","coordinates":[-95.678839,38.957844]},"properties":{"site_name":"Forbes Field Air National Guard Base","other_site_names":"Kansas Air National Guard 190th Air Refueling Wing, Topeka Regional Airport","state":"Kansas","industry":"Military","matrix_type":"Groundwater","matrix":"Groundwater","year":2018,"pfoa":"8100","pfos":"2930","total_pfas":48967,"pfas_level":48967,"notes":null,"regulation_gvt_link":null,"resources_link":null,"suspected_source_link":"https://ar.afcec-cloud.af.mil/Search.aspx","pfas_testing_link":"https://drive.google.com/file/d/1ZRgkyLjSkpAlPjFzfbC2fqKaw2VHUsEr/view?usp=sharing","site_ref_link":null,"state_ref_link":null,"ObjectId":2941}},{"type":"Feature","id":2942,"geometry":{"type":"Point","coordinates":[-97.251425,37.631893]},"properties":{"site_name":"McConnell Air Force Base","other_site_names":null,"state":"Kansas","industry":"Military","matrix_type":"Groundwater","matrix":"Groundwater","year":2019,"pfoa":"26000","pfos":"430000","total_pfas":null,"pfas_level":453000,"notes":null,"regulation_gvt_link":null,"resources_link":null,"suspected_source_link":"https://ar.afcec-cloud.af.mil/Search.aspx","pfas_testing_link":"https://drive.google.com/file/d/1NpmAV2HRtDMol6iwrXcQXVcJ5RKkbVDS/view?usp=sharing","site_ref_link":null,"state_ref_link":null,"ObjectId":2942}}]}