{"type":"FeatureCollection","crs":{"type":"name","properties":{"name":"EPSG:4326"}},"features":[{"type":"Feature","id":246,"geometry":{"type":"Point","coordinates":[-94.370874,35.339145]},"properties":{"site_name":"Fort Smith Air National Guard Base","other_site_names":"Fort Smith Municipal Airport","state":"Arkansas","industry":"Military","matrix_type":"Groundwater","matrix":"Groundwater","year":2017,"pfoa":"360,000","pfos":"52,000","total_pfas":468340,"pfas_level":468340,"notes":"AFFF used at Fort Smith Airport/Air National Guard Base","regulation_gvt_link":"N/A","resources_link":"http://afcec.publicadmin-record.us.af.mil/","suspected_source_link":null,"pfas_testing_link":"https://drive.google.com/file/d/1A3petUOxYnBgiQ8nreZhAhm0Xoi5Qpeb/view?usp=sharing","site_ref_link":"https://drive.google.com/drive/u/0/folders/1KueQZTBOu-J9HE6uG7e0E3N_ehDxrPV-","state_ref_link":"https://drive.google.com/drive/u/1/folders/1hXfvHXIs39gObS5cWGSY9vVpUxyuFtge","ObjectId":246}},{"type":"Feature","id":252,"geometry":{"type":"Point","coordinates":[-89.943266,35.9646]},"properties":{"site_name":"Eaker Air Force Base","other_site_names":"Arkansas International Airport","state":"Arkansas","industry":"Military","matrix_type":"Groundwater","matrix":"Groundwater","year":2017,"pfoa":"116,000","pfos":"164,000","total_pfas":784997,"pfas_level":784997,"notes":"AFFF used at Eaker Air Force Base","regulation_gvt_link":"N/A","resources_link":"http://afcec.publicadmin-record.us.af.mil/","suspected_source_link":null,"pfas_testing_link":"https://drive.google.com/file/d/1mlKFfPYkutGxBRAs2FkjyqMRTtQCsbbu/view?usp=sharing","site_ref_link":"https://drive.google.com/drive/u/0/folders/1zRue6ytmesnyjSbuMqdxwYIVa0m-9blI","state_ref_link":"https://drive.google.com/drive/u/1/folders/1hXfvHXIs39gObS5cWGSY9vVpUxyuFtge","ObjectId":252}},{"type":"Feature","id":260,"geometry":{"type":"Point","coordinates":[-92.118945,34.925571]},"properties":{"site_name":"Little Rock Air Force Base","other_site_names":null,"state":"Arkansas","industry":"Military","matrix_type":"Groundwater","matrix":"Groundwater","year":2017,"pfoa":"285,000","pfos":"105,000","total_pfas":1987820,"pfas_level":1987820,"notes":null,"regulation_gvt_link":null,"resources_link":null,"suspected_source_link":"https://ar.afcec-cloud.af.mil/Search.aspx","pfas_testing_link":"https://drive.google.com/file/d/1BUH7vKZbhY_x_oEJ8Ai1jxoy8r5p26Ph/view?usp=sharing","site_ref_link":null,"state_ref_link":null,"ObjectId":260}},{"type":"Feature","id":2159,"geometry":{"type":"Point","coordinates":[-89.943266,35.9646]},"properties":{"site_name":"Eaker Air Force Base","other_site_names":"Arkansas International Airport","state":"Arkansas","industry":"Military","matrix_type":"Groundwater","matrix":"Groundwater","year":2017,"pfoa":"116000","pfos":"164000","total_pfas":784997,"pfas_level":784997,"notes":"AFFF used at Eaker Air Force Base","regulation_gvt_link":"N/A","resources_link":"http://afcec.publicadmin-record.us.af.mil/","suspected_source_link":null,"pfas_testing_link":"https://drive.google.com/file/d/1mlKFfPYkutGxBRAs2FkjyqMRTtQCsbbu/view?usp=sharing","site_ref_link":"https://drive.google.com/drive/u/0/folders/1zRue6ytmesnyjSbuMqdxwYIVa0m-9blI","state_ref_link":"https://drive.google.com/drive/u/1/folders/1hXfvHXIs39gObS5cWGSY9vVpUxyuFtge","ObjectId":2159}},{"type":"Feature","id":2160,"geometry":{"type":"Point","coordinates":[-94.370874,35.339145]},"properties":{"site_name":"Fort Smith Air National Guard Base","other_site_names":"Fort Smith Municipal Airport","state":"Arkansas","industry":"Military","matrix_type":"Groundwater","matrix":"Groundwater","year":2017,"pfoa":"360000","pfos":"52000","total_pfas":468340,"pfas_level":468340,"notes":"AFFF used at Fort Smith Airport/Air National Guard Base","regulation_gvt_link":"N/A","resources_link":"http://afcec.publicadmin-record.us.af.mil/","suspected_source_link":null,"pfas_testing_link":"https://drive.google.com/file/d/1A3petUOxYnBgiQ8nreZhAhm0Xoi5Qpeb/view?usp=sharing","site_ref_link":"https://drive.google.com/drive/u/0/folders/1KueQZTBOu-J9HE6uG7e0E3N_ehDxrPV-","state_ref_link":"https://drive.google.com/drive/u/1/folders/1hXfvHXIs39gObS5cWGSY9vVpUxyuFtge","ObjectId":2160}},{"type":"Feature","id":2913,"geometry":{"type":"Point","coordinates":[-92.118945,34.925571]},"properties":{"site_name":"Little Rock Air Force Base","other_site_names":null,"state":"Arkansas","industry":"Military","matrix_type":"Groundwater","matrix":"Groundwater","year":2017,"pfoa":"285000","pfos":"105000","total_pfas":1987820,"pfas_level":1987820,"notes":null,"regulation_gvt_link":null,"resources_link":null,"suspected_source_link":"https://ar.afcec-cloud.af.mil/Search.aspx","pfas_testing_link":"https://drive.google.com/file/d/1BUH7vKZbhY_x_oEJ8Ai1jxoy8r5p26Ph/view?usp=sharing","site_ref_link":null,"state_ref_link":null,"ObjectId":2913}}]}