{"type":"FeatureCollection","crs":{"type":"name","properties":{"name":"EPSG:4326"}},"features":[{"type":"Feature","id":244,"geometry":{"type":"Point","coordinates":[-86.030331,35.382862]},"properties":{"site_name":"Arnold Air Force Base","other_site_names":null,"state":"Tennessee","industry":"Military","matrix_type":"Groundwater","matrix":"Groundwater","year":2017,"pfoa":"16,000","pfos":"159,000","total_pfas":390064,"pfas_level":390064,"notes":"AFFF used at Arnold Air Force Base","regulation_gvt_link":"N/A","resources_link":"https://www.tn.gov/environment/program-areas/opsp-policy-and-sustainable-practices/policy/pfas.html","suspected_source_link":"https://www.nashvillepublicradio.org/post/investigation-dangerous-and-persistent-chemicals-discovered-middle-tennessee-military-base#stream/0","pfas_testing_link":"https://drive.google.com/file/d/1vdJbIUzuyz1z5h-mfRQSTuVR29J82LQw/view?usp=sharing","site_ref_link":"https://drive.google.com/drive/u/0/folders/1Y1aHr_zyN8Ww099VZE3qd2PK5yJ289gq","state_ref_link":"https://drive.google.com/drive/u/0/folders/1n6HKb20OgbywensImeSw5zqDVcedoZ1C","ObjectId":244}},{"type":"Feature","id":615,"geometry":{"type":"Point","coordinates":[-84.008591,35.810136]},"properties":{"site_name":"McGhee Tyson Air National Guard Base","other_site_names":"McGhee Tyson Aiport","state":"Tennessee","industry":"Military","matrix_type":"Groundwater","matrix":"Groundwater","year":2018,"pfoa":"630","pfos":"4,300","total_pfas":7355,"pfas_level":7355,"notes":"AFFF used at McGhee Tyson Airport / Air National Guard Base","regulation_gvt_link":"N/A","resources_link":"https://www.tn.gov/environment/program-areas/opsp-policy-and-sustainable-practices/policy/pfas.html","suspected_source_link":null,"pfas_testing_link":"https://drive.google.com/file/d/18V_x_IwjThwZTVYGQ2hLTWI15Wr9xlI4/view?usp=sharing","site_ref_link":"https://drive.google.com/drive/u/0/folders/1e_zJqp8NzA1nQDoH2ISsxCNzlWcLRuH9","state_ref_link":"https://drive.google.com/drive/u/0/folders/1n6HKb20OgbywensImeSw5zqDVcedoZ1C","ObjectId":615}},{"type":"Feature","id":646,"geometry":{"type":"Point","coordinates":[-89.870706,35.336694]},"properties":{"site_name":"Naval Support Activity Mid-South","other_site_names":"Former Naval Air Station Memphis","state":"Tennessee","industry":"Military","matrix_type":"Groundwater","matrix":"Groundwater","year":2018,"pfoa":"731","pfos":"9,640","total_pfas":22509,"pfas_level":22509,"notes":"AFFF used at Former NAS Memphis / (currently) Naval Support Activity Mid-South","regulation_gvt_link":"N/A","resources_link":"https://www.tn.gov/environment/program-areas/opsp-policy-and-sustainable-practices/policy/pfas.html","suspected_source_link":"http://www.arcgis.com/home/webmap/viewer.html?webmap=9c4319a1e84d4746a962786a1c275b14&extent=-92.2744,31.4623,-80.2993,39.7713","pfas_testing_link":"https://drive.google.com/file/d/1w1LzxyPp1JZ6afPj1COX2jZySM_1Urc_/view?usp=sharing","site_ref_link":"https://drive.google.com/drive/u/0/folders/1l-Hc3yYjlNuBpkYUb80uBUQz8TE6PfQk","state_ref_link":"https://drive.google.com/drive/u/0/folders/1n6HKb20OgbywensImeSw5zqDVcedoZ1C","ObjectId":646}},{"type":"Feature","id":721,"geometry":{"type":"Point","coordinates":[-89.965754,35.022656]},"properties":{"site_name":"Memphis Air National Guard Base","other_site_names":"Memphis International Airport","state":"Tennessee","industry":"Military","matrix_type":"Groundwater","matrix":"Groundwater","year":2018,"pfoa":"14","pfos":"66","total_pfas":183,"pfas_level":183,"notes":"AFFF used at Memphis International Aiport / Air National Guard Base","regulation_gvt_link":"N/A","resources_link":"https://ar.cce.af.mil/Search","suspected_source_link":null,"pfas_testing_link":"https://drive.google.com/file/d/1Bh64ltghx8qyI0liu-5CIdP_LpkATIV-/view?usp=sharing","site_ref_link":"https://drive.google.com/drive/u/0/folders/1LfZHdlJiQB_30DUN5AxZiiqsuQuxwgRb","state_ref_link":"https://drive.google.com/drive/u/0/folders/1n6HKb20OgbywensImeSw5zqDVcedoZ1C","ObjectId":721}},{"type":"Feature","id":745,"geometry":{"type":"Point","coordinates":[-86.677371,36.126317]},"properties":{"site_name":"Nashville Air National Guard Base","other_site_names":"Nashville International Airport","state":"Tennessee","industry":"Military","matrix_type":"Groundwater","matrix":"Groundwater","year":2018,"pfoa":"13","pfos":"96","total_pfas":271,"pfas_level":271,"notes":"AFFF used at Nashville Metropolitan Airport / Air National Guard Base","regulation_gvt_link":"N/A","resources_link":"https://ar.cce.af.mil/Search","suspected_source_link":"http://www.arcgis.com/home/webmap/viewer.html?webmap=9c4319a1e84d4746a962786a1c275b14&extent=-92.2744,31.4623,-80.2993,39.7713","pfas_testing_link":"https://drive.google.com/file/d/1TFtsmIUVFCWLRXkZvFMGOuYTQZHx_Btd/view?usp=sharing","site_ref_link":"https://drive.google.com/drive/u/0/folders/15qn0A3AjPXVyZKBBVWJ2BzYMpTpPkQyu","state_ref_link":"https://drive.google.com/drive/u/0/folders/1n6HKb20OgbywensImeSw5zqDVcedoZ1C","ObjectId":745}},{"type":"Feature","id":1251,"geometry":{"type":"Point","coordinates":[-88.696111,35.867781]},"properties":{"site_name":"Milan Army Ammunition Plant","other_site_names":null,"state":"Tennessee","industry":"Military","matrix_type":"Groundwater","matrix":"Groundwater","year":2021,"pfoa":"4","pfos":"5","total_pfas":39,"pfas_level":39,"notes":null,"regulation_gvt_link":null,"resources_link":null,"suspected_source_link":"https://cumulis.epa.gov/supercpad/cursites/csitinfo.cfm?id=0404147","pfas_testing_link":"https://aec.army.mil/Portals/115/PFAS/MilanPASI.pdf?ver=yA0ReT-P0Xi6cJS_nllCRQ%3D%3D","site_ref_link":"https://drive.google.com/drive/folders/1WRItsD0Dnbd68y6uVyDQlwZNAIWpqXVK?usp=drive_link","state_ref_link":"https://drive.google.com/drive/folders/1P3zqYq_fA5dw3gkPQYA4k4FQoLI4CmiB?usp=drive_link","ObjectId":1251}},{"type":"Feature","id":1286,"geometry":{"type":"Point","coordinates":[-90.003333,35.093333]},"properties":{"site_name":"Memphis Defense Depot (DLA)","other_site_names":null,"state":"Tennessee","industry":"Military","matrix_type":"Groundwater","matrix":"Groundwater","year":2021,"pfoa":"15","pfos":"160","total_pfas":248,"pfas_level":248,"notes":null,"regulation_gvt_link":null,"resources_link":null,"suspected_source_link":"https://cumulis.epa.gov/supercpad/SiteProfiles/index.cfm?fuseaction=second.Cleanup&id=0404159#bkground","pfas_testing_link":"DDMT_PFAS_SI.pdf","site_ref_link":null,"state_ref_link":null,"ObjectId":1286}},{"type":"Feature","id":1750,"geometry":{"type":"Point","coordinates":[-84.256084,35.987183]},"properties":{"site_name":"Y-12 National Security Complex","other_site_names":null,"state":"Tennessee","industry":"Industry","matrix_type":"Other Water","matrix":"Surface Water","year":null,"pfoa":"12","pfos":"10","total_pfas":null,"pfas_level":12,"notes":null,"regulation_gvt_link":null,"resources_link":null,"suspected_source_link":"https://www.energy.gov/pfas/articles/initial-assessment-and-polyfluoroalkyl-substances-department-energy-sites","pfas_testing_link":"https://drive.google.com/file/d/18aNZwg9XyHom0dqVTUdS_Tnqg20kd5BJ/view?usp=share_link","site_ref_link":"https://drive.google.com/drive/folders/1Ne0rhavgcaQ3hf4QeZr1nzf99pxL8X9k?usp=share_link","state_ref_link":"https://drive.google.com/drive/folders/1P3zqYq_fA5dw3gkPQYA4k4FQoLI4CmiB?usp=share_link","ObjectId":1750}},{"type":"Feature","id":1772,"geometry":{"type":"Point","coordinates":[-84.310241,35.931137]},"properties":{"site_name":"Oak Ridge National Laboratory","other_site_names":null,"state":"Tennessee","industry":"Industry","matrix_type":"Other Water","matrix":"Surface Water","year":null,"pfoa":"7","pfos":"22","total_pfas":null,"pfas_level":22,"notes":null,"regulation_gvt_link":null,"resources_link":null,"suspected_source_link":"https://www.energy.gov/pfas/articles/initial-assessment-and-polyfluoroalkyl-substances-department-energy-sites","pfas_testing_link":"https://drive.google.com/file/d/18aNZwg9XyHom0dqVTUdS_Tnqg20kd5BJ/view?usp=share_link","site_ref_link":"https://drive.google.com/drive/folders/1Ne0rhavgcaQ3hf4QeZr1nzf99pxL8X9k?usp=share_link","state_ref_link":"https://drive.google.com/drive/folders/1P3zqYq_fA5dw3gkPQYA4k4FQoLI4CmiB?usp=share_link","ObjectId":1772}},{"type":"Feature","id":2002,"geometry":{"type":"Point","coordinates":[-84.386819,35.927114]},"properties":{"site_name":"East Tennessee Technology Park","other_site_names":null,"state":"Tennessee","industry":"Industry","matrix_type":"Other Water","matrix":"Surface Water","year":null,"pfoa":"30","pfos":"46","total_pfas":null,"pfas_level":46,"notes":null,"regulation_gvt_link":null,"resources_link":null,"suspected_source_link":"https://www.energy.gov/pfas/articles/initial-assessment-and-polyfluoroalkyl-substances-department-energy-sites","pfas_testing_link":"https://drive.google.com/file/d/18aNZwg9XyHom0dqVTUdS_Tnqg20kd5BJ/view?usp=share_link","site_ref_link":"https://drive.google.com/drive/folders/1Ne0rhavgcaQ3hf4QeZr1nzf99pxL8X9k?usp=share_link","state_ref_link":"https://drive.google.com/drive/folders/1P3zqYq_fA5dw3gkPQYA4k4FQoLI4CmiB?usp=share_link","ObjectId":2002}},{"type":"Feature","id":2057,"geometry":{"type":"Point","coordinates":[-86.675403,36.114131]},"properties":{"site_name":"Air National Guard - Berry Field","other_site_names":null,"state":"Tennessee","industry":"Military","matrix_type":"Groundwater","matrix":"Groundwater","year":null,"pfoa":null,"pfos":null,"total_pfas":null,"pfas_level":271,"notes":null,"regulation_gvt_link":null,"resources_link":null,"suspected_source_link":null,"pfas_testing_link":"https://www.arcgis.com/home/webmap/viewer.html?webmap=9c4319a1e84d4746a962786a1c275b14&extent=-92.2744,31.4623,-80.2993,39.7713","site_ref_link":null,"state_ref_link":null,"ObjectId":2057}},{"type":"Feature","id":2404,"geometry":{"type":"Point","coordinates":[-89.870706,35.336694]},"properties":{"site_name":"Naval Support Activity Mid-South","other_site_names":"Former Naval Air Station Memphis","state":"Tennessee","industry":"Military","matrix_type":"Groundwater","matrix":"Groundwater","year":2018,"pfoa":"731","pfos":"9640","total_pfas":22509,"pfas_level":22509,"notes":"AFFF used at Former NAS Memphis / (currently) Naval Support Activity Mid-South","regulation_gvt_link":"N/A","resources_link":"https://www.tn.gov/environment/program-areas/opsp-policy-and-sustainable-practices/policy/pfas.html","suspected_source_link":"http://www.arcgis.com/home/webmap/viewer.html?webmap=9c4319a1e84d4746a962786a1c275b14&extent=-92.2744,31.4623,-80.2993,39.7713","pfas_testing_link":"https://drive.google.com/file/d/1w1LzxyPp1JZ6afPj1COX2jZySM_1Urc_/view?usp=sharing","site_ref_link":"https://drive.google.com/drive/u/0/folders/1l-Hc3yYjlNuBpkYUb80uBUQz8TE6PfQk","state_ref_link":"https://drive.google.com/drive/u/0/folders/1n6HKb20OgbywensImeSw5zqDVcedoZ1C","ObjectId":2404}},{"type":"Feature","id":2405,"geometry":{"type":"Point","coordinates":[-89.965754,35.022656]},"properties":{"site_name":"Memphis Air National Guard Base","other_site_names":"Memphis International Airport","state":"Tennessee","industry":"Military","matrix_type":"Groundwater","matrix":"Groundwater","year":2018,"pfoa":"14","pfos":"66","total_pfas":183,"pfas_level":183,"notes":"AFFF used at Memphis International Aiport / Air National Guard Base","regulation_gvt_link":"N/A","resources_link":"https://ar.cce.af.mil/Search","suspected_source_link":null,"pfas_testing_link":"https://drive.google.com/file/d/1Bh64ltghx8qyI0liu-5CIdP_LpkATIV-/view?usp=sharing","site_ref_link":"https://drive.google.com/drive/u/0/folders/1LfZHdlJiQB_30DUN5AxZiiqsuQuxwgRb","state_ref_link":"https://drive.google.com/drive/u/0/folders/1n6HKb20OgbywensImeSw5zqDVcedoZ1C","ObjectId":2405}},{"type":"Feature","id":2406,"geometry":{"type":"Point","coordinates":[-86.030331,35.382862]},"properties":{"site_name":"Arnold Air Force Base","other_site_names":null,"state":"Tennessee","industry":"Military","matrix_type":"Groundwater","matrix":"Groundwater","year":2017,"pfoa":"16000","pfos":"159000","total_pfas":390064,"pfas_level":390064,"notes":"AFFF used at Arnold Air Force Base","regulation_gvt_link":"N/A","resources_link":"https://www.tn.gov/environment/program-areas/opsp-policy-and-sustainable-practices/policy/pfas.html","suspected_source_link":"https://www.nashvillepublicradio.org/post/investigation-dangerous-and-persistent-chemicals-discovered-middle-tennessee-military-base#stream/0","pfas_testing_link":"https://drive.google.com/file/d/1vdJbIUzuyz1z5h-mfRQSTuVR29J82LQw/view?usp=sharing","site_ref_link":"https://drive.google.com/drive/u/0/folders/1Y1aHr_zyN8Ww099VZE3qd2PK5yJ289gq","state_ref_link":"https://drive.google.com/drive/u/0/folders/1n6HKb20OgbywensImeSw5zqDVcedoZ1C","ObjectId":2406}},{"type":"Feature","id":2407,"geometry":{"type":"Point","coordinates":[-84.008591,35.810136]},"properties":{"site_name":"McGhee Tyson Air National Guard Base","other_site_names":"McGhee Tyson Aiport","state":"Tennessee","industry":"Military","matrix_type":"Groundwater","matrix":"Groundwater","year":2018,"pfoa":"630","pfos":"4300","total_pfas":7355,"pfas_level":7355,"notes":"AFFF used at McGhee Tyson Airport / Air National Guard Base","regulation_gvt_link":"N/A","resources_link":"https://www.tn.gov/environment/program-areas/opsp-policy-and-sustainable-practices/policy/pfas.html","suspected_source_link":null,"pfas_testing_link":"https://drive.google.com/file/d/18V_x_IwjThwZTVYGQ2hLTWI15Wr9xlI4/view?usp=sharing","site_ref_link":"https://drive.google.com/drive/u/0/folders/1e_zJqp8NzA1nQDoH2ISsxCNzlWcLRuH9","state_ref_link":"https://drive.google.com/drive/u/0/folders/1n6HKb20OgbywensImeSw5zqDVcedoZ1C","ObjectId":2407}},{"type":"Feature","id":2408,"geometry":{"type":"Point","coordinates":[-86.677371,36.126317]},"properties":{"site_name":"Nashville Air National Guard Base","other_site_names":"Nashville International Airport","state":"Tennessee","industry":"Military","matrix_type":"Groundwater","matrix":"Groundwater","year":2018,"pfoa":"13","pfos":"96","total_pfas":271,"pfas_level":271,"notes":"AFFF used at Nashville Metropolitan Airport / Air National Guard Base","regulation_gvt_link":"N/A","resources_link":"https://ar.cce.af.mil/Search","suspected_source_link":"http://www.arcgis.com/home/webmap/viewer.html?webmap=9c4319a1e84d4746a962786a1c275b14&extent=-92.2744,31.4623,-80.2993,39.7713","pfas_testing_link":"https://drive.google.com/file/d/1TFtsmIUVFCWLRXkZvFMGOuYTQZHx_Btd/view?usp=sharing","site_ref_link":"https://drive.google.com/drive/u/0/folders/15qn0A3AjPXVyZKBBVWJ2BzYMpTpPkQyu","state_ref_link":"https://drive.google.com/drive/u/0/folders/1n6HKb20OgbywensImeSw5zqDVcedoZ1C","ObjectId":2408}},{"type":"Feature","id":2990,"geometry":{"type":"Point","coordinates":[-86.675403,36.114131]},"properties":{"site_name":"Air National Guard - Berry Field","other_site_names":null,"state":"Tennessee","industry":"Military","matrix_type":"Groundwater","matrix":"Groundwater","year":null,"pfoa":null,"pfos":null,"total_pfas":null,"pfas_level":271,"notes":null,"regulation_gvt_link":null,"resources_link":null,"suspected_source_link":null,"pfas_testing_link":"https://www.arcgis.com/home/webmap/viewer.html?webmap=9c4319a1e84d4746a962786a1c275b14&extent=-92.2744,31.4623,-80.2993,39.7713","site_ref_link":null,"state_ref_link":null,"ObjectId":2990}},{"type":"Feature","id":3221,"geometry":{"type":"Point","coordinates":[-84.386819,35.927114]},"properties":{"site_name":"East Tennessee Technology Park","other_site_names":null,"state":"Tennessee","industry":"Industry","matrix_type":"Other Water","matrix":"Surface Water","year":null,"pfoa":"30","pfos":"46","total_pfas":null,"pfas_level":46,"notes":null,"regulation_gvt_link":null,"resources_link":null,"suspected_source_link":"https://www.energy.gov/pfas/articles/initial-assessment-and-polyfluoroalkyl-substances-department-energy-sites","pfas_testing_link":"https://drive.google.com/file/d/18aNZwg9XyHom0dqVTUdS_Tnqg20kd5BJ/view?usp=share_link","site_ref_link":"https://drive.google.com/drive/folders/1Ne0rhavgcaQ3hf4QeZr1nzf99pxL8X9k?usp=share_link","state_ref_link":"https://drive.google.com/drive/folders/1P3zqYq_fA5dw3gkPQYA4k4FQoLI4CmiB?usp=share_link","ObjectId":3221}},{"type":"Feature","id":3222,"geometry":{"type":"Point","coordinates":[-84.310241,35.931137]},"properties":{"site_name":"Oak Ridge National Laboratory","other_site_names":null,"state":"Tennessee","industry":"Industry","matrix_type":"Other Water","matrix":"Surface Water","year":null,"pfoa":"7","pfos":"22","total_pfas":null,"pfas_level":22,"notes":null,"regulation_gvt_link":null,"resources_link":null,"suspected_source_link":"https://www.energy.gov/pfas/articles/initial-assessment-and-polyfluoroalkyl-substances-department-energy-sites","pfas_testing_link":"https://drive.google.com/file/d/18aNZwg9XyHom0dqVTUdS_Tnqg20kd5BJ/view?usp=share_link","site_ref_link":"https://drive.google.com/drive/folders/1Ne0rhavgcaQ3hf4QeZr1nzf99pxL8X9k?usp=share_link","state_ref_link":"https://drive.google.com/drive/folders/1P3zqYq_fA5dw3gkPQYA4k4FQoLI4CmiB?usp=share_link","ObjectId":3222}},{"type":"Feature","id":3223,"geometry":{"type":"Point","coordinates":[-84.256084,35.987183]},"properties":{"site_name":"Y-12 National Security Complex","other_site_names":null,"state":"Tennessee","industry":"Industry","matrix_type":"Other Water","matrix":"Surface Water","year":null,"pfoa":"12","pfos":"10","total_pfas":null,"pfas_level":12,"notes":null,"regulation_gvt_link":null,"resources_link":null,"suspected_source_link":"https://www.energy.gov/pfas/articles/initial-assessment-and-polyfluoroalkyl-substances-department-energy-sites","pfas_testing_link":"https://drive.google.com/file/d/18aNZwg9XyHom0dqVTUdS_Tnqg20kd5BJ/view?usp=share_link","site_ref_link":"https://drive.google.com/drive/folders/1Ne0rhavgcaQ3hf4QeZr1nzf99pxL8X9k?usp=share_link","state_ref_link":"https://drive.google.com/drive/folders/1P3zqYq_fA5dw3gkPQYA4k4FQoLI4CmiB?usp=share_link","ObjectId":3223}},{"type":"Feature","id":4241,"geometry":{"type":"Point","coordinates":[-90.003333,35.093333]},"properties":{"site_name":"Memphis Defense Depot (DLA)","other_site_names":null,"state":"Tennessee","industry":"Military","matrix_type":"Groundwater","matrix":"Groundwater","year":2021,"pfoa":"15","pfos":"160","total_pfas":248,"pfas_level":248,"notes":null,"regulation_gvt_link":null,"resources_link":null,"suspected_source_link":"https://cumulis.epa.gov/supercpad/SiteProfiles/index.cfm?fuseaction=second.Cleanup&id=0404159#bkground","pfas_testing_link":"DDMT_PFAS_SI.pdf","site_ref_link":null,"state_ref_link":null,"ObjectId":4241}},{"type":"Feature","id":4242,"geometry":{"type":"Point","coordinates":[-88.696111,35.867781]},"properties":{"site_name":"Milan Army Ammunition Plant","other_site_names":null,"state":"Tennessee","industry":"Military","matrix_type":"Groundwater","matrix":"Groundwater","year":2021,"pfoa":"4","pfos":"5","total_pfas":39,"pfas_level":39,"notes":null,"regulation_gvt_link":null,"resources_link":null,"suspected_source_link":"https://cumulis.epa.gov/supercpad/cursites/csitinfo.cfm?id=0404147","pfas_testing_link":"https://aec.army.mil/Portals/115/PFAS/MilanPASI.pdf?ver=yA0ReT-P0Xi6cJS_nllCRQ%3D%3D","site_ref_link":"https://drive.google.com/drive/folders/1WRItsD0Dnbd68y6uVyDQlwZNAIWpqXVK?usp=drive_link","state_ref_link":"https://drive.google.com/drive/folders/1P3zqYq_fA5dw3gkPQYA4k4FQoLI4CmiB?usp=drive_link","ObjectId":4242}}]}