{"type":"FeatureCollection","crs":{"type":"name","properties":{"name":"EPSG:4326"}},"features":[{"type":"Feature","id":19,"geometry":{"type":"Point","coordinates":[-75.136003,40.315958]},"properties":{"site_name":"Chem-Fab","other_site_names":null,"state":"Pennsylvania","industry":"Industry","matrix_type":"Groundwater","matrix":"Groundwater","year":2014,"pfoa":"211","pfos":"1,900","total_pfas":2111,"pfas_level":2111,"notes":null,"regulation_gvt_link":"https://semspub.epa.gov/work/03/2362165.pdf","resources_link":"https://cumulis.epa.gov/supercpad/SiteProfiles/index.cfm?fuseaction=second.Cleanup&id=0300563#bkground","suspected_source_link":"https://cumulis.epa.gov/supercpad/SiteProfiles/index.cfm?fuseaction=second.Cleanup&id=0300563#bkground","pfas_testing_link":"https://semspub.epa.gov/work/03/2362165.pdf","site_ref_link":"https://drive.google.com/drive/u/0/folders/1rJHX2ukxJSx1zlRVunL1ainE5W06i2CT","state_ref_link":"https://drive.google.com/drive/u/0/folders/182wX2ttDhQNED-y2bJwBxsl6AL-2dQrv","ObjectId":19}},{"type":"Feature","id":25,"geometry":{"type":"Point","coordinates":[-75.4194,40.1241]},"properties":{"site_name":"Commodore Semiconductor Group","other_site_names":null,"state":"Pennsylvania","industry":"Industry","matrix_type":"Groundwater","matrix":"Groundwater","year":2015,"pfoa":"14","pfos":"26","total_pfas":40,"pfas_level":40,"notes":null,"regulation_gvt_link":"https://semspub.epa.gov/work/03/2302583.pdf","resources_link":"https://cumulis.epa.gov/supercpad/SiteProfiles/index.cfm?fuseaction=second.Cleanup&id=0301146#bkground","suspected_source_link":"https://cumulis.epa.gov/supercpad/SiteProfiles/index.cfm?fuseaction=second.Cleanup&id=0301146#bkground","pfas_testing_link":"https://semspub.epa.gov/work/03/2302583.pdf","site_ref_link":"https://drive.google.com/drive/u/0/folders/12aL-3BT8AoL56iARwdTIfO_Mbr36qHsb","state_ref_link":"https://drive.google.com/drive/u/0/folders/182wX2ttDhQNED-y2bJwBxsl6AL-2dQrv","ObjectId":25}},{"type":"Feature","id":79,"geometry":{"type":"Point","coordinates":[-76.74682,40.1922]},"properties":{"site_name":"Middletown Air Field","other_site_names":null,"state":"Pennsylvania","industry":"Military","matrix_type":"Groundwater","matrix":"Groundwater","year":2016,"pfoa":"190","pfos":"2,836","total_pfas":null,"pfas_level":2836,"notes":"Quarterly summaries of PFOA and PFOS detections in well #9","regulation_gvt_link":null,"resources_link":"https://cumulis.epa.gov/supercpad/cursites/csitinfo.cfm?id=0301295","suspected_source_link":"https://www.epw.senate.gov/public/index.cfm/superfund-sites-identified-by-epa-to-have-pfas-contamination","pfas_testing_link":"https://semspub.epa.gov/work/03/2345177.pdf","site_ref_link":null,"state_ref_link":null,"ObjectId":79}},{"type":"Feature","id":206,"geometry":{"type":"Point","coordinates":[-76.746828,40.192206]},"properties":{"site_name":"Harrisburg Air National Guard Base","other_site_names":"Harrisburg International Airport","state":"Pennsylvania","industry":"Military","matrix_type":"Groundwater","matrix":"Groundwater","year":2017,"pfoa":"685","pfos":"1,530","total_pfas":6591,"pfas_level":6591,"notes":"AFFF used at Harrisburg ANGB at Harrisburg International Airport (193rd)","regulation_gvt_link":"N/A","resources_link":"https://www.dep.pa.gov/Citizens/My-Water/drinking_water/PFAS/Pages/default.aspx","suspected_source_link":"https://ar.afcec-cloud.af.mil/Search.aspx","pfas_testing_link":"https://drive.google.com/file/d/1r7cfEC9mg01K3wW_TIO03EUv-XkZ5N41/view?usp=sharing","site_ref_link":"https://drive.google.com/drive/u/0/folders/1WU5I4InkvAcJAaebkw7xaicfcuVIR1oY","state_ref_link":"https://drive.google.com/drive/u/0/folders/1DZVTtHrtffhNzVd3s8hAy8pcQfLzMzIV","ObjectId":206}},{"type":"Feature","id":305,"geometry":{"type":"Point","coordinates":[-77.03863,41.24389]},"properties":{"site_name":"AVCO Lycoming (Williamsport Division)","other_site_names":null,"state":"Pennsylvania","industry":"Industry","matrix_type":"Groundwater","matrix":"Groundwater","year":2018,"pfoa":null,"pfos":null,"total_pfas":null,"pfas_level":35,"notes":"Identified by the Environmental Protection Agency (EPA) as having PFAS contamination. Provided to the Senate Committee on Environment and Public Works.","regulation_gvt_link":null,"resources_link":"https://cumulis.epa.gov/supercpad/cursites/csitinfo.cfm?id=0300699","suspected_source_link":"https://www.epw.senate.gov/public/index.cfm/superfund-sites-identified-by-epa-to-have-pfas-contamination","pfas_testing_link":"https://semspub.epa.gov/work/03/2335648.pdf","site_ref_link":null,"state_ref_link":null,"ObjectId":305}},{"type":"Feature","id":468,"geometry":{"type":"Point","coordinates":[-75.24412,40.2734]},"properties":{"site_name":"North Penn - Area 5","other_site_names":null,"state":"Pennsylvania","industry":"Industry","matrix_type":"Groundwater","matrix":"Groundwater","year":2017,"pfoa":"31","pfos":"100","total_pfas":287,"pfas_level":287,"notes":"Former BAE Systems site","regulation_gvt_link":null,"resources_link":"https://cumulis.epa.gov/supercpad/cursites/csitinfo.cfm?id=0301452","suspected_source_link":"https://www.epw.senate.gov/public/index.cfm/superfund-sites-identified-by-epa-to-have-pfas-contamination","pfas_testing_link":"https://semspub.epa.gov/work/03/2345150.pdf","site_ref_link":null,"state_ref_link":null,"ObjectId":468}},{"type":"Feature","id":514,"geometry":{"type":"Point","coordinates":[-75.49335,40.53102]},"properties":{"site_name":"Rodale Manufacturing Co., Inc.","other_site_names":null,"state":"Pennsylvania","industry":"Industry","matrix_type":"Groundwater","matrix":"Groundwater","year":2018,"pfoa":"4","pfos":"4","total_pfas":null,"pfas_level":6,"notes":"Identified by the Environmental Protection Agency (EPA) as having PFAS contamination. Provided to the Senate Committee on Environment and Public Works.","regulation_gvt_link":null,"resources_link":"https://cumulis.epa.gov/supercpad/cursites/csitinfo.cfm?id=0301744","suspected_source_link":"https://www.epw.senate.gov/public/index.cfm/superfund-sites-identified-by-epa-to-have-pfas-contamination","pfas_testing_link":"https://semspub.epa.gov/work/03/2355169.pdf","site_ref_link":null,"state_ref_link":null,"ObjectId":514}},{"type":"Feature","id":612,"geometry":{"type":"Point","coordinates":[-80.219698,40.478094]},"properties":{"site_name":"Pittsburgh Air National Guard","other_site_names":null,"state":"Pennsylvania","industry":"Military","matrix_type":"Groundwater","matrix":"Groundwater","year":2018,"pfoa":"889","pfos":"5,900","total_pfas":7265,"pfas_level":7265,"notes":null,"regulation_gvt_link":null,"resources_link":null,"suspected_source_link":"https://ar.afcec-cloud.af.mil/Search.aspx","pfas_testing_link":"https://drive.google.com/file/d/180-Opkrrsh4563DYKy_0d_x5CThTtuj4/view?usp=sharing","site_ref_link":null,"state_ref_link":null,"ObjectId":612}},{"type":"Feature","id":697,"geometry":{"type":"Point","coordinates":[-75.140238,40.205813]},"properties":{"site_name":"Horsham Air Guard Station","other_site_names":"Former Willow Grove Naval Air Station Joint Reserve Base, Willow Grove Naval Air and Air Reserve Station","state":"Pennsylvania","industry":"Military","matrix_type":"Groundwater","matrix":"Groundwater","year":2018,"pfoa":"9,700","pfos":"320,000","total_pfas":388768,"pfas_level":388768,"notes":"AFFF used at former Naval Air Warfare Center in Warminster and former Naval Air Station Joint Reserve Base in Horsham, along with the active Horsham Air Guard Station and Willow Grove Naval Air Station Joint Reserve Base (NASJRB)","regulation_gvt_link":"https://cumulis.epa.gov/supercpad/SiteProfiles/index.cfm?fuseaction=second.Stayup&id=0303820","resources_link":"https://cumulis.epa.gov/supercpad/SiteProfiles/index.cfm?fuseaction=second.cleanup&id=0303820","suspected_source_link":"http://www.nbcphiladelphia.com/news/local/Erin-Brockovich-Law-Firm-Investigating-Contaminated-Water-Military-Horsham-Willow-Grove-NAS-PFOA-PFOS-382104591.html","pfas_testing_link":"https://drive.google.com/file/d/10UaKTrMTkXSYcla7wXYtsla30yx19gub/view?usp=sharing","site_ref_link":"https://drive.google.com/drive/u/0/folders/1kiF0RZEcwdrPIWG69oNdWucoYrfjcnVk","state_ref_link":"https://drive.google.com/drive/u/0/folders/1dFI-Vs3ngMevdb5n_tx0v8xvcXI5bdxa","ObjectId":697}},{"type":"Feature","id":1002,"geometry":{"type":"Point","coordinates":[-76.991263,40.227783]},"properties":{"site_name":"Navy Ships Parts Control Center","other_site_names":null,"state":"Pennsylvania","industry":"Military","matrix_type":"Drinking water","matrix":"Drinking Water","year":2022,"pfoa":"52","pfos":"84","total_pfas":310,"pfas_level":310,"notes":"Identified by the Environmental Protection Agency (EPA) as having PFAS contamination. Provided to the Senate Committee on Environment and Public Works.","regulation_gvt_link":null,"resources_link":"https://cumulis.epa.gov/supercpad/cursites/copinfo.cfm?id=0302460","suspected_source_link":"https://www.epw.senate.gov/public/index.cfm/superfund-sites-identified-by-epa-to-have-pfas-contamination","pfas_testing_link":"https://semspub.epa.gov/work/03/2389205.pdf","site_ref_link":null,"state_ref_link":null,"ObjectId":1002}},{"type":"Feature","id":1056,"geometry":{"type":"Point","coordinates":[-75.267778,39.885556]},"properties":{"site_name":"Lower Darby Creek Area","other_site_names":null,"state":"Pennsylvania","industry":"Waste","matrix_type":"Other Water","matrix":"Surface Water","year":2023,"pfoa":"11","pfos":"8","total_pfas":60,"pfas_level":60,"notes":null,"regulation_gvt_link":null,"resources_link":"https://cumulis.epa.gov/supercpad/cursites/csitinfo.cfm?id=0305521","suspected_source_link":null,"pfas_testing_link":"https://drive.google.com/file/d/189dL2ShSzPU2wm2BsIBMe5iL3OTDCg3t/view?usp=drive_link","site_ref_link":null,"state_ref_link":null,"ObjectId":1056}},{"type":"Feature","id":1072,"geometry":{"type":"Point","coordinates":[-75.908333,39.995833]},"properties":{"site_name":"Old Wilmington Road GW Contamination","other_site_names":null,"state":"Pennsylvania","industry":"Waste","matrix_type":"Groundwater","matrix":"Groundwater","year":2023,"pfoa":"66","pfos":"65","total_pfas":283,"pfas_level":283,"notes":null,"regulation_gvt_link":"https://semspub.epa.gov/work/03/2370668.pdf","resources_link":"https://cumulis.epa.gov/supercpad/SiteProfiles/index.cfm?fuseaction=second.Stayup&id=0302420#Stayup","suspected_source_link":"https://cumulis.epa.gov/supercpad/SiteProfiles/index.cfm?fuseaction=second.Stayup&id=0302420#Stayup","pfas_testing_link":"https://semspub.epa.gov/work/03/2370668.pdf","site_ref_link":"https://drive.google.com/drive/u/0/folders/1aoVqMZ97gLc5tZfU99A8mqIEFVxjXTTm","state_ref_link":"https://drive.google.com/drive/u/0/folders/182wX2ttDhQNED-y2bJwBxsl6AL-2dQrv","ObjectId":1072}},{"type":"Feature","id":1124,"geometry":{"type":"Point","coordinates":[-75.0988,40.17981]},"properties":{"site_name":"Raymark","other_site_names":null,"state":"Pennsylvania","industry":"Industry","matrix_type":"Groundwater","matrix":"Groundwater","year":2019,"pfoa":"17","pfos":"43","total_pfas":142,"pfas_level":142,"notes":"Identified by the Environmental Protection Agency (EPA) as having PFAS contamination. Provided to the Senate Committee on Environment and Public Works.","regulation_gvt_link":null,"resources_link":"https://cumulis.epa.gov/supercpad/SiteProfiles/index.cfm?fuseaction=second.docdata&id=0300894","suspected_source_link":"https://www.epw.senate.gov/public/index.cfm/superfund-sites-identified-by-epa-to-have-pfas-contamination","pfas_testing_link":"https://semspub.epa.gov/work/03/2429614.pdf","site_ref_link":null,"state_ref_link":null,"ObjectId":1124}},{"type":"Feature","id":1250,"geometry":{"type":"Point","coordinates":[-75.0925,40.183889]},"properties":{"site_name":"Fischer & Porter Co.","other_site_names":null,"state":"Pennsylvania","industry":"Industry","matrix_type":"Groundwater","matrix":"Groundwater","year":2021,"pfoa":"18","pfos":"20","total_pfas":38,"pfas_level":38,"notes":null,"regulation_gvt_link":"https://semspub.epa.gov/work/03/2389222.pdf","resources_link":"https://cumulis.epa.gov/supercpad/SiteProfiles/index.cfm?fuseaction=second.Stayup&id=0300585#Stayup","suspected_source_link":"https://cumulis.epa.gov/supercpad/SiteProfiles/index.cfm?fuseaction=second.Stayup&id=0300585#Stayup","pfas_testing_link":"https://semspub.epa.gov/work/03/2389222.pdf","site_ref_link":"https://drive.google.com/drive/u/0/folders/18_bbnlKignSFaY-c1bV5V5ohRyh3Kwso","state_ref_link":"https://drive.google.com/drive/u/0/folders/182wX2ttDhQNED-y2bJwBxsl6AL-2dQrv","ObjectId":1250}},{"type":"Feature","id":1294,"geometry":{"type":"Point","coordinates":[-75.125,40.545831]},"properties":{"site_name":"Boarhead Farms","other_site_names":null,"state":"Pennsylvania","industry":"Industry","matrix_type":"Groundwater","matrix":"Groundwater","year":2021,"pfoa":"170","pfos":"220","total_pfas":566,"pfas_level":566,"notes":null,"regulation_gvt_link":"https://semspub.epa.gov/work/03/2336698.pdf","resources_link":"https://cumulis.epa.gov/supercpad/cursites/csitinfo.cfm?id=0300963","suspected_source_link":"https://cumulis.epa.gov/supercpad/cursites/csitinfo.cfm?id=0300963","pfas_testing_link":"https://semspub.epa.gov/work/03/2336698.pdf","site_ref_link":"https://drive.google.com/drive/u/0/folders/11k9kDjX6qbnktRwJn2OVONu9tQBO-n6W","state_ref_link":"https://drive.google.com/drive/u/0/folders/182wX2ttDhQNED-y2bJwBxsl6AL-2dQrv","ObjectId":1294}},{"type":"Feature","id":1355,"geometry":{"type":"Point","coordinates":[-77.176862,40.209731]},"properties":{"site_name":"Carlisle Barracks","other_site_names":null,"state":"Pennsylvania","industry":"Military","matrix_type":"Other Water","matrix":"Drinking Water","year":2020,"pfoa":null,"pfos":null,"total_pfas":null,"pfas_level":2,"notes":null,"regulation_gvt_link":null,"resources_link":null,"suspected_source_link":"https://aec.army.mil/index.php/PFAS/PA/CABK","pfas_testing_link":"https://cdn3.ewg.org/sites/default/files/u352/EWG_PFASTable-Army_C01.pdf","site_ref_link":"https://drive.google.com/drive/u/0/folders/17vc5JX3Gvo92Bih-kg-GABnBbExIJhXg","state_ref_link":"https://drive.google.com/drive/u/0/folders/1inU8GiL3ea7OLsY9jO09ktEQo87u139r","ObjectId":1355}},{"type":"Feature","id":1559,"geometry":{"type":"Point","coordinates":[-76.01622,40.96775]},"properties":{"site_name":"Valmont TCE Site (Former - Valmont Industrial Park)","other_site_names":null,"state":"Pennsylvania","industry":"Industry","matrix_type":"Groundwater","matrix":"Groundwater","year":2020,"pfoa":"1,390","pfos":"969","total_pfas":null,"pfas_level":2359,"notes":"Identified by the Environmental Protection Agency (EPA) as having PFAS contamination. Provided to the Senate Committee on Environment and Public Works.","regulation_gvt_link":null,"resources_link":"https://cumulis.epa.gov/supercpad/cursites/csitinfo.cfm?id=0303307","suspected_source_link":"https://www.epw.senate.gov/public/index.cfm/superfund-sites-identified-by-epa-to-have-pfas-contamination","pfas_testing_link":"https://semspub.epa.gov/work/03/2317238.pdf","site_ref_link":"https://drive.google.com/drive/folders/1vlePNYXUA11j6nYu0ekxnkGQr1NK1Knb?usp=drive_link","state_ref_link":"https://drive.google.com/drive/folders/182wX2ttDhQNED-y2bJwBxsl6AL-2dQrv?usp=drive_link","ObjectId":1559}},{"type":"Feature","id":1817,"geometry":{"type":"Point","coordinates":[-75.42951,41.18601]},"properties":{"site_name":"Tobyhanna Army Depot","other_site_names":null,"state":"Pennsylvania","industry":"Military","matrix_type":"Groundwater","matrix":"Groundwater","year":2021,"pfoa":"630","pfos":"1,300","total_pfas":2810,"pfas_level":2810,"notes":"Identified by the Environmental Protection Agency (EPA) as having PFAS contamination. Provided to the Senate Committee on Environment and Public Works.","regulation_gvt_link":null,"resources_link":"https://cumulis.epa.gov/supercpad/SiteProfiles/index.cfm?fuseaction=second.docdata&id=0302464","suspected_source_link":"https://www.epw.senate.gov/public/index.cfm/superfund-sites-identified-by-epa-to-have-pfas-contamination","pfas_testing_link":"https://aec.army.mil/Portals/115/PFAS/Tobyhanna_AD_PFAS_PA_SI.pdf?ver=bAzpFDa4QBuwJCbfpd00VA%3d%3d","site_ref_link":"https://drive.google.com/drive/folders/1Adp-wXxc6903DN9MmUU51fYPqpkTReZe?usp=drive_link","state_ref_link":"https://drive.google.com/drive/folders/182wX2ttDhQNED-y2bJwBxsl6AL-2dQrv?usp=drive_link","ObjectId":1817}},{"type":"Feature","id":1892,"geometry":{"type":"Point","coordinates":[-76.991684,40.228582]},"properties":{"site_name":"Mechanicsburg NAVICP (Naval Inventory Control Point)","other_site_names":"Naval Support Activity Mechanicsburg","state":"Pennsylvania","industry":"Military","matrix_type":"Other Water","matrix":"Drinking Water","year":2022,"pfoa":"52.2","pfos":"83.8","total_pfas":null,"pfas_level":136,"notes":null,"regulation_gvt_link":null,"resources_link":"https://www.navfac.navy.mil/Business-Lines/Environmental/Products-and-Services/Environmental-Restoration/MID-ATLANTIC/","suspected_source_link":"https://www.ewg.org/news-insights/news-release/2022/05/high-levels-forever-chemicals-detected-dept-defense-community","pfas_testing_link":"https://drive.google.com/drive/u/1/folders/1Y7xHDcKlFLAuCgI9C_W3SFI7ZYwK7NdM","site_ref_link":"https://drive.google.com/drive/u/1/folders/1Y7xHDcKlFLAuCgI9C_W3SFI7ZYwK7NdM","state_ref_link":"https://drive.google.com/drive/folders/182wX2ttDhQNED-y2bJwBxsl6AL-2dQrv?usp=sharing","ObjectId":1892}},{"type":"Feature","id":1920,"geometry":{"type":"Point","coordinates":[-75.33156,40.46048]},"properties":{"site_name":"Watson Johnson Landfill","other_site_names":null,"state":"Pennsylvania","industry":"Landfill","matrix_type":"Groundwater","matrix":"Groundwater","year":2019,"pfoa":"290","pfos":"370","total_pfas":null,"pfas_level":660,"notes":"Identified by the Environmental Protection Agency (EPA) as having PFAS contamination. Provided to the Senate Committee on Environment and Public Works.","regulation_gvt_link":null,"resources_link":"https://cumulis.epa.gov/supercpad/cursites/csitinfo.cfm?id=0301517","suspected_source_link":"https://www.epw.senate.gov/public/index.cfm/superfund-sites-identified-by-epa-to-have-pfas-contamination","pfas_testing_link":"https://semspub.epa.gov/work/03/2329154.pdf","site_ref_link":"https://drive.google.com/drive/folders/1AA--qJZHW-YP6gox9-3Yq485cKhhZahl?usp=drive_link","state_ref_link":"https://drive.google.com/drive/folders/182wX2ttDhQNED-y2bJwBxsl6AL-2dQrv?usp=drive_link","ObjectId":1920}},{"type":"Feature","id":1923,"geometry":{"type":"Point","coordinates":[-75.2816,40.25063]},"properties":{"site_name":"North Penn - Area 2","other_site_names":null,"state":"Pennsylvania","industry":"Industry","matrix_type":"Groundwater","matrix":"Groundwater","year":2019,"pfoa":"690","pfos":"32","total_pfas":722,"pfas_level":722,"notes":"Identified by the Environmental Protection Agency (EPA) as having PFAS contamination. Provided to the Senate Committee on Environment and Public Works.","regulation_gvt_link":null,"resources_link":"https://cumulis.epa.gov/supercpad/SiteProfiles/index.cfm?fuseaction=second.docdata&id=0300579","suspected_source_link":"https://www.epw.senate.gov/public/index.cfm/superfund-sites-identified-by-epa-to-have-pfas-contamination","pfas_testing_link":"https://semspub.epa.gov/work/03/2329113.pdf","site_ref_link":null,"state_ref_link":null,"ObjectId":1923}},{"type":"Feature","id":2000,"geometry":{"type":"Point","coordinates":[-75.066281,40.216872]},"properties":{"site_name":"Naval Air Warfare Center\nWarminster","other_site_names":"Naval Air Development Center (8 Waste Areas)","state":"Pennsylvania","industry":"Military","matrix_type":"Groundwater","matrix":"Groundwater","year":2019,"pfoa":"607","pfos":"2,448","total_pfas":null,"pfas_level":3055,"notes":"AFFF used at former Naval Air Warfare Center in Warminster and former Naval Air Station Joint Reserve Base in Horsham, along with the active Horsham Air Guard Station and Willow Grove Naval Air Station Joint Reserve Base (NASJRB)","regulation_gvt_link":"https://cumulis.epa.gov/supercpad/SiteProfiles/index.cfm?fuseaction=second.Stayup&id=0302466#Stayup","resources_link":"https://www.dep.pa.gov/Citizens/My-Water/drinking_water/PFAS/Pages/default.aspx","suspected_source_link":"http://www.nbcphiladelphia.com/news/local/Erin-Brockovich-Law-Firm-Investigating-Contaminated-Water-Military-Horsham-Willow-Grove-NAS-PFOA-PFOS-382104591.html","pfas_testing_link":"https://www.bracpmo.navy.mil/content/dam/bracpmo/northeast/former_naval_air_warfare_center_warminster/pdfs/environmental/NAWC_20180501_map_WellSampleLocations_.pdf","site_ref_link":"https://drive.google.com/drive/u/0/folders/15j5tFoVI3qyMTSBn42tANDTm2acyX0Ev","state_ref_link":"https://drive.google.com/drive/u/0/folders/1dFI-Vs3ngMevdb5n_tx0v8xvcXI5bdxa","ObjectId":2000}},{"type":"Feature","id":2065,"geometry":{"type":"Point","coordinates":[-77.734499,40.875551]},"properties":{"site_name":"North Penn U.S. Army Reserve Center","other_site_names":null,"state":"Pennsylvania","industry":"Military","matrix_type":"Groundwater","matrix":"Groundwater","year":null,"pfoa":null,"pfos":"390","total_pfas":null,"pfas_level":390,"notes":"AFFF used at North Penn U.S. Army Reserve Center","regulation_gvt_link":"N/A","resources_link":"https://www.dep.pa.gov/Citizens/My-Water/drinking_water/PFAS/Pages/default.aspx","suspected_source_link":"https://drive.google.com/file/d/1EUMAiROzk8OxvPAWubv0xGGH9zI6mw4d/view?usp=drive_link ","pfas_testing_link":"https://www.agri-pulse.com/ext/resources/pdfs/congress/STATUS-OF-NOTIFICATIONS-TO-AGRICULTURAL-OPERATIONS-PURSUANT-TO-SECTION-335-OF-THE-FISCAL-YEAR-2021-NATIONAL-DEFENSE-AUTHORIZATION-ACT-1.pdf","site_ref_link":"https://drive.google.com/drive/u/0/folders/1lSlYyvt1tZpT5ZU9Gz7gUDDh_3BXiTZ3","state_ref_link":"https://drive.google.com/drive/u/0/folders/1DZVTtHrtffhNzVd3s8hAy8pcQfLzMzIV","ObjectId":2065}},{"type":"Feature","id":2090,"geometry":{"type":"Point","coordinates":[-77.631897,39.996513]},"properties":{"site_name":"Letterkenny Army Depot","other_site_names":"Letterkenny Army Depot (PDO Area)","state":"Pennsylvania","industry":"Military","matrix_type":"Groundwater","matrix":"Groundwater","year":null,"pfoa":null,"pfos":null,"total_pfas":null,"pfas_level":2069,"notes":"AFFF used/stored at Letterkenny Army Depot","regulation_gvt_link":"N/A","resources_link":"https://www.dep.pa.gov/Citizens/My-Water/drinking_water/PFAS/Pages/default.aspx","suspected_source_link":"https://drive.google.com/file/d/1EUMAiROzk8OxvPAWubv0xGGH9zI6mw4d/view?usp=drive_link ","pfas_testing_link":"N/A","site_ref_link":"https://drive.google.com/drive/u/0/folders/198jhC0SI4HHcwEXKK_pfMc19fjomha9L","state_ref_link":"https://drive.google.com/drive/u/0/folders/1DZVTtHrtffhNzVd3s8hAy8pcQfLzMzIV","ObjectId":2090}},{"type":"Feature","id":2109,"geometry":{"type":"Point","coordinates":[-75.318607,40.383675]},"properties":{"site_name":"Bergey's Tires","other_site_names":null,"state":"Pennsylvania","industry":"Unknown","matrix_type":"Other Water","matrix":"Drinking Water","year":null,"pfoa":null,"pfos":null,"total_pfas":null,"pfas_level":16360,"notes":"AFFF used to put out a 1986 tire fire at Bergey's Tire and Auto. The AFFF foam was used by a team of firefighters from the former Naval Air Station Joint Reserve Base Willow Grove and Naval Air Warfare Center Warminster","regulation_gvt_link":"https://www.dep.pa.gov/Citizens/My-Water/drinking_water/PFAS/Pages/Ridge-Run-PFC-Site.aspx","resources_link":"https://www.dep.pa.gov/Citizens/My-Water/drinking_water/PFAS/Pages/default.aspx","suspected_source_link":"http://www.theintell.com/news/20180708/dep-eyes-1986-fire-as-potential-cause-of-rockhill-water-contamination\n\n1986 article: https://www.mcall.com/news/mc-xpm-1986-11-30-2548634-story.html","pfas_testing_link":"http://files.dep.state.pa.us/Water/DrinkingWater/Perfluorinated%20Chemicals/2019-11-5%20-%20Residential%20Wells%20-%20Aerial.pdf","site_ref_link":"https://drive.google.com/drive/u/0/folders/1aWA9ToG8BKymivxUjSnEae06-6RJeAC7","state_ref_link":"https://drive.google.com/drive/u/0/folders/1DZVTtHrtffhNzVd3s8hAy8pcQfLzMzIV","ObjectId":2109}},{"type":"Feature","id":2122,"geometry":{"type":"Point","coordinates":[-75.596347,39.959113]},"properties":{"site_name":"National Foam Manufacturing Facility","other_site_names":null,"state":"Pennsylvania","industry":"Industry","matrix_type":"Groundwater","matrix":"Groundwater","year":null,"pfoa":"24,400","pfos":"31,500","total_pfas":141700,"pfas_level":141700,"notes":"Source of contamination was the manufacturing of AFFF","regulation_gvt_link":null,"resources_link":null,"suspected_source_link":"https://d1ung6i9j8i9xc.cloudfront.net/wp-content/blogs.dir/123/files/2020/10/Solvay-lawsuit-Oct-2020.pdf","pfas_testing_link":"https://d1ung6i9j8i9xc.cloudfront.net/wp-content/blogs.dir/123/files/2020/10/Solvay-lawsuit-Oct-2020.pdf","site_ref_link":null,"state_ref_link":"https://drive.google.com/drive/u/0/folders/1DZVTtHrtffhNzVd3s8hAy8pcQfLzMzIV","ObjectId":2122}},{"type":"Feature","id":2390,"geometry":{"type":"Point","coordinates":[-75.140238,40.205813]},"properties":{"site_name":"Horsham Air Guard Station","other_site_names":"Former Willow Grove Naval Air Station Joint Reserve Base, Willow Grove Naval Air and Air Reserve Station","state":"Pennsylvania","industry":"Military","matrix_type":"Groundwater","matrix":"Groundwater","year":2018,"pfoa":"9700","pfos":"320000","total_pfas":388768,"pfas_level":388768,"notes":"AFFF used at former Naval Air Warfare Center in Warminster and former Naval Air Station Joint Reserve Base in Horsham, along with the active Horsham Air Guard Station and Willow Grove Naval Air Station Joint Reserve Base (NASJRB)","regulation_gvt_link":"https://cumulis.epa.gov/supercpad/SiteProfiles/index.cfm?fuseaction=second.Stayup&id=0303820","resources_link":"https://cumulis.epa.gov/supercpad/SiteProfiles/index.cfm?fuseaction=second.cleanup&id=0303820","suspected_source_link":"http://www.nbcphiladelphia.com/news/local/Erin-Brockovich-Law-Firm-Investigating-Contaminated-Water-Military-Horsham-Willow-Grove-NAS-PFOA-PFOS-382104591.html","pfas_testing_link":"https://drive.google.com/file/d/10UaKTrMTkXSYcla7wXYtsla30yx19gub/view?usp=sharing","site_ref_link":"https://drive.google.com/drive/u/0/folders/1kiF0RZEcwdrPIWG69oNdWucoYrfjcnVk","state_ref_link":"https://drive.google.com/drive/u/0/folders/1dFI-Vs3ngMevdb5n_tx0v8xvcXI5bdxa","ObjectId":2390}},{"type":"Feature","id":2391,"geometry":{"type":"Point","coordinates":[-75.066281,40.216872]},"properties":{"site_name":"Naval Air Warfare Center\nWarminster","other_site_names":"Naval Air Development Center (8 Waste Areas)","state":"Pennsylvania","industry":"Military","matrix_type":"Groundwater","matrix":"Groundwater","year":2019,"pfoa":"607","pfos":"2448","total_pfas":null,"pfas_level":3055,"notes":"AFFF used at former Naval Air Warfare Center in Warminster and former Naval Air Station Joint Reserve Base in Horsham, along with the active Horsham Air Guard Station and Willow Grove Naval Air Station Joint Reserve Base (NASJRB)","regulation_gvt_link":"https://cumulis.epa.gov/supercpad/SiteProfiles/index.cfm?fuseaction=second.Stayup&id=0302466#Stayup","resources_link":"https://www.dep.pa.gov/Citizens/My-Water/drinking_water/PFAS/Pages/default.aspx","suspected_source_link":"http://www.nbcphiladelphia.com/news/local/Erin-Brockovich-Law-Firm-Investigating-Contaminated-Water-Military-Horsham-Willow-Grove-NAS-PFOA-PFOS-382104591.html","pfas_testing_link":"https://www.bracpmo.navy.mil/content/dam/bracpmo/northeast/former_naval_air_warfare_center_warminster/pdfs/environmental/NAWC_20180501_map_WellSampleLocations_.pdf","site_ref_link":"https://drive.google.com/drive/u/0/folders/15j5tFoVI3qyMTSBn42tANDTm2acyX0Ev","state_ref_link":"https://drive.google.com/drive/u/0/folders/1dFI-Vs3ngMevdb5n_tx0v8xvcXI5bdxa","ObjectId":2391}},{"type":"Feature","id":2392,"geometry":{"type":"Point","coordinates":[-75.318607,40.383675]},"properties":{"site_name":"Bergey's Tires","other_site_names":null,"state":"Pennsylvania","industry":"Unknown","matrix_type":"Other Water","matrix":"Drinking Water","year":null,"pfoa":null,"pfos":null,"total_pfas":null,"pfas_level":16360,"notes":"AFFF used to put out a 1986 tire fire at Bergey's Tire and Auto. The AFFF foam was used by a team of firefighters from the former Naval Air Station Joint Reserve Base Willow Grove and Naval Air Warfare Center Warminster","regulation_gvt_link":"https://www.dep.pa.gov/Citizens/My-Water/drinking_water/PFAS/Pages/Ridge-Run-PFC-Site.aspx","resources_link":"https://www.dep.pa.gov/Citizens/My-Water/drinking_water/PFAS/Pages/default.aspx","suspected_source_link":"http://www.theintell.com/news/20180708/dep-eyes-1986-fire-as-potential-cause-of-rockhill-water-contamination\n\n1986 article: https://www.mcall.com/news/mc-xpm-1986-11-30-2548634-story.html","pfas_testing_link":"http://files.dep.state.pa.us/Water/DrinkingWater/Perfluorinated%20Chemicals/2019-11-5%20-%20Residential%20Wells%20-%20Aerial.pdf","site_ref_link":"https://drive.google.com/drive/u/0/folders/1aWA9ToG8BKymivxUjSnEae06-6RJeAC7","state_ref_link":"https://drive.google.com/drive/u/0/folders/1DZVTtHrtffhNzVd3s8hAy8pcQfLzMzIV","ObjectId":2392}},{"type":"Feature","id":2393,"geometry":{"type":"Point","coordinates":[-77.631897,39.996513]},"properties":{"site_name":"Letterkenny Army Depot","other_site_names":"Letterkenny Army Depot (PDO Area)","state":"Pennsylvania","industry":"Military","matrix_type":"Groundwater","matrix":"Groundwater","year":null,"pfoa":null,"pfos":null,"total_pfas":null,"pfas_level":2069,"notes":"AFFF used/stored at Letterkenny Army Depot","regulation_gvt_link":"N/A","resources_link":"https://www.dep.pa.gov/Citizens/My-Water/drinking_water/PFAS/Pages/default.aspx","suspected_source_link":"https://drive.google.com/file/d/1EUMAiROzk8OxvPAWubv0xGGH9zI6mw4d/view?usp=drive_link ","pfas_testing_link":"N/A","site_ref_link":"https://drive.google.com/drive/u/0/folders/198jhC0SI4HHcwEXKK_pfMc19fjomha9L","state_ref_link":"https://drive.google.com/drive/u/0/folders/1DZVTtHrtffhNzVd3s8hAy8pcQfLzMzIV","ObjectId":2393}},{"type":"Feature","id":2394,"geometry":{"type":"Point","coordinates":[-77.734499,40.875551]},"properties":{"site_name":"North Penn U.S. Army Reserve Center","other_site_names":null,"state":"Pennsylvania","industry":"Military","matrix_type":"Groundwater","matrix":"Groundwater","year":null,"pfoa":null,"pfos":"390","total_pfas":null,"pfas_level":390,"notes":"AFFF used at North Penn U.S. Army Reserve Center","regulation_gvt_link":"N/A","resources_link":"https://www.dep.pa.gov/Citizens/My-Water/drinking_water/PFAS/Pages/default.aspx","suspected_source_link":"https://drive.google.com/file/d/1EUMAiROzk8OxvPAWubv0xGGH9zI6mw4d/view?usp=drive_link ","pfas_testing_link":"https://www.agri-pulse.com/ext/resources/pdfs/congress/STATUS-OF-NOTIFICATIONS-TO-AGRICULTURAL-OPERATIONS-PURSUANT-TO-SECTION-335-OF-THE-FISCAL-YEAR-2021-NATIONAL-DEFENSE-AUTHORIZATION-ACT-1.pdf","site_ref_link":"https://drive.google.com/drive/u/0/folders/1lSlYyvt1tZpT5ZU9Gz7gUDDh_3BXiTZ3","state_ref_link":"https://drive.google.com/drive/u/0/folders/1DZVTtHrtffhNzVd3s8hAy8pcQfLzMzIV","ObjectId":2394}},{"type":"Feature","id":2395,"geometry":{"type":"Point","coordinates":[-76.746828,40.192206]},"properties":{"site_name":"Harrisburg Air National Guard Base","other_site_names":"Harrisburg International Airport","state":"Pennsylvania","industry":"Military","matrix_type":"Groundwater","matrix":"Groundwater","year":2017,"pfoa":"685","pfos":"1530","total_pfas":6591,"pfas_level":6591,"notes":"AFFF used at Harrisburg ANGB at Harrisburg International Airport (193rd)","regulation_gvt_link":"N/A","resources_link":"https://www.dep.pa.gov/Citizens/My-Water/drinking_water/PFAS/Pages/default.aspx","suspected_source_link":"https://ar.afcec-cloud.af.mil/Search.aspx","pfas_testing_link":"https://drive.google.com/file/d/1r7cfEC9mg01K3wW_TIO03EUv-XkZ5N41/view?usp=sharing","site_ref_link":"https://drive.google.com/drive/u/0/folders/1WU5I4InkvAcJAaebkw7xaicfcuVIR1oY","state_ref_link":"https://drive.google.com/drive/u/0/folders/1DZVTtHrtffhNzVd3s8hAy8pcQfLzMzIV","ObjectId":2395}},{"type":"Feature","id":2600,"geometry":{"type":"Point","coordinates":[-77.176862,40.209731]},"properties":{"site_name":"Carlisle Barracks","other_site_names":null,"state":"Pennsylvania","industry":"Military","matrix_type":"Other Water","matrix":"Drinking Water","year":2020,"pfoa":null,"pfos":null,"total_pfas":null,"pfas_level":2,"notes":null,"regulation_gvt_link":null,"resources_link":null,"suspected_source_link":"https://aec.army.mil/index.php/PFAS/PA/CABK","pfas_testing_link":"https://cdn3.ewg.org/sites/default/files/u352/EWG_PFASTable-Army_C01.pdf","site_ref_link":"https://drive.google.com/drive/u/0/folders/17vc5JX3Gvo92Bih-kg-GABnBbExIJhXg","state_ref_link":"https://drive.google.com/drive/u/0/folders/1inU8GiL3ea7OLsY9jO09ktEQo87u139r","ObjectId":2600}},{"type":"Feature","id":2887,"geometry":{"type":"Point","coordinates":[-77.03863,41.24389]},"properties":{"site_name":"AVCO Lycoming (Williamsport Division)","other_site_names":null,"state":"Pennsylvania","industry":"Industry","matrix_type":"Groundwater","matrix":"Groundwater","year":2018,"pfoa":null,"pfos":null,"total_pfas":null,"pfas_level":35,"notes":"Identified by the Environmental Protection Agency (EPA) as having PFAS contamination. Provided to the Senate Committee on Environment and Public Works.","regulation_gvt_link":null,"resources_link":"https://cumulis.epa.gov/supercpad/cursites/csitinfo.cfm?id=0300699","suspected_source_link":"https://www.epw.senate.gov/public/index.cfm/superfund-sites-identified-by-epa-to-have-pfas-contamination","pfas_testing_link":"https://semspub.epa.gov/work/03/2335648.pdf","site_ref_link":null,"state_ref_link":null,"ObjectId":2887}},{"type":"Feature","id":2888,"geometry":{"type":"Point","coordinates":[-76.74682,40.1922]},"properties":{"site_name":"Middletown Air Field","other_site_names":null,"state":"Pennsylvania","industry":"Military","matrix_type":"Groundwater","matrix":"Groundwater","year":2016,"pfoa":"190","pfos":"2836","total_pfas":null,"pfas_level":2836,"notes":"Quarterly summaries of PFOA and PFOS detections in well #9","regulation_gvt_link":null,"resources_link":"https://cumulis.epa.gov/supercpad/cursites/csitinfo.cfm?id=0301295","suspected_source_link":"https://www.epw.senate.gov/public/index.cfm/superfund-sites-identified-by-epa-to-have-pfas-contamination","pfas_testing_link":"https://semspub.epa.gov/work/03/2345177.pdf","site_ref_link":null,"state_ref_link":null,"ObjectId":2888}},{"type":"Feature","id":2889,"geometry":{"type":"Point","coordinates":[-76.991263,40.227783]},"properties":{"site_name":"Navy Ships Parts Control Center","other_site_names":null,"state":"Pennsylvania","industry":"Military","matrix_type":"Drinking water","matrix":"Drinking Water","year":2022,"pfoa":"52","pfos":"84","total_pfas":310,"pfas_level":310,"notes":"Identified by the Environmental Protection Agency (EPA) as having PFAS contamination. Provided to the Senate Committee on Environment and Public Works.","regulation_gvt_link":null,"resources_link":"https://cumulis.epa.gov/supercpad/cursites/copinfo.cfm?id=0302460","suspected_source_link":"https://www.epw.senate.gov/public/index.cfm/superfund-sites-identified-by-epa-to-have-pfas-contamination","pfas_testing_link":"https://semspub.epa.gov/work/03/2389205.pdf","site_ref_link":null,"state_ref_link":null,"ObjectId":2889}},{"type":"Feature","id":2890,"geometry":{"type":"Point","coordinates":[-75.2816,40.25063]},"properties":{"site_name":"North Penn - Area 2","other_site_names":null,"state":"Pennsylvania","industry":"Industry","matrix_type":"Groundwater","matrix":"Groundwater","year":2019,"pfoa":"690","pfos":"32","total_pfas":722,"pfas_level":722,"notes":"Identified by the Environmental Protection Agency (EPA) as having PFAS contamination. Provided to the Senate Committee on Environment and Public Works.","regulation_gvt_link":null,"resources_link":"https://cumulis.epa.gov/supercpad/SiteProfiles/index.cfm?fuseaction=second.docdata&id=0300579","suspected_source_link":"https://www.epw.senate.gov/public/index.cfm/superfund-sites-identified-by-epa-to-have-pfas-contamination","pfas_testing_link":"https://semspub.epa.gov/work/03/2329113.pdf","site_ref_link":null,"state_ref_link":null,"ObjectId":2890}},{"type":"Feature","id":2891,"geometry":{"type":"Point","coordinates":[-75.24412,40.2734]},"properties":{"site_name":"North Penn - Area 5","other_site_names":null,"state":"Pennsylvania","industry":"Industry","matrix_type":"Groundwater","matrix":"Groundwater","year":2017,"pfoa":"31","pfos":"100","total_pfas":287,"pfas_level":287,"notes":"Former BAE Systems site","regulation_gvt_link":null,"resources_link":"https://cumulis.epa.gov/supercpad/cursites/csitinfo.cfm?id=0301452","suspected_source_link":"https://www.epw.senate.gov/public/index.cfm/superfund-sites-identified-by-epa-to-have-pfas-contamination","pfas_testing_link":"https://semspub.epa.gov/work/03/2345150.pdf","site_ref_link":null,"state_ref_link":null,"ObjectId":2891}},{"type":"Feature","id":2892,"geometry":{"type":"Point","coordinates":[-75.0988,40.17981]},"properties":{"site_name":"Raymark","other_site_names":null,"state":"Pennsylvania","industry":"Industry","matrix_type":"Groundwater","matrix":"Groundwater","year":2019,"pfoa":"17","pfos":"43","total_pfas":142,"pfas_level":142,"notes":"Identified by the Environmental Protection Agency (EPA) as having PFAS contamination. Provided to the Senate Committee on Environment and Public Works.","regulation_gvt_link":null,"resources_link":"https://cumulis.epa.gov/supercpad/SiteProfiles/index.cfm?fuseaction=second.docdata&id=0300894","suspected_source_link":"https://www.epw.senate.gov/public/index.cfm/superfund-sites-identified-by-epa-to-have-pfas-contamination","pfas_testing_link":"https://semspub.epa.gov/work/03/2429614.pdf","site_ref_link":null,"state_ref_link":null,"ObjectId":2892}},{"type":"Feature","id":2893,"geometry":{"type":"Point","coordinates":[-75.49335,40.53102]},"properties":{"site_name":"Rodale Manufacturing Co., Inc.","other_site_names":null,"state":"Pennsylvania","industry":"Industry","matrix_type":"Groundwater","matrix":"Groundwater","year":2018,"pfoa":"4","pfos":"4","total_pfas":null,"pfas_level":6,"notes":"Identified by the Environmental Protection Agency (EPA) as having PFAS contamination. Provided to the Senate Committee on Environment and Public Works.","regulation_gvt_link":null,"resources_link":"https://cumulis.epa.gov/supercpad/cursites/csitinfo.cfm?id=0301744","suspected_source_link":"https://www.epw.senate.gov/public/index.cfm/superfund-sites-identified-by-epa-to-have-pfas-contamination","pfas_testing_link":"https://semspub.epa.gov/work/03/2355169.pdf","site_ref_link":null,"state_ref_link":null,"ObjectId":2893}},{"type":"Feature","id":2894,"geometry":{"type":"Point","coordinates":[-75.42951,41.18601]},"properties":{"site_name":"Tobyhanna Army Depot","other_site_names":null,"state":"Pennsylvania","industry":"Military","matrix_type":"Groundwater","matrix":"Groundwater","year":2021,"pfoa":"630","pfos":"1300","total_pfas":2810,"pfas_level":2810,"notes":"Identified by the Environmental Protection Agency (EPA) as having PFAS contamination. Provided to the Senate Committee on Environment and Public Works.","regulation_gvt_link":null,"resources_link":"https://cumulis.epa.gov/supercpad/SiteProfiles/index.cfm?fuseaction=second.docdata&id=0302464","suspected_source_link":"https://www.epw.senate.gov/public/index.cfm/superfund-sites-identified-by-epa-to-have-pfas-contamination","pfas_testing_link":"https://aec.army.mil/Portals/115/PFAS/Tobyhanna_AD_PFAS_PA_SI.pdf?ver=bAzpFDa4QBuwJCbfpd00VA%3d%3d","site_ref_link":"https://drive.google.com/drive/folders/1Adp-wXxc6903DN9MmUU51fYPqpkTReZe?usp=drive_link","state_ref_link":"https://drive.google.com/drive/folders/182wX2ttDhQNED-y2bJwBxsl6AL-2dQrv?usp=drive_link","ObjectId":2894}},{"type":"Feature","id":2895,"geometry":{"type":"Point","coordinates":[-76.01622,40.96775]},"properties":{"site_name":"Valmont TCE Site (Former - Valmont Industrial Park)","other_site_names":null,"state":"Pennsylvania","industry":"Industry","matrix_type":"Groundwater","matrix":"Groundwater","year":2020,"pfoa":"1390","pfos":"969","total_pfas":null,"pfas_level":2359,"notes":"Identified by the Environmental Protection Agency (EPA) as having PFAS contamination. Provided to the Senate Committee on Environment and Public Works.","regulation_gvt_link":null,"resources_link":"https://cumulis.epa.gov/supercpad/cursites/csitinfo.cfm?id=0303307","suspected_source_link":"https://www.epw.senate.gov/public/index.cfm/superfund-sites-identified-by-epa-to-have-pfas-contamination","pfas_testing_link":"https://semspub.epa.gov/work/03/2317238.pdf","site_ref_link":"https://drive.google.com/drive/folders/1vlePNYXUA11j6nYu0ekxnkGQr1NK1Knb?usp=drive_link","state_ref_link":"https://drive.google.com/drive/folders/182wX2ttDhQNED-y2bJwBxsl6AL-2dQrv?usp=drive_link","ObjectId":2895}},{"type":"Feature","id":2896,"geometry":{"type":"Point","coordinates":[-75.33156,40.46048]},"properties":{"site_name":"Watson Johnson Landfill","other_site_names":null,"state":"Pennsylvania","industry":"Landfill","matrix_type":"Groundwater","matrix":"Groundwater","year":2019,"pfoa":"290","pfos":"370","total_pfas":null,"pfas_level":660,"notes":"Identified by the Environmental Protection Agency (EPA) as having PFAS contamination. Provided to the Senate Committee on Environment and Public Works.","regulation_gvt_link":null,"resources_link":"https://cumulis.epa.gov/supercpad/cursites/csitinfo.cfm?id=0301517","suspected_source_link":"https://www.epw.senate.gov/public/index.cfm/superfund-sites-identified-by-epa-to-have-pfas-contamination","pfas_testing_link":"https://semspub.epa.gov/work/03/2329154.pdf","site_ref_link":"https://drive.google.com/drive/folders/1AA--qJZHW-YP6gox9-3Yq485cKhhZahl?usp=drive_link","state_ref_link":"https://drive.google.com/drive/folders/182wX2ttDhQNED-y2bJwBxsl6AL-2dQrv?usp=drive_link","ObjectId":2896}},{"type":"Feature","id":2988,"geometry":{"type":"Point","coordinates":[-80.219698,40.478094]},"properties":{"site_name":"Pittsburgh Air National Guard","other_site_names":null,"state":"Pennsylvania","industry":"Military","matrix_type":"Groundwater","matrix":"Groundwater","year":2018,"pfoa":"889","pfos":"5900","total_pfas":7265,"pfas_level":7265,"notes":null,"regulation_gvt_link":null,"resources_link":null,"suspected_source_link":"https://ar.afcec-cloud.af.mil/Search.aspx","pfas_testing_link":"https://drive.google.com/file/d/180-Opkrrsh4563DYKy_0d_x5CThTtuj4/view?usp=sharing","site_ref_link":null,"state_ref_link":null,"ObjectId":2988}},{"type":"Feature","id":3080,"geometry":{"type":"Point","coordinates":[-76.991684,40.228582]},"properties":{"site_name":"Mechanicsburg NAVICP (Naval Inventory Control Point)","other_site_names":"Naval Support Activity Mechanicsburg","state":"Pennsylvania","industry":"Military","matrix_type":"Other Water","matrix":"Drinking Water","year":2022,"pfoa":"52","pfos":"84","total_pfas":null,"pfas_level":136,"notes":null,"regulation_gvt_link":null,"resources_link":"https://www.navfac.navy.mil/Business-Lines/Environmental/Products-and-Services/Environmental-Restoration/MID-ATLANTIC/","suspected_source_link":"https://www.ewg.org/news-insights/news-release/2022/05/high-levels-forever-chemicals-detected-dept-defense-community","pfas_testing_link":"https://drive.google.com/drive/u/1/folders/1Y7xHDcKlFLAuCgI9C_W3SFI7ZYwK7NdM","site_ref_link":"https://drive.google.com/drive/u/1/folders/1Y7xHDcKlFLAuCgI9C_W3SFI7ZYwK7NdM","state_ref_link":"https://drive.google.com/drive/folders/182wX2ttDhQNED-y2bJwBxsl6AL-2dQrv?usp=sharing","ObjectId":3080}},{"type":"Feature","id":3726,"geometry":{"type":"Point","coordinates":[-75.596347,39.959113]},"properties":{"site_name":"National Foam Manufacturing Facility","other_site_names":null,"state":"Pennsylvania","industry":"Industry","matrix_type":"Groundwater","matrix":"Groundwater","year":null,"pfoa":"24400","pfos":"31500","total_pfas":141700,"pfas_level":141700,"notes":"Source of contamination was the manufacturing of AFFF","regulation_gvt_link":null,"resources_link":null,"suspected_source_link":"https://d1ung6i9j8i9xc.cloudfront.net/wp-content/blogs.dir/123/files/2020/10/Solvay-lawsuit-Oct-2020.pdf","pfas_testing_link":"https://d1ung6i9j8i9xc.cloudfront.net/wp-content/blogs.dir/123/files/2020/10/Solvay-lawsuit-Oct-2020.pdf","site_ref_link":null,"state_ref_link":"https://drive.google.com/drive/u/0/folders/1DZVTtHrtffhNzVd3s8hAy8pcQfLzMzIV","ObjectId":3726}},{"type":"Feature","id":4228,"geometry":{"type":"Point","coordinates":[-75.125,40.545831]},"properties":{"site_name":"Boarhead Farms","other_site_names":null,"state":"Pennsylvania","industry":"Industry","matrix_type":"Groundwater","matrix":"Groundwater","year":2021,"pfoa":"170","pfos":"220","total_pfas":566,"pfas_level":566,"notes":null,"regulation_gvt_link":"https://semspub.epa.gov/work/03/2336698.pdf","resources_link":"https://cumulis.epa.gov/supercpad/cursites/csitinfo.cfm?id=0300963","suspected_source_link":"https://cumulis.epa.gov/supercpad/cursites/csitinfo.cfm?id=0300963","pfas_testing_link":"https://semspub.epa.gov/work/03/2336698.pdf","site_ref_link":"https://drive.google.com/drive/u/0/folders/11k9kDjX6qbnktRwJn2OVONu9tQBO-n6W","state_ref_link":"https://drive.google.com/drive/u/0/folders/182wX2ttDhQNED-y2bJwBxsl6AL-2dQrv","ObjectId":4228}},{"type":"Feature","id":4229,"geometry":{"type":"Point","coordinates":[-75.136003,40.315958]},"properties":{"site_name":"Chem-Fab","other_site_names":null,"state":"Pennsylvania","industry":"Industry","matrix_type":"Groundwater","matrix":"Groundwater","year":2014,"pfoa":"211","pfos":"1900","total_pfas":2111,"pfas_level":2111,"notes":null,"regulation_gvt_link":"https://semspub.epa.gov/work/03/2362165.pdf","resources_link":"https://cumulis.epa.gov/supercpad/SiteProfiles/index.cfm?fuseaction=second.Cleanup&id=0300563#bkground","suspected_source_link":"https://cumulis.epa.gov/supercpad/SiteProfiles/index.cfm?fuseaction=second.Cleanup&id=0300563#bkground","pfas_testing_link":"https://semspub.epa.gov/work/03/2362165.pdf","site_ref_link":"https://drive.google.com/drive/u/0/folders/1rJHX2ukxJSx1zlRVunL1ainE5W06i2CT","state_ref_link":"https://drive.google.com/drive/u/0/folders/182wX2ttDhQNED-y2bJwBxsl6AL-2dQrv","ObjectId":4229}},{"type":"Feature","id":4230,"geometry":{"type":"Point","coordinates":[-75.4194,40.1241]},"properties":{"site_name":"Commodore Semiconductor Group","other_site_names":null,"state":"Pennsylvania","industry":"Industry","matrix_type":"Groundwater","matrix":"Groundwater","year":2015,"pfoa":"14","pfos":"26","total_pfas":40,"pfas_level":40,"notes":null,"regulation_gvt_link":"https://semspub.epa.gov/work/03/2302583.pdf","resources_link":"https://cumulis.epa.gov/supercpad/SiteProfiles/index.cfm?fuseaction=second.Cleanup&id=0301146#bkground","suspected_source_link":"https://cumulis.epa.gov/supercpad/SiteProfiles/index.cfm?fuseaction=second.Cleanup&id=0301146#bkground","pfas_testing_link":"https://semspub.epa.gov/work/03/2302583.pdf","site_ref_link":"https://drive.google.com/drive/u/0/folders/12aL-3BT8AoL56iARwdTIfO_Mbr36qHsb","state_ref_link":"https://drive.google.com/drive/u/0/folders/182wX2ttDhQNED-y2bJwBxsl6AL-2dQrv","ObjectId":4230}},{"type":"Feature","id":4231,"geometry":{"type":"Point","coordinates":[-75.0925,40.183889]},"properties":{"site_name":"Fischer & Porter Co.","other_site_names":null,"state":"Pennsylvania","industry":"Industry","matrix_type":"Groundwater","matrix":"Groundwater","year":2021,"pfoa":"18","pfos":"20","total_pfas":38,"pfas_level":38,"notes":null,"regulation_gvt_link":"https://semspub.epa.gov/work/03/2389222.pdf","resources_link":"https://cumulis.epa.gov/supercpad/SiteProfiles/index.cfm?fuseaction=second.Stayup&id=0300585#Stayup","suspected_source_link":"https://cumulis.epa.gov/supercpad/SiteProfiles/index.cfm?fuseaction=second.Stayup&id=0300585#Stayup","pfas_testing_link":"https://semspub.epa.gov/work/03/2389222.pdf","site_ref_link":"https://drive.google.com/drive/u/0/folders/18_bbnlKignSFaY-c1bV5V5ohRyh3Kwso","state_ref_link":"https://drive.google.com/drive/u/0/folders/182wX2ttDhQNED-y2bJwBxsl6AL-2dQrv","ObjectId":4231}},{"type":"Feature","id":4232,"geometry":{"type":"Point","coordinates":[-75.267778,39.885556]},"properties":{"site_name":"Lower Darby Creek Area","other_site_names":null,"state":"Pennsylvania","industry":"Waste","matrix_type":"Other Water","matrix":"Surface Water","year":2023,"pfoa":"11","pfos":"8","total_pfas":60,"pfas_level":60,"notes":null,"regulation_gvt_link":null,"resources_link":"https://cumulis.epa.gov/supercpad/cursites/csitinfo.cfm?id=0305521","suspected_source_link":null,"pfas_testing_link":"https://drive.google.com/file/d/189dL2ShSzPU2wm2BsIBMe5iL3OTDCg3t/view?usp=drive_link","site_ref_link":null,"state_ref_link":null,"ObjectId":4232}},{"type":"Feature","id":4233,"geometry":{"type":"Point","coordinates":[-75.908333,39.995833]},"properties":{"site_name":"Old Wilmington Road GW Contamination","other_site_names":null,"state":"Pennsylvania","industry":"Waste","matrix_type":"Groundwater","matrix":"Groundwater","year":2023,"pfoa":"66","pfos":"65","total_pfas":283,"pfas_level":283,"notes":null,"regulation_gvt_link":"https://semspub.epa.gov/work/03/2370668.pdf","resources_link":"https://cumulis.epa.gov/supercpad/SiteProfiles/index.cfm?fuseaction=second.Stayup&id=0302420#Stayup","suspected_source_link":"https://cumulis.epa.gov/supercpad/SiteProfiles/index.cfm?fuseaction=second.Stayup&id=0302420#Stayup","pfas_testing_link":"https://semspub.epa.gov/work/03/2370668.pdf","site_ref_link":"https://drive.google.com/drive/u/0/folders/1aoVqMZ97gLc5tZfU99A8mqIEFVxjXTTm","state_ref_link":"https://drive.google.com/drive/u/0/folders/182wX2ttDhQNED-y2bJwBxsl6AL-2dQrv","ObjectId":4233}}]}