{"type":"FeatureCollection","crs":{"type":"name","properties":{"name":"EPSG:4326"}},"features":[{"type":"Feature","id":234,"geometry":{"type":"Point","coordinates":[-104.874651,41.143149]},"properties":{"site_name":"F.E. Warren Air Force Base","other_site_names":null,"state":"Wyoming","industry":"Military","matrix_type":"Groundwater","matrix":"Groundwater","year":2017,"pfoa":"72,000","pfos":"64,000","total_pfas":147000,"pfas_level":147000,"notes":"AFFF used at FE Warren Air Force Base","regulation_gvt_link":"N/A","resources_link":"https://cumulis.epa.gov/supercpad/SiteProfiles/index.cfm?fuseaction=second.contams&id=0800017","suspected_source_link":"https://drive.google.com/file/d/1EUMAiROzk8OxvPAWubv0xGGH9zI6mw4d/view?usp=drive_link ","pfas_testing_link":"https://drive.google.com/file/d/1h0wxoP8XpVbvyqlbBGhoKf9iK5JeRA-G/view?usp=sharing","site_ref_link":"https://drive.google.com/drive/folders/1KmRG-k1YFytopGrVc8-IhtSiP8iKgHUp","state_ref_link":"https://drive.google.com/drive/folders/1ecZ05lYWUMVHg1G0m5ezKYFLjMkk3GWR","ObjectId":234}},{"type":"Feature","id":518,"geometry":{"type":"Point","coordinates":[-104.727645,42.256908]},"properties":{"site_name":"Camp Guernsey","other_site_names":null,"state":"Wyoming","industry":"Military","matrix_type":"Other Water","matrix":"Drinking Water","year":2018,"pfoa":"1","pfos":null,"total_pfas":7,"pfas_level":7,"notes":null,"regulation_gvt_link":null,"resources_link":null,"suspected_source_link":"https://drive.google.com/file/d/1g1t60FsMLcfluvkLqorqlbsHnkF_rNZw/view?usp=sharing","pfas_testing_link":"https://drive.google.com/file/d/1g1t60FsMLcfluvkLqorqlbsHnkF_rNZw/view?usp=sharing","site_ref_link":"https://drive.google.com/drive/u/0/folders/17vc5JX3Gvo92Bih-kg-GABnBbExIJhXg","state_ref_link":"https://drive.google.com/drive/folders/1ecZ05lYWUMVHg1G0m5ezKYFLjMkk3GWR","ObjectId":518}},{"type":"Feature","id":673,"geometry":{"type":"Point","coordinates":[-104.810132,41.153262]},"properties":{"site_name":"Cheyenne Regional Airport","other_site_names":null,"state":"Wyoming","industry":"Military","matrix_type":"Groundwater","matrix":"Groundwater","year":2018,"pfoa":"8,500","pfos":"89,000","total_pfas":null,"pfas_level":94400,"notes":"AFFF used at Cheyenne Air National Guard Base / Cheyenne Municipal Airport","regulation_gvt_link":"N/A","resources_link":"N/A","suspected_source_link":null,"pfas_testing_link":"https://drive.google.com/file/d/1uRhfCJx6fww8okXya-Vvp_N_j2QHEIzM/view?usp=sharing","site_ref_link":"https://drive.google.com/drive/u/0/folders/1YV967nnrLYYyvSnbXCH5gj_b2jb3Ki0q","state_ref_link":"https://drive.google.com/drive/folders/1ecZ05lYWUMVHg1G0m5ezKYFLjMkk3GWR","ObjectId":673}},{"type":"Feature","id":680,"geometry":{"type":"Point","coordinates":[-104.82223,41.161734]},"properties":{"site_name":"Cheyenne Air National Guard Base","other_site_names":"Wyoming Air National Guard Base","state":"Wyoming","industry":"Military","matrix_type":"Groundwater","matrix":"Groundwater","year":2018,"pfoa":"8,500","pfos":"89,000","total_pfas":122440,"pfas_level":122440,"notes":null,"regulation_gvt_link":null,"resources_link":null,"suspected_source_link":"https://ar.afcec-cloud.af.mil/Search.aspx","pfas_testing_link":"https://drive.google.com/file/d/1p6526cLiewaPjksAeL00MPmoW_H9o_65/view?usp=sharing","site_ref_link":null,"state_ref_link":null,"ObjectId":680}},{"type":"Feature","id":2445,"geometry":{"type":"Point","coordinates":[-104.874651,41.143149]},"properties":{"site_name":"F.E. Warren Air Force Base","other_site_names":null,"state":"Wyoming","industry":"Military","matrix_type":"Groundwater","matrix":"Groundwater","year":2017,"pfoa":"72000","pfos":"64000","total_pfas":147000,"pfas_level":147000,"notes":"AFFF used at FE Warren Air Force Base","regulation_gvt_link":"N/A","resources_link":"https://cumulis.epa.gov/supercpad/SiteProfiles/index.cfm?fuseaction=second.contams&id=0800017","suspected_source_link":"https://drive.google.com/file/d/1EUMAiROzk8OxvPAWubv0xGGH9zI6mw4d/view?usp=drive_link ","pfas_testing_link":"https://drive.google.com/file/d/1h0wxoP8XpVbvyqlbBGhoKf9iK5JeRA-G/view?usp=sharing","site_ref_link":"https://drive.google.com/drive/folders/1KmRG-k1YFytopGrVc8-IhtSiP8iKgHUp","state_ref_link":"https://drive.google.com/drive/folders/1ecZ05lYWUMVHg1G0m5ezKYFLjMkk3GWR","ObjectId":2445}},{"type":"Feature","id":2446,"geometry":{"type":"Point","coordinates":[-104.810132,41.153262]},"properties":{"site_name":"Cheyenne Regional Airport","other_site_names":null,"state":"Wyoming","industry":"Military","matrix_type":"Groundwater","matrix":"Groundwater","year":2018,"pfoa":"8500","pfos":"89000","total_pfas":null,"pfas_level":94400,"notes":"AFFF used at Cheyenne Air National Guard Base / Cheyenne Municipal Airport","regulation_gvt_link":"N/A","resources_link":"N/A","suspected_source_link":null,"pfas_testing_link":"https://drive.google.com/file/d/1uRhfCJx6fww8okXya-Vvp_N_j2QHEIzM/view?usp=sharing","site_ref_link":"https://drive.google.com/drive/u/0/folders/1YV967nnrLYYyvSnbXCH5gj_b2jb3Ki0q","state_ref_link":"https://drive.google.com/drive/folders/1ecZ05lYWUMVHg1G0m5ezKYFLjMkk3GWR","ObjectId":2446}},{"type":"Feature","id":3049,"geometry":{"type":"Point","coordinates":[-104.82223,41.161734]},"properties":{"site_name":"Cheyenne Air National Guard Base","other_site_names":"Wyoming Air National Guard Base","state":"Wyoming","industry":"Military","matrix_type":"Groundwater","matrix":"Groundwater","year":2018,"pfoa":"8500","pfos":"89000","total_pfas":122440,"pfas_level":122440,"notes":null,"regulation_gvt_link":null,"resources_link":null,"suspected_source_link":"https://ar.afcec-cloud.af.mil/Search.aspx","pfas_testing_link":"https://drive.google.com/file/d/1p6526cLiewaPjksAeL00MPmoW_H9o_65/view?usp=sharing","site_ref_link":null,"state_ref_link":null,"ObjectId":3049}},{"type":"Feature","id":3731,"geometry":{"type":"Point","coordinates":[-104.727645,42.256908]},"properties":{"site_name":"Camp Guernsey","other_site_names":null,"state":"Wyoming","industry":"Military","matrix_type":"Other Water","matrix":"Drinking Water","year":2018,"pfoa":"1","pfos":null,"total_pfas":7,"pfas_level":7,"notes":null,"regulation_gvt_link":null,"resources_link":null,"suspected_source_link":"https://drive.google.com/file/d/1g1t60FsMLcfluvkLqorqlbsHnkF_rNZw/view?usp=sharing","pfas_testing_link":"https://drive.google.com/file/d/1g1t60FsMLcfluvkLqorqlbsHnkF_rNZw/view?usp=sharing","site_ref_link":"https://drive.google.com/drive/u/0/folders/17vc5JX3Gvo92Bih-kg-GABnBbExIJhXg","state_ref_link":"https://drive.google.com/drive/folders/1ecZ05lYWUMVHg1G0m5ezKYFLjMkk3GWR","ObjectId":3731}}]}