{"type":"FeatureCollection","crs":{"type":"name","properties":{"name":"EPSG:4326"}},"features":[{"type":"Feature","id":122,"geometry":{"type":"Point","coordinates":[-87.426447,41.614061]},"properties":{"site_name":"GARY DEVELOPMENT LANDFILL","other_site_names":null,"state":"Indiana","industry":"Waste","matrix_type":"Groundwater","matrix":"Groundwater","year":2018,"pfoa":"580","pfos":"100","total_pfas":1908,"pfas_level":1908,"notes":"Sampling report notes potential for upward bias in several PFAS (not PFOA or PFOA).","regulation_gvt_link":"https://cumulis.epa.gov/supercpad/cursites/csitinfo.cfm?id=0501517","resources_link":null,"suspected_source_link":"2020 - Remedial Investigation Report PFAS Addendum Gary Development Landfill Superfund Site.pdf","pfas_testing_link":"https://semspub.epa.gov/src/document/05/964293","site_ref_link":"Lake County, IN - Gary Development Landfill - Superfund Site","state_ref_link":"IN","ObjectId":122}},{"type":"Feature","id":560,"geometry":{"type":"Point","coordinates":[-85.799346,39.57822]},"properties":{"site_name":"Shelbyville Army Aviation Support Facility","other_site_names":null,"state":"Indiana","industry":"Military","matrix_type":"Other Water","matrix":"Drinking Water","year":2018,"pfoa":null,"pfos":null,"total_pfas":15,"pfas_level":15,"notes":null,"regulation_gvt_link":null,"resources_link":null,"suspected_source_link":"https://drive.google.com/file/d/1g1t60FsMLcfluvkLqorqlbsHnkF_rNZw/view?usp=sharing","pfas_testing_link":"https://drive.google.com/file/d/1g1t60FsMLcfluvkLqorqlbsHnkF_rNZw/view?usp=sharing","site_ref_link":"https://drive.google.com/drive/u/0/folders/17vc5JX3Gvo92Bih-kg-GABnBbExIJhXg","state_ref_link":"https://drive.google.com/drive/u/1/folders/1UjyEvFD3eL_81mvP4gEdkhogVwaOh09Z","ObjectId":560}},{"type":"Feature","id":650,"geometry":{"type":"Point","coordinates":[-87.29373,39.457128]},"properties":{"site_name":"Hulman Air National Guard Base","other_site_names":"Hulman International Airport, Terre Haute National Guard Site, Indiana Air National Guard 181st Intelligence Wing","state":"Indiana","industry":"Military","matrix_type":"Groundwater","matrix":"Groundwater","year":2018,"pfoa":"5,600","pfos":"15,000","total_pfas":28970,"pfas_level":28970,"notes":"AFFF used at Hulman International Airport / Air National Guard Base","regulation_gvt_link":"N/A","resources_link":"http://afcec.publicadmin-record.us.af.mil/","suspected_source_link":"https://ar.afcec-cloud.af.mil/Search.aspx","pfas_testing_link":"https://drive.google.com/file/d/1Qj78XzMkZ542UD4KMyf281w-k6a8oC3y/view?usp=sharing","site_ref_link":"https://drive.google.com/drive/u/0/folders/1O96myyHdFyUIyjuL8LD4xmZmMU6zCLpK","state_ref_link":"https://drive.google.com/drive/u/1/folders/1UjyEvFD3eL_81mvP4gEdkhogVwaOh09Z","ObjectId":650}},{"type":"Feature","id":744,"geometry":{"type":"Point","coordinates":[-85.174288,40.988551]},"properties":{"site_name":"Fort Wayne Air National Guard Base","other_site_names":"Fort Wayne International Airport","state":"Indiana","industry":"Military","matrix_type":"Groundwater","matrix":"Groundwater","year":2018,"pfoa":"44","pfos":"110","total_pfas":270,"pfas_level":270,"notes":null,"regulation_gvt_link":null,"resources_link":null,"suspected_source_link":"https://ar.afcec-cloud.af.mil/Search.aspx","pfas_testing_link":"https://drive.google.com/file/d/1fQ8kWyQaWVVmirFkot8IjGQbBannhvGR/view?usp=sharing","site_ref_link":null,"state_ref_link":null,"ObjectId":744}},{"type":"Feature","id":2067,"geometry":{"type":"Point","coordinates":[-86.848621,38.871996]},"properties":{"site_name":"Naval Surface Warfare Center Crane Divison","other_site_names":null,"state":"Indiana","industry":"Military","matrix_type":"Groundwater","matrix":"Groundwater","year":null,"pfoa":"40","pfos":"428","total_pfas":null,"pfas_level":428,"notes":null,"regulation_gvt_link":null,"resources_link":"https://www.navsea.navy.mil/Home/Warfare-Centers/NSWC-Crane/","suspected_source_link":null,"pfas_testing_link":"https://www.agri-pulse.com/ext/resources/pdfs/congress/STATUS-OF-NOTIFICATIONS-TO-AGRICULTURAL-OPERATIONS-PURSUANT-TO-SECTION-335-OF-THE-FISCAL-YEAR-2021-NATIONAL-DEFENSE-AUTHORIZATION-ACT-1.pdf","site_ref_link":null,"state_ref_link":null,"ObjectId":2067}},{"type":"Feature","id":2121,"geometry":{"type":"Point","coordinates":[-86.144649,40.661823]},"properties":{"site_name":"Grissom Air Reserve Base","other_site_names":null,"state":"Indiana","industry":"Military","matrix_type":"Groundwater","matrix":"Groundwater","year":null,"pfoa":null,"pfos":null,"total_pfas":null,"pfas_level":132000,"notes":"AFFF used at Former Grissom Air Force Base","regulation_gvt_link":"N/A","resources_link":"https://www.in.gov/idem/resources/nonrule-policies/per-and-polyfluoroalkyl-substances-pfas/","suspected_source_link":"https://drive.google.com/file/d/1EUMAiROzk8OxvPAWubv0xGGH9zI6mw4d/view?usp=drive_link ","pfas_testing_link":"https://drive.google.com/file/d/1BJxq-pSEgCwkndPE-YmVCqYKmEAMfeMi/view?usp=sharing","site_ref_link":"https://drive.google.com/drive/u/1/folders/14BNpPlc9CjI4uBTi39TQZ0Cp7TeC9UWn","state_ref_link":"https://drive.google.com/drive/u/1/folders/1UjyEvFD3eL_81mvP4gEdkhogVwaOh09Z","ObjectId":2121}},{"type":"Feature","id":2217,"geometry":{"type":"Point","coordinates":[-86.144649,40.661823]},"properties":{"site_name":"Grissom Air Reserve Base","other_site_names":null,"state":"Indiana","industry":"Military","matrix_type":"Groundwater","matrix":"Groundwater","year":null,"pfoa":null,"pfos":null,"total_pfas":null,"pfas_level":132000,"notes":"AFFF used at Former Grissom Air Force Base","regulation_gvt_link":"N/A","resources_link":"https://www.in.gov/idem/resources/nonrule-policies/per-and-polyfluoroalkyl-substances-pfas/","suspected_source_link":"https://drive.google.com/file/d/1EUMAiROzk8OxvPAWubv0xGGH9zI6mw4d/view?usp=drive_link ","pfas_testing_link":"https://drive.google.com/file/d/1BJxq-pSEgCwkndPE-YmVCqYKmEAMfeMi/view?usp=sharing","site_ref_link":"https://drive.google.com/drive/u/1/folders/14BNpPlc9CjI4uBTi39TQZ0Cp7TeC9UWn","state_ref_link":"https://drive.google.com/drive/u/1/folders/1UjyEvFD3eL_81mvP4gEdkhogVwaOh09Z","ObjectId":2217}},{"type":"Feature","id":2218,"geometry":{"type":"Point","coordinates":[-87.29373,39.457128]},"properties":{"site_name":"Hulman Air National Guard Base","other_site_names":"Hulman International Airport, Terre Haute National Guard Site, Indiana Air National Guard 181st Intelligence Wing","state":"Indiana","industry":"Military","matrix_type":"Groundwater","matrix":"Groundwater","year":2018,"pfoa":"5600","pfos":"15000","total_pfas":28970,"pfas_level":28970,"notes":"AFFF used at Hulman International Airport / Air National Guard Base","regulation_gvt_link":"N/A","resources_link":"http://afcec.publicadmin-record.us.af.mil/","suspected_source_link":"https://ar.afcec-cloud.af.mil/Search.aspx","pfas_testing_link":"https://drive.google.com/file/d/1Qj78XzMkZ542UD4KMyf281w-k6a8oC3y/view?usp=sharing","site_ref_link":"https://drive.google.com/drive/u/0/folders/1O96myyHdFyUIyjuL8LD4xmZmMU6zCLpK","state_ref_link":"https://drive.google.com/drive/u/1/folders/1UjyEvFD3eL_81mvP4gEdkhogVwaOh09Z","ObjectId":2218}},{"type":"Feature","id":2548,"geometry":{"type":"Point","coordinates":[-85.799346,39.57822]},"properties":{"site_name":"Shelbyville Army Aviation Support Facility","other_site_names":null,"state":"Indiana","industry":"Military","matrix_type":"Other Water","matrix":"Drinking Water","year":2018,"pfoa":null,"pfos":null,"total_pfas":15,"pfas_level":15,"notes":null,"regulation_gvt_link":null,"resources_link":null,"suspected_source_link":"https://drive.google.com/file/d/1g1t60FsMLcfluvkLqorqlbsHnkF_rNZw/view?usp=sharing","pfas_testing_link":"https://drive.google.com/file/d/1g1t60FsMLcfluvkLqorqlbsHnkF_rNZw/view?usp=sharing","site_ref_link":"https://drive.google.com/drive/u/0/folders/17vc5JX3Gvo92Bih-kg-GABnBbExIJhXg","state_ref_link":"https://drive.google.com/drive/u/1/folders/1UjyEvFD3eL_81mvP4gEdkhogVwaOh09Z","ObjectId":2548}},{"type":"Feature","id":2939,"geometry":{"type":"Point","coordinates":[-85.174288,40.988551]},"properties":{"site_name":"Fort Wayne Air National Guard Base","other_site_names":"Fort Wayne International Airport","state":"Indiana","industry":"Military","matrix_type":"Groundwater","matrix":"Groundwater","year":2018,"pfoa":"44","pfos":"110","total_pfas":270,"pfas_level":270,"notes":null,"regulation_gvt_link":null,"resources_link":null,"suspected_source_link":"https://ar.afcec-cloud.af.mil/Search.aspx","pfas_testing_link":"https://drive.google.com/file/d/1fQ8kWyQaWVVmirFkot8IjGQbBannhvGR/view?usp=sharing","site_ref_link":null,"state_ref_link":null,"ObjectId":2939}},{"type":"Feature","id":2940,"geometry":{"type":"Point","coordinates":[-86.848621,38.871996]},"properties":{"site_name":"Naval Surface Warfare Center Crane Divison","other_site_names":null,"state":"Indiana","industry":"Military","matrix_type":"Groundwater","matrix":"Groundwater","year":null,"pfoa":"40","pfos":"428","total_pfas":null,"pfas_level":428,"notes":null,"regulation_gvt_link":null,"resources_link":"https://www.navsea.navy.mil/Home/Warfare-Centers/NSWC-Crane/","suspected_source_link":null,"pfas_testing_link":"https://www.agri-pulse.com/ext/resources/pdfs/congress/STATUS-OF-NOTIFICATIONS-TO-AGRICULTURAL-OPERATIONS-PURSUANT-TO-SECTION-335-OF-THE-FISCAL-YEAR-2021-NATIONAL-DEFENSE-AUTHORIZATION-ACT-1.pdf","site_ref_link":null,"state_ref_link":null,"ObjectId":2940}},{"type":"Feature","id":4140,"geometry":{"type":"Point","coordinates":[-87.426447,41.614061]},"properties":{"site_name":"GARY DEVELOPMENT LANDFILL","other_site_names":null,"state":"Indiana","industry":"Waste","matrix_type":"Groundwater","matrix":"Groundwater","year":2018,"pfoa":"580","pfos":"100","total_pfas":1908,"pfas_level":1908,"notes":"Sampling report notes potential for upward bias in several PFAS (not PFOA or PFOA).","regulation_gvt_link":"https://cumulis.epa.gov/supercpad/cursites/csitinfo.cfm?id=0501517","resources_link":null,"suspected_source_link":"2020 - Remedial Investigation Report PFAS Addendum Gary Development Landfill Superfund Site.pdf","pfas_testing_link":"https://semspub.epa.gov/src/document/05/964293","site_ref_link":"Lake County, IN - Gary Development Landfill - Superfund Site","state_ref_link":"IN","ObjectId":4140}}]}