{"type":"FeatureCollection","crs":{"type":"name","properties":{"name":"EPSG:4326"}},"features":[{"type":"Feature","id":29,"geometry":{"type":"Point","coordinates":[-80.688253,32.349894]},"properties":{"site_name":"Parris Island Marine Corps Recruit Depot","other_site_names":null,"state":"South Carolina","industry":"Military","matrix_type":"Groundwater","matrix":"Groundwater","year":2015,"pfoa":"11,000","pfos":null,"total_pfas":null,"pfas_level":11000,"notes":"Identified by the Environmental Protection Agency (EPA) as having PFAS contamination. Provided to the Senate Committee on Environment and Public Works.","regulation_gvt_link":null,"resources_link":"https://cumulis.epa.gov/supercpad/SiteProfiles/index.cfm?fuseaction=second.docdata&id=0403488","suspected_source_link":"https://www.epw.senate.gov/public/index.cfm/superfund-sites-identified-by-epa-to-have-pfas-contamination","pfas_testing_link":"https://drive.google.com/file/d/17iILGUf1hlLEeUxsVXBW-EgVhvxCqI3Y/view?usp=sharing","site_ref_link":"https://drive.google.com/drive/u/0/folders/1DuQP3ArHrAC3CPay4SAH2SKXmpylae1K","state_ref_link":null,"ObjectId":29}},{"type":"Feature","id":38,"geometry":{"type":"Point","coordinates":[-78.936627,33.672902]},"properties":{"site_name":"Former Myrtle Beach Air Force Base","other_site_names":null,"state":"South Carolina","industry":"Military","matrix_type":"Groundwater","matrix":"Groundwater","year":2015,"pfoa":"150,000","pfos":"2,490,000","total_pfas":3479800,"pfas_level":3479800,"notes":"AFFF used at Former Myrtle Beach Air Force Base","regulation_gvt_link":"N/A","resources_link":"https://scdhec.gov/BOW/perfluoroalkyl-substances-pfas","suspected_source_link":"https://drive.google.com/file/d/1EUMAiROzk8OxvPAWubv0xGGH9zI6mw4d/view?usp=drive_link ","pfas_testing_link":"https://drive.google.com/file/d/1UTrrv8KY2IpegZmUCd12gJlqNEym_NQ2/view?usp=sharing","site_ref_link":"https://drive.google.com/drive/u/0/folders/1pPzV4iTfH2RlS_GXCbEeY-f12XNxdjAj","state_ref_link":"https://drive.google.com/drive/u/0/folders/1-CReV-pHv38qcbGChE-lIODNqQPcMoTe","ObjectId":38}},{"type":"Feature","id":258,"geometry":{"type":"Point","coordinates":[-80.069155,32.890979]},"properties":{"site_name":"Joint Base Charleston – Air","other_site_names":null,"state":"South Carolina","industry":"Military","matrix_type":"Groundwater","matrix":"Groundwater","year":2017,"pfoa":"790,000","pfos":"360,000","total_pfas":1184000,"pfas_level":1184000,"notes":"AFFF used at Joint Base Charleston-Air","regulation_gvt_link":"N/A","resources_link":"https://scdhec.gov/BOW/perfluoroalkyl-substances-pfas","suspected_source_link":null,"pfas_testing_link":"https://drive.google.com/file/d/17si1PWza-nxji01yD9fFwEtQ6dmBirok/view?usp=sharing","site_ref_link":"https://drive.google.com/drive/u/0/folders/1ESr4zJo28RrJu6GLU_yBGPU-NnJ3LMRr","state_ref_link":"https://drive.google.com/drive/u/0/folders/1-CReV-pHv38qcbGChE-lIODNqQPcMoTe","ObjectId":258}},{"type":"Feature","id":276,"geometry":{"type":"Point","coordinates":[-80.719171,34.010195]},"properties":{"site_name":"McCrady Training Site","other_site_names":null,"state":"South Carolina","industry":"Military","matrix_type":"Other Water","matrix":"Drinking Water","year":2018,"pfoa":"1","pfos":null,"total_pfas":2,"pfas_level":2,"notes":null,"regulation_gvt_link":null,"resources_link":null,"suspected_source_link":"https://drive.google.com/file/d/1g1t60FsMLcfluvkLqorqlbsHnkF_rNZw/view?usp=sharing","pfas_testing_link":"https://drive.google.com/file/d/1g1t60FsMLcfluvkLqorqlbsHnkF_rNZw/view?usp=sharing","site_ref_link":"https://drive.google.com/drive/u/0/folders/17vc5JX3Gvo92Bih-kg-GABnBbExIJhXg","state_ref_link":"https://drive.google.com/drive/u/0/folders/1-CReV-pHv38qcbGChE-lIODNqQPcMoTe","ObjectId":276}},{"type":"Feature","id":635,"geometry":{"type":"Point","coordinates":[-80.80113,33.940314]},"properties":{"site_name":"McEntire Joint National Guard Base","other_site_names":null,"state":"South Carolina","industry":"Military","matrix_type":"Groundwater","matrix":"Groundwater","year":2018,"pfoa":"550","pfos":"9,500","total_pfas":13388,"pfas_level":13388,"notes":"AFFF used at McEntire Joint National Guard Base","regulation_gvt_link":"N/A","resources_link":"https://www.169fw.ang.af.mil/Environmental/","suspected_source_link":null,"pfas_testing_link":"https://drive.google.com/file/d/1xae2aOXwajmKwVojA434T5qQ98ggJ0kb/view?usp=sharing","site_ref_link":"https://drive.google.com/drive/u/0/folders/1HDANhdUFwdJYL-BzFVXD1ZTt7VVpZaj_","state_ref_link":"https://drive.google.com/drive/u/0/folders/1-CReV-pHv38qcbGChE-lIODNqQPcMoTe","ObjectId":635}},{"type":"Feature","id":690,"geometry":{"type":"Point","coordinates":[-80.469243,33.973869]},"properties":{"site_name":"Shaw Air Force Base","other_site_names":null,"state":"South Carolina","industry":"Military","matrix_type":"Groundwater","matrix":"Groundwater","year":2018,"pfoa":"13,000","pfos":"30,000","total_pfas":210000,"pfas_level":210000,"notes":"AFFF used at Shaw Air Force Base","regulation_gvt_link":"https://www.scdhec.gov/BOW/perfluoroalkyl-substances-pfas/pfas-shaw-air-force-base","resources_link":"https://scdhec.gov/BOW/perfluoroalkyl-substances-pfas/pfas-shaw-air-force-base","suspected_source_link":"https://www.scdhec.gov/sites/default/files/media/document/PFAS%20DW%20data%20SAFB%20April%2029_0.pdf","pfas_testing_link":"https://drive.google.com/file/d/1aRq7DditXwPiZ3mi3np9qqLTjGEtXGB8/view?usp=sharing","site_ref_link":"https://drive.google.com/drive/u/0/folders/1PB-jivQincx_q2ZtbNlmxOQHyGDkB0CC","state_ref_link":"https://drive.google.com/drive/u/0/folders/1-CReV-pHv38qcbGChE-lIODNqQPcMoTe","ObjectId":690}},{"type":"Feature","id":1837,"geometry":{"type":"Point","coordinates":[-79.833292,34.531528]},"properties":{"site_name":"Galey and Lord Plant","other_site_names":null,"state":"South Carolina","industry":"Industry","matrix_type":"Groundwater","matrix":"Groundwater","year":2021,"pfoa":"6,300","pfos":"3,400","total_pfas":33275,"pfas_level":33275,"notes":"Sampling data comes from adjacent farmland which received wastewater sludge from G&L; superfund site may be expanded to include 10,000 acres","regulation_gvt_link":null,"resources_link":"https://cumulis.epa.gov/supercpad/cursites/csitinfo.cfm?id=0403308","suspected_source_link":"South Carolina Says PFAS-Contaminated Farmland Should Be Superfund Site - The New York Times.pdf","pfas_testing_link":"https://docs.google.com/spreadsheets/d/1j4rBu3wLpWtm34Ned7m5JW9FQry7xKMi/edit?usp=drive_link&ouid=108800455933392071157&rtpof=true&sd=true","site_ref_link":"https://drive.google.com/file/d/1Ic_EK3-bihZ7du8IZMh7Aj9covjfzATf/view?usp=drive_link","state_ref_link":null,"ObjectId":1837}},{"type":"Feature","id":2398,"geometry":{"type":"Point","coordinates":[-78.936627,33.672902]},"properties":{"site_name":"Former Myrtle Beach Air Force Base","other_site_names":null,"state":"South Carolina","industry":"Military","matrix_type":"Groundwater","matrix":"Groundwater","year":2015,"pfoa":"150000","pfos":"2490000","total_pfas":3479800,"pfas_level":3479800,"notes":"AFFF used at Former Myrtle Beach Air Force Base","regulation_gvt_link":"N/A","resources_link":"https://scdhec.gov/BOW/perfluoroalkyl-substances-pfas","suspected_source_link":"https://drive.google.com/file/d/1EUMAiROzk8OxvPAWubv0xGGH9zI6mw4d/view?usp=drive_link ","pfas_testing_link":"https://drive.google.com/file/d/1UTrrv8KY2IpegZmUCd12gJlqNEym_NQ2/view?usp=sharing","site_ref_link":"https://drive.google.com/drive/u/0/folders/1pPzV4iTfH2RlS_GXCbEeY-f12XNxdjAj","state_ref_link":"https://drive.google.com/drive/u/0/folders/1-CReV-pHv38qcbGChE-lIODNqQPcMoTe","ObjectId":2398}},{"type":"Feature","id":2399,"geometry":{"type":"Point","coordinates":[-80.80113,33.940314]},"properties":{"site_name":"McEntire Joint National Guard Base","other_site_names":null,"state":"South Carolina","industry":"Military","matrix_type":"Groundwater","matrix":"Groundwater","year":2018,"pfoa":"550","pfos":"9500","total_pfas":13388,"pfas_level":13388,"notes":"AFFF used at McEntire Joint National Guard Base","regulation_gvt_link":"N/A","resources_link":"https://www.169fw.ang.af.mil/Environmental/","suspected_source_link":null,"pfas_testing_link":"https://drive.google.com/file/d/1xae2aOXwajmKwVojA434T5qQ98ggJ0kb/view?usp=sharing","site_ref_link":"https://drive.google.com/drive/u/0/folders/1HDANhdUFwdJYL-BzFVXD1ZTt7VVpZaj_","state_ref_link":"https://drive.google.com/drive/u/0/folders/1-CReV-pHv38qcbGChE-lIODNqQPcMoTe","ObjectId":2399}},{"type":"Feature","id":2400,"geometry":{"type":"Point","coordinates":[-80.469243,33.973869]},"properties":{"site_name":"Shaw Air Force Base","other_site_names":null,"state":"South Carolina","industry":"Military","matrix_type":"Groundwater","matrix":"Groundwater","year":2018,"pfoa":"13000","pfos":"30000","total_pfas":210000,"pfas_level":210000,"notes":"AFFF used at Shaw Air Force Base","regulation_gvt_link":"https://www.scdhec.gov/BOW/perfluoroalkyl-substances-pfas/pfas-shaw-air-force-base","resources_link":"https://scdhec.gov/BOW/perfluoroalkyl-substances-pfas/pfas-shaw-air-force-base","suspected_source_link":"https://www.scdhec.gov/sites/default/files/media/document/PFAS%20DW%20data%20SAFB%20April%2029_0.pdf","pfas_testing_link":"https://drive.google.com/file/d/1aRq7DditXwPiZ3mi3np9qqLTjGEtXGB8/view?usp=sharing","site_ref_link":"https://drive.google.com/drive/u/0/folders/1PB-jivQincx_q2ZtbNlmxOQHyGDkB0CC","state_ref_link":"https://drive.google.com/drive/u/0/folders/1-CReV-pHv38qcbGChE-lIODNqQPcMoTe","ObjectId":2400}},{"type":"Feature","id":2401,"geometry":{"type":"Point","coordinates":[-80.069155,32.890979]},"properties":{"site_name":"Joint Base Charleston – Air","other_site_names":null,"state":"South Carolina","industry":"Military","matrix_type":"Groundwater","matrix":"Groundwater","year":2017,"pfoa":"790000","pfos":"360000","total_pfas":1184000,"pfas_level":1184000,"notes":"AFFF used at Joint Base Charleston-Air","regulation_gvt_link":"N/A","resources_link":"https://scdhec.gov/BOW/perfluoroalkyl-substances-pfas","suspected_source_link":null,"pfas_testing_link":"https://drive.google.com/file/d/17si1PWza-nxji01yD9fFwEtQ6dmBirok/view?usp=sharing","site_ref_link":"https://drive.google.com/drive/u/0/folders/1ESr4zJo28RrJu6GLU_yBGPU-NnJ3LMRr","state_ref_link":"https://drive.google.com/drive/u/0/folders/1-CReV-pHv38qcbGChE-lIODNqQPcMoTe","ObjectId":2401}},{"type":"Feature","id":2605,"geometry":{"type":"Point","coordinates":[-80.719171,34.010195]},"properties":{"site_name":"McCrady Training Site","other_site_names":null,"state":"South Carolina","industry":"Military","matrix_type":"Other Water","matrix":"Drinking Water","year":2018,"pfoa":"1","pfos":null,"total_pfas":2,"pfas_level":2,"notes":null,"regulation_gvt_link":null,"resources_link":null,"suspected_source_link":"https://drive.google.com/file/d/1g1t60FsMLcfluvkLqorqlbsHnkF_rNZw/view?usp=sharing","pfas_testing_link":"https://drive.google.com/file/d/1g1t60FsMLcfluvkLqorqlbsHnkF_rNZw/view?usp=sharing","site_ref_link":"https://drive.google.com/drive/u/0/folders/17vc5JX3Gvo92Bih-kg-GABnBbExIJhXg","state_ref_link":"https://drive.google.com/drive/u/0/folders/1-CReV-pHv38qcbGChE-lIODNqQPcMoTe","ObjectId":2605}},{"type":"Feature","id":2901,"geometry":{"type":"Point","coordinates":[-80.688253,32.349894]},"properties":{"site_name":"Parris Island Marine Corps Recruit Depot","other_site_names":null,"state":"South Carolina","industry":"Military","matrix_type":"Groundwater","matrix":"Groundwater","year":2015,"pfoa":"11000","pfos":null,"total_pfas":null,"pfas_level":11000,"notes":"Identified by the Environmental Protection Agency (EPA) as having PFAS contamination. Provided to the Senate Committee on Environment and Public Works.","regulation_gvt_link":null,"resources_link":"https://cumulis.epa.gov/supercpad/SiteProfiles/index.cfm?fuseaction=second.docdata&id=0403488","suspected_source_link":"https://www.epw.senate.gov/public/index.cfm/superfund-sites-identified-by-epa-to-have-pfas-contamination","pfas_testing_link":"https://drive.google.com/file/d/17iILGUf1hlLEeUxsVXBW-EgVhvxCqI3Y/view?usp=sharing","site_ref_link":"https://drive.google.com/drive/u/0/folders/1DuQP3ArHrAC3CPay4SAH2SKXmpylae1K","state_ref_link":null,"ObjectId":2901}},{"type":"Feature","id":4240,"geometry":{"type":"Point","coordinates":[-79.833292,34.531528]},"properties":{"site_name":"Galey and Lord Plant","other_site_names":null,"state":"South Carolina","industry":"Industry","matrix_type":"Groundwater","matrix":"Groundwater","year":2021,"pfoa":"6300","pfos":"3400","total_pfas":33275,"pfas_level":33275,"notes":"Sampling data comes from adjacent farmland which received wastewater sludge from G&L; superfund site may be expanded to include 10,000 acres","regulation_gvt_link":null,"resources_link":"https://cumulis.epa.gov/supercpad/cursites/csitinfo.cfm?id=0403308","suspected_source_link":"South Carolina Says PFAS-Contaminated Farmland Should Be Superfund Site - The New York Times.pdf","pfas_testing_link":"https://docs.google.com/spreadsheets/d/1j4rBu3wLpWtm34Ned7m5JW9FQry7xKMi/edit?usp=drive_link&ouid=108800455933392071157&rtpof=true&sd=true","site_ref_link":"https://drive.google.com/file/d/1Ic_EK3-bihZ7du8IZMh7Aj9covjfzATf/view?usp=drive_link","state_ref_link":null,"ObjectId":4240}}]}