{"type":"FeatureCollection","crs":{"type":"name","properties":{"name":"EPSG:4326"}},"features":[{"type":"Feature","id":39,"geometry":{"type":"Point","coordinates":[-157.943037,21.361637]},"properties":{"site_name":"Fleet and Industrial Supply Center Pearl Harbor","other_site_names":"Joint Base Pearl Harbor Pearl City Fuel Annex","state":"Hawaii","industry":"Military","matrix_type":"Solid","matrix":"Soil","year":2015,"pfoa":"16,000","pfos":"6,800,000","total_pfas":null,"pfas_level":6800000,"notes":null,"regulation_gvt_link":null,"resources_link":null,"suspected_source_link":"https://www.navfac.navy.mil/products_and_services/ev/products_and_services/env_restoration/pfas_reading_room.html","pfas_testing_link":"https://drive.google.com/file/d/1W73RfR5w_IyVLXhJArPYPKzf-8wUDwpq/view?usp=sharing","site_ref_link":"https://drive.google.com/drive/u/0/folders/1nOSbRz0Yxo0F38acBahbpZaw5Bywzlxl","state_ref_link":null,"ObjectId":39}},{"type":"Feature","id":766,"geometry":{"type":"Point","coordinates":[-157.962402,21.345472]},"properties":{"site_name":"Public Works Center Pearl Harbor","other_site_names":"Joint Base Pearl Harbor Former Public Works Center Industrial Waste Treatment Plant Site","state":"Hawaii","industry":"Military","matrix_type":"Groundwater","matrix":"Groundwater","year":2018,"pfoa":"66","pfos":"525","total_pfas":null,"pfas_level":525,"notes":null,"regulation_gvt_link":null,"resources_link":null,"suspected_source_link":"https://www.navfac.navy.mil/products_and_services/ev/products_and_services/env_restoration/pfas_reading_room.html","pfas_testing_link":"https://drive.google.com/file/d/1MyCN-oL2mlM55fxFPycAD-Tmykm9a84n/view?usp=sharing","site_ref_link":"https://drive.google.com/drive/u/0/folders/1FkfR_aZSCoweZQd29lOu_QdFZyanR_8s","state_ref_link":null,"ObjectId":766}},{"type":"Feature","id":1043,"geometry":{"type":"Point","coordinates":[-157.894156,21.37612]},"properties":{"site_name":"Red Hill Bulk Fuel Storage Facility","other_site_names":"Red Hill Facility","state":"Hawaii","industry":"Military","matrix_type":"Groundwater","matrix":"Groundwater","year":2023,"pfoa":"6","pfos":"16","total_pfas":16,"pfas_level":22,"notes":"1,100 gallons of AFFF leaked in 2023. Analytical tests on four out of 21 wells revealed the presence of PFAS, with PFOS, detected at levels surpassing the DOH's Environmental Action Level (EAL) for PFOS in groundwater. These concentrations ranged from 9.0 ng/L to 16.0 ng/L. ","regulation_gvt_link":null,"resources_link":"https://health.hawaii.gov/about/red-hill-water-information/","suspected_source_link":"https://www.militarypoisons.org/latest-news/navy-says-there-are-no-pfas-exceedances-in-red-hill-groundwater-samplesnbsp","pfas_testing_link":"https://drive.google.com/file/d/1XEGiMlm3uQ9S_WnCAHcxXN2sj6EPZsxD/view?usp=sharing","site_ref_link":"https://drive.google.com/drive/folders/11E0wby_9nZVpX12ZB_lI8Rg34KgsOOUk?usp=share_link","state_ref_link":"https://drive.google.com/drive/folders/1PyFhvmYEa7GRGfgGhCHzKWDT_oxFaxwC?usp=share_link","ObjectId":1043}},{"type":"Feature","id":1875,"geometry":{"type":"Point","coordinates":[-157.711144,21.369086]},"properties":{"site_name":"Bellows Air Force Station","other_site_names":null,"state":"Hawaii","industry":"Military","matrix_type":"Other Water","matrix":"Surface Water","year":2022,"pfoa":"5","pfos":"9","total_pfas":57,"pfas_level":57,"notes":null,"regulation_gvt_link":"ar.afcec-cloud.af.mil","resources_link":null,"suspected_source_link":null,"pfas_testing_link":"https://drive.google.com/file/d/1n5uSmO1eLIu1WDK1Wr76NqbMvZbDIXZp/view?usp=drive_link","site_ref_link":null,"state_ref_link":null,"ObjectId":1875}},{"type":"Feature","id":2934,"geometry":{"type":"Point","coordinates":[-157.943037,21.361637]},"properties":{"site_name":"Fleet and Industrial Supply Center Pearl Harbor","other_site_names":"Joint Base Pearl Harbor Pearl City Fuel Annex","state":"Hawaii","industry":"Military","matrix_type":"Solid","matrix":"Soil","year":2015,"pfoa":"16000","pfos":"6800000","total_pfas":null,"pfas_level":6800000,"notes":null,"regulation_gvt_link":null,"resources_link":null,"suspected_source_link":"https://www.navfac.navy.mil/products_and_services/ev/products_and_services/env_restoration/pfas_reading_room.html","pfas_testing_link":"https://drive.google.com/file/d/1W73RfR5w_IyVLXhJArPYPKzf-8wUDwpq/view?usp=sharing","site_ref_link":"https://drive.google.com/drive/u/0/folders/1nOSbRz0Yxo0F38acBahbpZaw5Bywzlxl","state_ref_link":null,"ObjectId":2934}},{"type":"Feature","id":2935,"geometry":{"type":"Point","coordinates":[-157.962402,21.345472]},"properties":{"site_name":"Public Works Center Pearl Harbor","other_site_names":"Joint Base Pearl Harbor Former Public Works Center Industrial Waste Treatment Plant Site","state":"Hawaii","industry":"Military","matrix_type":"Groundwater","matrix":"Groundwater","year":2018,"pfoa":"66","pfos":"525","total_pfas":null,"pfas_level":525,"notes":null,"regulation_gvt_link":null,"resources_link":null,"suspected_source_link":"https://www.navfac.navy.mil/products_and_services/ev/products_and_services/env_restoration/pfas_reading_room.html","pfas_testing_link":"https://drive.google.com/file/d/1MyCN-oL2mlM55fxFPycAD-Tmykm9a84n/view?usp=sharing","site_ref_link":"https://drive.google.com/drive/u/0/folders/1FkfR_aZSCoweZQd29lOu_QdFZyanR_8s","state_ref_link":null,"ObjectId":2935}},{"type":"Feature","id":3083,"geometry":{"type":"Point","coordinates":[-157.894156,21.37612]},"properties":{"site_name":"Red Hill Bulk Fuel Storage Facility","other_site_names":"Red Hill Facility","state":"Hawaii","industry":"Military","matrix_type":"Groundwater","matrix":"Groundwater","year":2023,"pfoa":"6","pfos":"16","total_pfas":16,"pfas_level":22,"notes":"1,100 gallons of AFFF leaked in 2023. Analytical tests on four out of 21 wells revealed the presence of PFAS, with PFOS, detected at levels surpassing the DOH's Environmental Action Level (EAL) for PFOS in groundwater. These concentrations ranged from 9.0 ng/L to 16.0 ng/L. ","regulation_gvt_link":null,"resources_link":"https://health.hawaii.gov/about/red-hill-water-information/","suspected_source_link":"https://www.militarypoisons.org/latest-news/navy-says-there-are-no-pfas-exceedances-in-red-hill-groundwater-samplesnbsp","pfas_testing_link":"https://drive.google.com/file/d/1XEGiMlm3uQ9S_WnCAHcxXN2sj6EPZsxD/view?usp=sharing","site_ref_link":"https://drive.google.com/drive/folders/11E0wby_9nZVpX12ZB_lI8Rg34KgsOOUk?usp=share_link","state_ref_link":"https://drive.google.com/drive/folders/1PyFhvmYEa7GRGfgGhCHzKWDT_oxFaxwC?usp=share_link","ObjectId":3083}},{"type":"Feature","id":4134,"geometry":{"type":"Point","coordinates":[-157.711144,21.369086]},"properties":{"site_name":"Bellows Air Force Station","other_site_names":null,"state":"Hawaii","industry":"Military","matrix_type":"Other Water","matrix":"Surface Water","year":2022,"pfoa":"5","pfos":"9","total_pfas":57,"pfas_level":57,"notes":null,"regulation_gvt_link":"ar.afcec-cloud.af.mil","resources_link":null,"suspected_source_link":null,"pfas_testing_link":"https://drive.google.com/file/d/1n5uSmO1eLIu1WDK1Wr76NqbMvZbDIXZp/view?usp=drive_link","site_ref_link":null,"state_ref_link":null,"ObjectId":4134}}]}