{"type":"FeatureCollection","crs":{"type":"name","properties":{"name":"EPSG:4326"}},"features":[{"type":"Feature","id":4,"geometry":{"type":"Point","coordinates":[-84.936843,34.724218]},"properties":{"site_name":"Loopers Bend Wastewater Treatment Plant","other_site_names":null,"state":"Georgia","industry":"Industry","matrix_type":"Other Water","matrix":"Surface Water","year":2006,"pfoa":"1,150","pfos":"320","total_pfas":null,"pfas_level":1470,"notes":"Industrial discharges to the Dalton Utilities wastewater treatment plant, primarily from carpet manufacturers that use PFAS chemicals to treat their products. The majority of the wastewater treated by the Loopers Bend facility is from industrial sources, primarily carpet manufacturers. (USEPA, 2010)","regulation_gvt_link":"https://archive.epa.gov/pesticides/region4/water/documents/web/pdf/doc_i_qa_pfc_daltonga.pdf","resources_link":"https://archive.epa.gov/pesticides/region4/water/documents/web/html/pfcdaltonindex.html","suspected_source_link":"https://archive.epa.gov/pesticides/region4/water/documents/web/pdf/d_q_as_dalton_final_10_08_2010.pdf","pfas_testing_link":"https://archive.epa.gov/pesticides/region4/water/documents/web/pdf/d_fact_sheet_october_2010_dalton.pdf","site_ref_link":"https://drive.google.com/drive/u/0/folders/1bwxEJ9-bce0pNMr6uRJg6J9NJfH3JBuO","state_ref_link":"https://drive.google.com/drive/u/1/folders/1Vhg5uHT1BIQn1v8EPCjeorZ-9TPjUIz0","ObjectId":4}},{"type":"Feature","id":233,"geometry":{"type":"Point","coordinates":[-81.165345,32.017782]},"properties":{"site_name":"Savannah Air National Guard Base","other_site_names":"Savannah International Airport","state":"Georgia","industry":"Military","matrix_type":"Groundwater","matrix":"Groundwater","year":2017,"pfoa":"3,900","pfos":"110,000","total_pfas":137990,"pfas_level":137990,"notes":null,"regulation_gvt_link":null,"resources_link":null,"suspected_source_link":"https://ar.afcec-cloud.af.mil/Search.aspx","pfas_testing_link":"https://drive.google.com/file/d/14DPusO5JNmoPAlqA6C8wg3Ow86s7FDJX/view?usp=sharing","site_ref_link":null,"state_ref_link":null,"ObjectId":233}},{"type":"Feature","id":403,"geometry":{"type":"Point","coordinates":[-83.214549,30.97827]},"properties":{"site_name":"Moody Air Force Base","other_site_names":null,"state":"Georgia","industry":"Military","matrix_type":"Groundwater","matrix":"Groundwater","year":2016,"pfoa":"55,000","pfos":"320,000","total_pfas":665000,"pfas_level":665000,"notes":"AFFF used at Moody Air Force Base","regulation_gvt_link":"https://www.moody.af.mil/News/Article-Display/Article/1518804/moody-drinking-water-deemed-safe/","resources_link":"N/A","suspected_source_link":"https://drive.google.com/file/d/1EUMAiROzk8OxvPAWubv0xGGH9zI6mw4d/view?usp=drive_link ","pfas_testing_link":"https://drive.google.com/file/d/1ltcmw9FRFwcco-Tm272Qw61uRCHl9XDD/view?usp=sharing","site_ref_link":"https://drive.google.com/drive/folders/1ALF4Z7kYT_6e0fpSomAzZipUAVD34ihC","state_ref_link":"https://drive.google.com/drive/u/1/folders/1Vhg5uHT1BIQn1v8EPCjeorZ-9TPjUIz0","ObjectId":403}},{"type":"Feature","id":679,"geometry":{"type":"Point","coordinates":[-84.504645,33.918858]},"properties":{"site_name":"Air Force Plant 6","other_site_names":"Dobbins Air Reserve Base","state":"Georgia","industry":"Military","matrix_type":"Groundwater","matrix":"Groundwater","year":2018,"pfoa":"80,000","pfos":"41,000","total_pfas":121000,"pfas_level":121000,"notes":"AFFF used at Dobbins ARB and AF Plant 6, part of a 3336-acre military complex that includes Dobbins Air Reserve Base (DARB), the Atlanta Naval Air Station, the United States Army Reserve, and the Georgia Air National Guard. (AFCEC, 10.2018)","regulation_gvt_link":"N/A","resources_link":"N/A","suspected_source_link":"https://www.ajc.com/news/local/contaminated-groundwater-toxic-legacy-georgia-air-bases/sKLbYPA7ucd7ojDr5NvtFI/","pfas_testing_link":"https://drive.google.com/file/d/1G_WjDLThAGTK_v6bwzMpoUeeBl0VXOiH/view?usp=sharing","site_ref_link":"https://drive.google.com/drive/folders/1wYNTPgriLC4SHU_mN6X9u0dwR-UXAFgA","state_ref_link":"https://drive.google.com/drive/u/1/folders/1Vhg5uHT1BIQn1v8EPCjeorZ-9TPjUIz0","ObjectId":679}},{"type":"Feature","id":691,"geometry":{"type":"Point","coordinates":[-83.591719,32.640001]},"properties":{"site_name":"Robins Air Force Base","other_site_names":null,"state":"Georgia","industry":"Military","matrix_type":"Groundwater","matrix":"Groundwater","year":2018,"pfoa":"52,000","pfos":"250,000","total_pfas":null,"pfas_level":250000,"notes":null,"regulation_gvt_link":null,"resources_link":null,"suspected_source_link":"https://ar.afcec-cloud.af.mil/Search.aspx","pfas_testing_link":"https://drive.google.com/file/d/11OczwxsJrvH2k1RSPIUGLXM-3y-1ETOn/view?usp=sharing","site_ref_link":null,"state_ref_link":null,"ObjectId":691}},{"type":"Feature","id":692,"geometry":{"type":"Point","coordinates":[-83.591719,32.640001]},"properties":{"site_name":"Robins Air Force Base","other_site_names":null,"state":"Georgia","industry":"Military","matrix_type":"Groundwater","matrix":"Groundwater","year":2018,"pfoa":"41,000","pfos":"250,000","total_pfas":null,"pfas_level":276000,"notes":"AFFF used at Robins Air Force Base","regulation_gvt_link":"N/A","resources_link":"N/A","suspected_source_link":"https://drive.google.com/file/d/1EUMAiROzk8OxvPAWubv0xGGH9zI6mw4d/view?usp=drive_link ","pfas_testing_link":null,"site_ref_link":"https://drive.google.com/drive/folders/19lxnaxYS5IcIJoLM9sjhmy0Uvs2F3ft5","state_ref_link":"https://drive.google.com/drive/u/1/folders/1Vhg5uHT1BIQn1v8EPCjeorZ-9TPjUIz0","ObjectId":692}},{"type":"Feature","id":2208,"geometry":{"type":"Point","coordinates":[-84.936843,34.724218]},"properties":{"site_name":"Loopers Bend Wastewater Treatment Plant","other_site_names":null,"state":"Georgia","industry":"Industry","matrix_type":"Other Water","matrix":"Surface Water","year":2006,"pfoa":"1150","pfos":"320","total_pfas":null,"pfas_level":1470,"notes":"Industrial discharges to the Dalton Utilities wastewater treatment plant, primarily from carpet manufacturers that use PFAS chemicals to treat their products. The majority of the wastewater treated by the Loopers Bend facility is from industrial sources, primarily carpet manufacturers. (USEPA, 2010)","regulation_gvt_link":"https://archive.epa.gov/pesticides/region4/water/documents/web/pdf/doc_i_qa_pfc_daltonga.pdf","resources_link":"https://archive.epa.gov/pesticides/region4/water/documents/web/html/pfcdaltonindex.html","suspected_source_link":"https://archive.epa.gov/pesticides/region4/water/documents/web/pdf/d_q_as_dalton_final_10_08_2010.pdf","pfas_testing_link":"https://archive.epa.gov/pesticides/region4/water/documents/web/pdf/d_fact_sheet_october_2010_dalton.pdf","site_ref_link":"https://drive.google.com/drive/u/0/folders/1bwxEJ9-bce0pNMr6uRJg6J9NJfH3JBuO","state_ref_link":"https://drive.google.com/drive/u/1/folders/1Vhg5uHT1BIQn1v8EPCjeorZ-9TPjUIz0","ObjectId":2208}},{"type":"Feature","id":2209,"geometry":{"type":"Point","coordinates":[-83.214549,30.97827]},"properties":{"site_name":"Moody Air Force Base","other_site_names":null,"state":"Georgia","industry":"Military","matrix_type":"Groundwater","matrix":"Groundwater","year":2016,"pfoa":"55000","pfos":"320000","total_pfas":665000,"pfas_level":665000,"notes":"AFFF used at Moody Air Force Base","regulation_gvt_link":"https://www.moody.af.mil/News/Article-Display/Article/1518804/moody-drinking-water-deemed-safe/","resources_link":"N/A","suspected_source_link":"https://drive.google.com/file/d/1EUMAiROzk8OxvPAWubv0xGGH9zI6mw4d/view?usp=drive_link ","pfas_testing_link":"https://drive.google.com/file/d/1ltcmw9FRFwcco-Tm272Qw61uRCHl9XDD/view?usp=sharing","site_ref_link":"https://drive.google.com/drive/folders/1ALF4Z7kYT_6e0fpSomAzZipUAVD34ihC","state_ref_link":"https://drive.google.com/drive/u/1/folders/1Vhg5uHT1BIQn1v8EPCjeorZ-9TPjUIz0","ObjectId":2209}},{"type":"Feature","id":2210,"geometry":{"type":"Point","coordinates":[-83.591719,32.640001]},"properties":{"site_name":"Robins Air Force Base","other_site_names":null,"state":"Georgia","industry":"Military","matrix_type":"Groundwater","matrix":"Groundwater","year":2018,"pfoa":"41000","pfos":"250000","total_pfas":null,"pfas_level":276000,"notes":"AFFF used at Robins Air Force Base","regulation_gvt_link":"N/A","resources_link":"N/A","suspected_source_link":"https://drive.google.com/file/d/1EUMAiROzk8OxvPAWubv0xGGH9zI6mw4d/view?usp=drive_link ","pfas_testing_link":null,"site_ref_link":"https://drive.google.com/drive/folders/19lxnaxYS5IcIJoLM9sjhmy0Uvs2F3ft5","state_ref_link":"https://drive.google.com/drive/u/1/folders/1Vhg5uHT1BIQn1v8EPCjeorZ-9TPjUIz0","ObjectId":2210}},{"type":"Feature","id":2211,"geometry":{"type":"Point","coordinates":[-84.504645,33.918858]},"properties":{"site_name":"Air Force Plant 6","other_site_names":"Dobbins Air Reserve Base","state":"Georgia","industry":"Military","matrix_type":"Groundwater","matrix":"Groundwater","year":2018,"pfoa":"80000","pfos":"41000","total_pfas":121000,"pfas_level":121000,"notes":"AFFF used at Dobbins ARB and AF Plant 6, part of a 3336-acre military complex that includes Dobbins Air Reserve Base (DARB), the Atlanta Naval Air Station, the United States Army Reserve, and the Georgia Air National Guard. (AFCEC, 10.2018)","regulation_gvt_link":"N/A","resources_link":"N/A","suspected_source_link":"https://www.ajc.com/news/local/contaminated-groundwater-toxic-legacy-georgia-air-bases/sKLbYPA7ucd7ojDr5NvtFI/","pfas_testing_link":"https://drive.google.com/file/d/1G_WjDLThAGTK_v6bwzMpoUeeBl0VXOiH/view?usp=sharing","site_ref_link":"https://drive.google.com/drive/folders/1wYNTPgriLC4SHU_mN6X9u0dwR-UXAFgA","state_ref_link":"https://drive.google.com/drive/u/1/folders/1Vhg5uHT1BIQn1v8EPCjeorZ-9TPjUIz0","ObjectId":2211}},{"type":"Feature","id":2931,"geometry":{"type":"Point","coordinates":[-83.591719,32.640001]},"properties":{"site_name":"Robins Air Force Base","other_site_names":null,"state":"Georgia","industry":"Military","matrix_type":"Groundwater","matrix":"Groundwater","year":2018,"pfoa":"52000","pfos":"250000","total_pfas":null,"pfas_level":250000,"notes":null,"regulation_gvt_link":null,"resources_link":null,"suspected_source_link":"https://ar.afcec-cloud.af.mil/Search.aspx","pfas_testing_link":"https://drive.google.com/file/d/11OczwxsJrvH2k1RSPIUGLXM-3y-1ETOn/view?usp=sharing","site_ref_link":null,"state_ref_link":null,"ObjectId":2931}},{"type":"Feature","id":2932,"geometry":{"type":"Point","coordinates":[-81.165345,32.017782]},"properties":{"site_name":"Savannah Air National Guard Base","other_site_names":"Savannah International Airport","state":"Georgia","industry":"Military","matrix_type":"Groundwater","matrix":"Groundwater","year":2017,"pfoa":"3900","pfos":"110000","total_pfas":137990,"pfas_level":137990,"notes":null,"regulation_gvt_link":null,"resources_link":null,"suspected_source_link":"https://ar.afcec-cloud.af.mil/Search.aspx","pfas_testing_link":"https://drive.google.com/file/d/14DPusO5JNmoPAlqA6C8wg3Ow86s7FDJX/view?usp=sharing","site_ref_link":null,"state_ref_link":null,"ObjectId":2932}}]}