{"type":"FeatureCollection","crs":{"type":"name","properties":{"name":"EPSG:4326"}},"features":[{"type":"Feature","id":2,"geometry":{"type":"Point","coordinates":[-118.72421,39.420442]},"properties":{"site_name":"Naval Air Station Fallon","other_site_names":null,"state":"Nevada","industry":"Military","matrix_type":"Groundwater","matrix":"Groundwater","year":2004,"pfoa":"6,570,000","pfos":"380,000","total_pfas":8770000,"pfas_level":8770000,"notes":null,"regulation_gvt_link":null,"resources_link":null,"suspected_source_link":"https://www.navfac.navy.mil/products_and_services/ev/products_and_services/env_restoration/pfas_reading_room.html","pfas_testing_link":"https://drive.google.com/file/d/1GSZNN7V_kxlkSE4BMmHjQjwPyTye-ZL0/view?usp=sharing","site_ref_link":"https://drive.google.com/drive/u/0/folders/1fVbfYGONPwbH_dq9pL3l5BDrD7vyY0i9","state_ref_link":null,"ObjectId":2}},{"type":"Feature","id":94,"geometry":{"type":"Point","coordinates":[-115.054276,36.24063]},"properties":{"site_name":"Nellis Air Force Base","other_site_names":null,"state":"Nevada","industry":"Military","matrix_type":"Groundwater","matrix":"Groundwater","year":2016,"pfoa":"5,400","pfos":"42,000","total_pfas":null,"pfas_level":42000,"notes":"Highest PFAS results from Main Fire Station (Building 277)","regulation_gvt_link":null,"resources_link":null,"suspected_source_link":"https://ar.afcec-cloud.af.mil/Search.aspx","pfas_testing_link":"https://drive.google.com/file/d/1zDzsRljfu8eZVUgBTuwFBZS4Woj9rcLS/view?usp=sharing","site_ref_link":null,"state_ref_link":null,"ObjectId":94}},{"type":"Feature","id":684,"geometry":{"type":"Point","coordinates":[-119.776305,39.500194]},"properties":{"site_name":"Reno Tahoe Air National Guard Base","other_site_names":"Reno Tahoe International Airport","state":"Nevada","industry":"Military","matrix_type":"Groundwater","matrix":"Groundwater","year":2018,"pfoa":"9,700","pfos":"110,000","total_pfas":165400,"pfas_level":165400,"notes":"AFFF used by the Air National Guard 152nd Airlift Wing at Reno-Tahoe International Airport","regulation_gvt_link":"N/A","resources_link":"http://afcec.publicadmin-record.us.af.mil/","suspected_source_link":"https://ar.afcec-cloud.af.mil/Search.aspx","pfas_testing_link":"https://drive.google.com/file/d/1EYXDoUWPH3Kx385CspKjdCDixWRWsF_a/view?usp=sharing","site_ref_link":"https://drive.google.com/drive/u/0/folders/1lvM_geARDEUPHpDOnWAMqP5mnNUCVpTB","state_ref_link":"https://drive.google.com/drive/u/1/folders/16T7AAwOkxy__qYXVPNxFx6KTq-cGNhgd","ObjectId":684}},{"type":"Feature","id":1833,"geometry":{"type":"Point","coordinates":[-115.658209,36.578108]},"properties":{"site_name":"Creech Air Force Base","other_site_names":null,"state":"Nevada","industry":"Military","matrix_type":"Groundwater","matrix":"Groundwater","year":2021,"pfoa":"200","pfos":"21,000","total_pfas":null,"pfas_level":21000,"notes":null,"regulation_gvt_link":null,"resources_link":null,"suspected_source_link":"https://ar.afcec-cloud.af.mil/Search.aspx","pfas_testing_link":"https://drive.google.com/file/d/1GL6U5eUIPDDSL1vlcOE7amoVteShAj5G/view?usp=sharing","site_ref_link":null,"state_ref_link":null,"ObjectId":1833}},{"type":"Feature","id":2367,"geometry":{"type":"Point","coordinates":[-119.776305,39.500194]},"properties":{"site_name":"Reno Tahoe Air National Guard Base","other_site_names":"Reno Tahoe International Airport","state":"Nevada","industry":"Military","matrix_type":"Groundwater","matrix":"Groundwater","year":2018,"pfoa":"9700","pfos":"110000","total_pfas":165400,"pfas_level":165400,"notes":"AFFF used by the Air National Guard 152nd Airlift Wing at Reno-Tahoe International Airport","regulation_gvt_link":"N/A","resources_link":"http://afcec.publicadmin-record.us.af.mil/","suspected_source_link":"https://ar.afcec-cloud.af.mil/Search.aspx","pfas_testing_link":"https://drive.google.com/file/d/1EYXDoUWPH3Kx385CspKjdCDixWRWsF_a/view?usp=sharing","site_ref_link":"https://drive.google.com/drive/u/0/folders/1lvM_geARDEUPHpDOnWAMqP5mnNUCVpTB","state_ref_link":"https://drive.google.com/drive/u/1/folders/16T7AAwOkxy__qYXVPNxFx6KTq-cGNhgd","ObjectId":2367}},{"type":"Feature","id":2951,"geometry":{"type":"Point","coordinates":[-115.658209,36.578108]},"properties":{"site_name":"Creech Air Force Base","other_site_names":null,"state":"Nevada","industry":"Military","matrix_type":"Groundwater","matrix":"Groundwater","year":2021,"pfoa":"200","pfos":"21000","total_pfas":null,"pfas_level":21000,"notes":null,"regulation_gvt_link":null,"resources_link":null,"suspected_source_link":"https://ar.afcec-cloud.af.mil/Search.aspx","pfas_testing_link":"https://drive.google.com/file/d/1GL6U5eUIPDDSL1vlcOE7amoVteShAj5G/view?usp=sharing","site_ref_link":null,"state_ref_link":null,"ObjectId":2951}},{"type":"Feature","id":2952,"geometry":{"type":"Point","coordinates":[-118.72421,39.420442]},"properties":{"site_name":"Naval Air Station Fallon","other_site_names":null,"state":"Nevada","industry":"Military","matrix_type":"Groundwater","matrix":"Groundwater","year":2004,"pfoa":"6570000","pfos":"380000","total_pfas":8770000,"pfas_level":8770000,"notes":null,"regulation_gvt_link":null,"resources_link":null,"suspected_source_link":"https://www.navfac.navy.mil/products_and_services/ev/products_and_services/env_restoration/pfas_reading_room.html","pfas_testing_link":"https://drive.google.com/file/d/1GSZNN7V_kxlkSE4BMmHjQjwPyTye-ZL0/view?usp=sharing","site_ref_link":"https://drive.google.com/drive/u/0/folders/1fVbfYGONPwbH_dq9pL3l5BDrD7vyY0i9","state_ref_link":null,"ObjectId":2952}},{"type":"Feature","id":2953,"geometry":{"type":"Point","coordinates":[-115.054276,36.24063]},"properties":{"site_name":"Nellis Air Force Base","other_site_names":null,"state":"Nevada","industry":"Military","matrix_type":"Groundwater","matrix":"Groundwater","year":2016,"pfoa":"5400","pfos":"42000","total_pfas":null,"pfas_level":42000,"notes":"Highest PFAS results from Main Fire Station (Building 277)","regulation_gvt_link":null,"resources_link":null,"suspected_source_link":"https://ar.afcec-cloud.af.mil/Search.aspx","pfas_testing_link":"https://drive.google.com/file/d/1zDzsRljfu8eZVUgBTuwFBZS4Woj9rcLS/view?usp=sharing","site_ref_link":null,"state_ref_link":null,"ObjectId":2953}}]}