{"type":"FeatureCollection","crs":{"type":"name","properties":{"name":"EPSG:4326"}},"features":[{"type":"Feature","id":22,"geometry":{"type":"Point","coordinates":[-98.573997,29.382999]},"properties":{"site_name":"Kelly Air Force Base","other_site_names":null,"state":"Texas","industry":"Military","matrix_type":"Groundwater","matrix":"Groundwater","year":2014,"pfoa":"30,000","pfos":"5,800","total_pfas":110215,"pfas_level":110215,"notes":"AFFF used at Former Kelly Air Force Base","regulation_gvt_link":"N/A","resources_link":"https://ar.cce.af.mil/Search","suspected_source_link":"https://drive.google.com/file/d/1EUMAiROzk8OxvPAWubv0xGGH9zI6mw4d/view?usp=drive_link ","pfas_testing_link":"https://drive.google.com/file/d/1EUMAiROzk8OxvPAWubv0xGGH9zI6mw4d/view?usp=drive_link ","site_ref_link":"https://drive.google.com/drive/u/1/folders/1fYDQFe4UWFk2YQGKTr3XuP00Dglemjs9?ths=true","state_ref_link":"https://drive.google.com/drive/u/0/folders/1LpxTlKqi7W0TyhphKUsU2SufsFXHckZC","ObjectId":22}},{"type":"Feature","id":91,"geometry":{"type":"Point","coordinates":[-97.666353,30.197471]},"properties":{"site_name":"Bergstrom Air Force Base","other_site_names":null,"state":"Texas","industry":"Military","matrix_type":"Groundwater","matrix":"Groundwater","year":2016,"pfoa":"2,260","pfos":"1,980","total_pfas":11869,"pfas_level":11869,"notes":"AFFF used at Former Bergstrom Air Force Base from 1942 to 1991 (Air Force 06.30.2016)","regulation_gvt_link":"N/A","resources_link":"https://ar.cce.af.mil/Search","suspected_source_link":"https://drive.google.com/file/d/1EUMAiROzk8OxvPAWubv0xGGH9zI6mw4d/view?usp=drive_link ","pfas_testing_link":"https://drive.google.com/file/d/1qI2WMukKonzoWG9rIgtL9KDpvAKOlX7V/view?usp=sharing","site_ref_link":"https://drive.google.com/drive/u/1/folders/1Hy8bzJShXQU2kAGlPt0t96HFiDJEmWl6?ths=true","state_ref_link":"https://drive.google.com/drive/u/0/folders/1LpxTlKqi7W0TyhphKUsU2SufsFXHckZC","ObjectId":91}},{"type":"Feature","id":227,"geometry":{"type":"Point","coordinates":[-100.401092,31.435914]},"properties":{"site_name":"Goodfellow Air Force Base","other_site_names":null,"state":"Texas","industry":"Military","matrix_type":"Solid","matrix":"Soil","year":2017,"pfoa":"14,000","pfos":"110,000","total_pfas":null,"pfas_level":110000,"notes":null,"regulation_gvt_link":null,"resources_link":null,"suspected_source_link":"https://ar.afcec-cloud.af.mil/Search.aspx","pfas_testing_link":"https://drive.google.com/file/d/1INGeuxzKllo8qIA0V-SqfXa1i1CH81Ey/view?usp=sharing","site_ref_link":null,"state_ref_link":null,"ObjectId":227}},{"type":"Feature","id":247,"geometry":{"type":"Point","coordinates":[-98.281475,29.524905]},"properties":{"site_name":"Joint Base San Antonio - Randolph Air Force Base","other_site_names":null,"state":"Texas","industry":"Military","matrix_type":"Groundwater","matrix":"Groundwater","year":2017,"pfoa":"62,000","pfos":"120,000","total_pfas":486310,"pfas_level":486310,"notes":"AFFF used at Randolph Air Force Base","regulation_gvt_link":"N/A","resources_link":"https://ar.cce.af.mil/Search","suspected_source_link":"https://drive.google.com/file/d/1EUMAiROzk8OxvPAWubv0xGGH9zI6mw4d/view?usp=drive_link ","pfas_testing_link":"https://drive.google.com/file/d/1FRofumnzFr5iS8_TxeZ1zQDYWBunPbZP/view?usp=sharing","site_ref_link":"https://drive.google.com/drive/u/1/folders/12_w4Abh0IytrZxslv_FrAn1ET7hsATHz?ths=true","state_ref_link":"https://drive.google.com/drive/u/0/folders/1LpxTlKqi7W0TyhphKUsU2SufsFXHckZC","ObjectId":247}},{"type":"Feature","id":255,"geometry":{"type":"Point","coordinates":[-98.61791,29.386208]},"properties":{"site_name":"Joint Base San Antonio - Lackland Air Force Base","other_site_names":null,"state":"Texas","industry":"Military","matrix_type":"Groundwater","matrix":"Groundwater","year":2017,"pfoa":"130,000","pfos":"680,000","total_pfas":842000,"pfas_level":842000,"notes":"AFFF used at Lackland Air Force Base","regulation_gvt_link":"N/A","resources_link":"https://ar.cce.af.mil/Search","suspected_source_link":"https://drive.google.com/file/d/1EUMAiROzk8OxvPAWubv0xGGH9zI6mw4d/view?usp=drive_link ","pfas_testing_link":"https://drive.google.com/file/d/1TTZ32rYuOHDPnbvUh9b9CWqnD1BLwgQJ/view?usp=sharing","site_ref_link":"https://drive.google.com/drive/u/1/folders/1bPHe0dQGjkU4_ToqEMtiw5TsclmkYoqC?ths=true","state_ref_link":"https://drive.google.com/drive/u/0/folders/1LpxTlKqi7W0TyhphKUsU2SufsFXHckZC","ObjectId":255}},{"type":"Feature","id":290,"geometry":{"type":"Point","coordinates":[-98.9575152497413,31.6582552815311]},"properties":{"site_name":"Camp Bowie-Musgrave","other_site_names":null,"state":"Texas","industry":"Military","matrix_type":"Other Water","matrix":"Drinking Water","year":2018,"pfoa":"1","pfos":null,"total_pfas":3,"pfas_level":3,"notes":null,"regulation_gvt_link":null,"resources_link":null,"suspected_source_link":"https://drive.google.com/file/d/1g1t60FsMLcfluvkLqorqlbsHnkF_rNZw/view?usp=sharing","pfas_testing_link":"https://drive.google.com/file/d/1g1t60FsMLcfluvkLqorqlbsHnkF_rNZw/view?usp=sharing","site_ref_link":"https://drive.google.com/drive/u/0/folders/17vc5JX3Gvo92Bih-kg-GABnBbExIJhXg","state_ref_link":"https://drive.google.com/drive/u/0/folders/1LpxTlKqi7W0TyhphKUsU2SufsFXHckZC","ObjectId":290}},{"type":"Feature","id":447,"geometry":{"type":"Point","coordinates":[-96.253076,29.172312]},"properties":{"site_name":"Army National Guard El Campo Readiness Center","other_site_names":null,"state":"Texas","industry":"Military","matrix_type":"Groundwater","matrix":"Groundwater","year":2017,"pfoa":null,"pfos":null,"total_pfas":null,"pfas_level":79,"notes":"AFFF used at Army National Guard El Campo Readiness Center","regulation_gvt_link":"https://tmd.texas.gov/texas-army-national-guard-addressing-water-issue-at-el-campo-armory","resources_link":"https://tmd.texas.gov/texas-army-national-guard-addressing-water-issue-at-el-campo-armory","suspected_source_link":"https://drive.google.com/file/d/1EUMAiROzk8OxvPAWubv0xGGH9zI6mw4d/view?usp=drive_link ","pfas_testing_link":"https://drive.google.com/file/d/1EUMAiROzk8OxvPAWubv0xGGH9zI6mw4d/view?usp=drive_link ","site_ref_link":"https://drive.google.com/drive/u/1/folders/1hYNi_t_JK6qej2mx-m_xqJe34bGQmJNn?ths=true","state_ref_link":"https://drive.google.com/drive/u/0/folders/1LpxTlKqi7W0TyhphKUsU2SufsFXHckZC","ObjectId":447}},{"type":"Feature","id":613,"geometry":{"type":"Point","coordinates":[-102.029749,33.593578]},"properties":{"site_name":"Reese Air Force Base","other_site_names":null,"state":"Texas","industry":"Military","matrix_type":"Groundwater","matrix":"Groundwater","year":2018,"pfoa":"5,460","pfos":"1,820","total_pfas":5633,"pfas_level":7280,"notes":"AFFF used at Former Reese Air Force Base","regulation_gvt_link":"https://www.afcec.af.mil/News/Article-Display/Article/2030669/air-force-taking-next-steps-to-address-pfas-at-former-reese-afb/","resources_link":"https://ar.cce.af.mil/Search","suspected_source_link":"Stegall, 01.19.2018 - U.S. Air Force finds 20 contaminated water wells at former Reese Air Force Base","pfas_testing_link":"https://www.agri-pulse.com/ext/resources/pdfs/congress/STATUS-OF-NOTIFICATIONS-TO-AGRICULTURAL-OPERATIONS-PURSUANT-TO-SECTION-335-OF-THE-FISCAL-YEAR-2021-NATIONAL-DEFENSE-AUTHORIZATION-ACT-1.pdf","site_ref_link":"https://drive.google.com/drive/u/1/folders/11c1X0qOOC6Y9PtwDH7RylKpSRA2Dp5EH?ths=true","state_ref_link":"https://drive.google.com/drive/u/0/folders/1LpxTlKqi7W0TyhphKUsU2SufsFXHckZC","ObjectId":613}},{"type":"Feature","id":664,"geometry":{"type":"Point","coordinates":[-100.783083,29.356558]},"properties":{"site_name":"Laughlin Air Force Base","other_site_names":null,"state":"Texas","industry":"Military","matrix_type":"Groundwater","matrix":"Groundwater","year":2018,"pfoa":"7,300","pfos":"20,000","total_pfas":67850,"pfas_level":67850,"notes":"AFFF used at Laughlin Air Force Base","regulation_gvt_link":"N/A","resources_link":"https://ar.cce.af.mil/Search","suspected_source_link":null,"pfas_testing_link":"https://www.laughlin.af.mil/News/Article-Display/Article/1890695/laughlin-water-report-released/","site_ref_link":"https://drive.google.com/drive/u/0/folders/1BiHkwHDb2KEyLHz8zfx2vQ-DkTVwKeqb","state_ref_link":"https://drive.google.com/drive/u/0/folders/1LpxTlKqi7W0TyhphKUsU2SufsFXHckZC","ObjectId":664}},{"type":"Feature","id":674,"geometry":{"type":"Point","coordinates":[-95.175713,29.607611]},"properties":{"site_name":"Ellington Field Joint Reserve Base","other_site_names":null,"state":"Texas","industry":"Military","matrix_type":"Groundwater","matrix":"Groundwater","year":2018,"pfoa":"14,000","pfos":"47,000","total_pfas":94710,"pfas_level":94710,"notes":"AFFF used at Ellington Field Joint Reserve Base","regulation_gvt_link":"N/A","resources_link":"https://ar.cce.af.mil/Search","suspected_source_link":"https://ar.afcec-cloud.af.mil/Search.aspx","pfas_testing_link":"https://drive.google.com/drive/u/0/folders/168d21heZdnylQT7_ipiytsFPEUJGWSlp","site_ref_link":"https://drive.google.com/drive/u/0/folders/168d21heZdnylQT7_ipiytsFPEUJGWSlp","state_ref_link":"https://drive.google.com/drive/u/0/folders/1LpxTlKqi7W0TyhphKUsU2SufsFXHckZC","ObjectId":674}},{"type":"Feature","id":740,"geometry":{"type":"Point","coordinates":[-96.269618,29.210768]},"properties":{"site_name":"El Campo Fire Training Site","other_site_names":null,"state":"Texas","industry":"Military","matrix_type":"Other Water","matrix":"Drinking Water","year":2018,"pfoa":"62","pfos":"70","total_pfas":241,"pfas_level":241,"notes":null,"regulation_gvt_link":null,"resources_link":null,"suspected_source_link":"https://drive.google.com/file/d/1g1t60FsMLcfluvkLqorqlbsHnkF_rNZw/view?usp=sharing","pfas_testing_link":"https://drive.google.com/file/d/1g1t60FsMLcfluvkLqorqlbsHnkF_rNZw/view?usp=sharing","site_ref_link":"https://drive.google.com/drive/u/0/folders/17vc5JX3Gvo92Bih-kg-GABnBbExIJhXg","state_ref_link":"https://drive.google.com/drive/u/0/folders/1LpxTlKqi7W0TyhphKUsU2SufsFXHckZC","ObjectId":740}},{"type":"Feature","id":807,"geometry":{"type":"Point","coordinates":[-97.445707,32.774768]},"properties":{"site_name":"Air Force Plant 4","other_site_names":"Air Force Plant #4 (General Dynamics)","state":"Texas","industry":"Military","matrix_type":"Groundwater","matrix":"Groundwater","year":2018,"pfoa":"200,000","pfos":"80,000","total_pfas":881200,"pfas_level":881200,"notes":null,"regulation_gvt_link":null,"resources_link":null,"suspected_source_link":"https://ar.afcec-cloud.af.mil/Search.aspx","pfas_testing_link":"https://drive.google.com/file/d/1hwPMIGgj0FnVHDurNtqqYHrGO8fc8Rs-/view?usp=sharing","site_ref_link":null,"state_ref_link":null,"ObjectId":807}},{"type":"Feature","id":813,"geometry":{"type":"Point","coordinates":[-99.845386,32.419105]},"properties":{"site_name":"Dyess Air Force Base","other_site_names":null,"state":"Texas","industry":"Military","matrix_type":"Groundwater","matrix":"Groundwater","year":2018,"pfoa":"384,000","pfos":"64,200","total_pfas":2052000,"pfas_level":2052000,"notes":"AFFF used at Dyess Air Force Base","regulation_gvt_link":"N/A","resources_link":"https://ar.cce.af.mil/Search","suspected_source_link":null,"pfas_testing_link":"https://drive.google.com/file/d/14v0Gw83WMACl3zuiR8YISOcOpxefzSM0/view?usp=sharing","site_ref_link":"https://drive.google.com/drive/u/0/folders/1k8GDm-TuKsemAvhUhH8Wr3nWPZZccO3M","state_ref_link":"https://drive.google.com/drive/u/0/folders/1LpxTlKqi7W0TyhphKUsU2SufsFXHckZC","ObjectId":813}},{"type":"Feature","id":815,"geometry":{"type":"Point","coordinates":[-98.510735,33.968572]},"properties":{"site_name":"Sheppard Air Force Base","other_site_names":null,"state":"Texas","industry":"Military","matrix_type":"Groundwater","matrix":"Groundwater","year":2018,"pfoa":"140,000","pfos":"550,000","total_pfas":3502600,"pfas_level":3502600,"notes":"AFFF used at Sheppard Air Force Base","regulation_gvt_link":"N/A","resources_link":"https://ar.cce.af.mil/Search","suspected_source_link":null,"pfas_testing_link":"https://drive.google.com/file/d/1NpBfLXjtuz4-s8jgx5OaDLpLp_8iIjgp/view?usp=sharing","site_ref_link":"https://drive.google.com/drive/u/0/folders/1qwhcJ_G-q5dfNs4tEfFz0QeNupltkJjo","state_ref_link":"https://drive.google.com/drive/u/0/folders/1LpxTlKqi7W0TyhphKUsU2SufsFXHckZC","ObjectId":815}},{"type":"Feature","id":1011,"geometry":{"type":"Point","coordinates":[-94.123339,32.665]},"properties":{"site_name":"Longhorn Army Ammunition Plant","other_site_names":null,"state":"Texas","industry":"Military","matrix_type":"Groundwater","matrix":"Groundwater","year":2022,"pfoa":"620","pfos":"42","total_pfas":640,"pfas_level":640,"notes":null,"regulation_gvt_link":"https://cumulis.epa.gov/supercpad/SiteProfiles/index.cfm?fuseaction=second.schedule&id=0603606","resources_link":null,"suspected_source_link":"https://cumulis.epa.gov/supercpad/cursites/csitinfo.cfm?id=0603606","pfas_testing_link":"https://aec.army.mil/Portals/115/PFAS/LHAAP_PFAS_PASI.pdf?ver=6cSdnW7-GNtuX1M9AnDDcQ%3D%3D","site_ref_link":"https://drive.google.com/drive/folders/1l3VGuq41KSviOEXIoMpJFWkYFVnr7AjL?usp=drive_link","state_ref_link":"https://drive.google.com/drive/folders/1dDmmmNwBve_x7Cad9OV0w37XO2Tw1mDa?usp=drive_link","ObjectId":1011}},{"type":"Feature","id":1016,"geometry":{"type":"Point","coordinates":[-96.769485,32.687886]},"properties":{"site_name":"Lane Plating Works, Inc","other_site_names":null,"state":"Texas","industry":"Industry","matrix_type":"Groundwater","matrix":"Groundwater","year":2022,"pfoa":"3","pfos":"986","total_pfas":1206,"pfas_level":1206,"notes":null,"regulation_gvt_link":"https://semspub.epa.gov/work/06/100032450.pdf","resources_link":null,"suspected_source_link":"https://cumulis.epa.gov/supercpad/SiteProfiles/index.cfm?fuseaction=second.cleanup&id=0605240","pfas_testing_link":"https://semspub.epa.gov/work/06/100032207.pdf","site_ref_link":"https://drive.google.com/file/d/1Y1XlQi4dw5RcErrmvyHloOxMf3ZQRtF7/view?usp=drive_link","state_ref_link":"https://drive.google.com/drive/folders/1dDmmmNwBve_x7Cad9OV0w37XO2Tw1mDa?usp=drive_link","ObjectId":1016}},{"type":"Feature","id":1308,"geometry":{"type":"Point","coordinates":[-95.09609,29.734041]},"properties":{"site_name":"Intercontinental Terminals Company","other_site_names":null,"state":"Texas","industry":"Industry","matrix_type":"Groundwater","matrix":"Groundwater","year":2019,"pfoa":null,"pfos":null,"total_pfas":46000,"pfas_level":46000,"notes":"AFFF used to put out March 17, 2019 fire at the Intercontinental Terminals Company (Deer Park Emergency Services 4.12.2019)","regulation_gvt_link":"N/A","resources_link":"https://ar.cce.af.mil/Search","suspected_source_link":"https://galvbay.org/environmental-impacts-of-itc-fire-what-galveston-bay-foundation-has-found/","pfas_testing_link":"https://galvbay.org/environmental-impacts-of-itc-fire-what-galveston-bay-foundation-has-found/","site_ref_link":"https://drive.google.com/drive/u/1/folders/10vtrL6nFYz6aMFVnTpHCwQ6zMLeVUR3r?ths=true","state_ref_link":"https://drive.google.com/drive/u/0/folders/1LpxTlKqi7W0TyhphKUsU2SufsFXHckZC","ObjectId":1308}},{"type":"Feature","id":1703,"geometry":{"type":"Point","coordinates":[-97.140764,32.791785]},"properties":{"site_name":"Synagro of Texas-CDR Inc.","other_site_names":null,"state":"Texas","industry":"Waste","matrix_type":"Other Water","matrix":"Surface Water","year":2024,"pfoa":null,"pfos":null,"total_pfas":1300000,"pfas_level":1300000,"notes":"The drinking water wells on the farms suing Synagro showed PFAS levels of 90,900 ppt and 268,200 ppt respectively, with a separate well on the same property measuring 192,710 ppt. Surface water on the plaintiffs' properties ranged from 84,700 ppt to 1.3 million ppt of PFAS contamination.","regulation_gvt_link":null,"resources_link":null,"suspected_source_link":"https://www.dtnpf.com/agriculture/web/ag/crops/article/2024/02/20/texas-farms-detail-pfas-lawsuit#:~:text=The%20Synagro%20biosolids%20product%20was,took%20from%20the%20plaintiffs'%20properties.","pfas_testing_link":null,"site_ref_link":"https://drive.google.com/drive/u/2/folders/1evu8NnsU4Bc24FlGaniOSuBztMN2hDcN","state_ref_link":"https://drive.google.com/drive/u/2/folders/1LpxTlKqi7W0TyhphKUsU2SufsFXHckZC","ObjectId":1703}},{"type":"Feature","id":2104,"geometry":{"type":"Point","coordinates":[-97.663471,28.373158]},"properties":{"site_name":"Chase Field Naval Air Station","other_site_names":null,"state":"Texas","industry":"Military","matrix_type":"Groundwater","matrix":"Groundwater","year":null,"pfoa":"9,330","pfos":"1,470","total_pfas":null,"pfas_level":9330,"notes":null,"regulation_gvt_link":null,"resources_link":null,"suspected_source_link":null,"pfas_testing_link":"https://www.agri-pulse.com/ext/resources/pdfs/congress/STATUS-OF-NOTIFICATIONS-TO-AGRICULTURAL-OPERATIONS-PURSUANT-TO-SECTION-335-OF-THE-FISCAL-YEAR-2021-NATIONAL-DEFENSE-AUTHORIZATION-ACT-1.pdf","site_ref_link":null,"state_ref_link":null,"ObjectId":2104}},{"type":"Feature","id":2126,"geometry":{"type":"Point","coordinates":[-97.289114,27.693548]},"properties":{"site_name":"Corpus Christi Texas Naval Air Station","other_site_names":null,"state":"Texas","industry":"Military","matrix_type":"Groundwater","matrix":"Groundwater","year":null,"pfoa":"358,000","pfos":"155,000","total_pfas":null,"pfas_level":358000,"notes":"AFFF used at Corpus Christi Texas Naval Air Station","regulation_gvt_link":"N/A","resources_link":"https://www.cnic.navy.mil/content/cnic/cnic_hq/regions/cnrse/installations/nas_corpus_christi/om/environmental_support/pfas-drinking-water-investigation/_jcr_content/par1/pdfdownload_672100962/file.res/CorpusChristi_Fact%20Sheet_012420%20(compatible).pdf","suspected_source_link":"https://drive.google.com/file/d/1EUMAiROzk8OxvPAWubv0xGGH9zI6mw4d/view?usp=drive_link ","pfas_testing_link":"https://www.agri-pulse.com/ext/resources/pdfs/congress/STATUS-OF-NOTIFICATIONS-TO-AGRICULTURAL-OPERATIONS-PURSUANT-TO-SECTION-335-OF-THE-FISCAL-YEAR-2021-NATIONAL-DEFENSE-AUTHORIZATION-ACT-1.pdf","site_ref_link":"https://drive.google.com/drive/u/0/folders/1txRyEgSeGmOwantra-oLC82Ma1Eu-lzm","state_ref_link":"https://drive.google.com/drive/u/0/folders/1LpxTlKqi7W0TyhphKUsU2SufsFXHckZC","ObjectId":2126}},{"type":"Feature","id":2130,"geometry":{"type":"Point","coordinates":[-96.97,32.74]},"properties":{"site_name":"Grand Prairie Armed Forces Reserve Complex","other_site_names":"Former Naval Air Station Dallas","state":"Texas","industry":"Military","matrix_type":"Groundwater","matrix":"Groundwater","year":null,"pfoa":"124,331","pfos":"1,200,000","total_pfas":null,"pfas_level":1247000,"notes":"AFFF used at Grand Prairie Armed Forces Reserve Complex (Former NAS Dallas)","regulation_gvt_link":"N/A","resources_link":"https://www.tceq.texas.gov/drinkingwater/drinkwaterconcerns.html","suspected_source_link":"https://drive.google.com/file/d/1EUMAiROzk8OxvPAWubv0xGGH9zI6mw4d/view?usp=drive_link ","pfas_testing_link":"https://www.agri-pulse.com/ext/resources/pdfs/congress/STATUS-OF-NOTIFICATIONS-TO-AGRICULTURAL-OPERATIONS-PURSUANT-TO-SECTION-335-OF-THE-FISCAL-YEAR-2021-NATIONAL-DEFENSE-AUTHORIZATION-ACT-1.pdf","site_ref_link":"https://drive.google.com/drive/u/0/folders/1XewguT_JZ4SRSco0JAYv8FXMALDxAsyC","state_ref_link":"https://drive.google.com/drive/u/0/folders/1LpxTlKqi7W0TyhphKUsU2SufsFXHckZC","ObjectId":2130}},{"type":"Feature","id":2409,"geometry":{"type":"Point","coordinates":[-96.253076,29.172312]},"properties":{"site_name":"Army National Guard El Campo Readiness Center","other_site_names":null,"state":"Texas","industry":"Military","matrix_type":"Groundwater","matrix":"Groundwater","year":2017,"pfoa":null,"pfos":null,"total_pfas":null,"pfas_level":79,"notes":"AFFF used at Army National Guard El Campo Readiness Center","regulation_gvt_link":"https://tmd.texas.gov/texas-army-national-guard-addressing-water-issue-at-el-campo-armory","resources_link":"https://tmd.texas.gov/texas-army-national-guard-addressing-water-issue-at-el-campo-armory","suspected_source_link":"https://drive.google.com/file/d/1EUMAiROzk8OxvPAWubv0xGGH9zI6mw4d/view?usp=drive_link ","pfas_testing_link":"https://drive.google.com/file/d/1EUMAiROzk8OxvPAWubv0xGGH9zI6mw4d/view?usp=drive_link ","site_ref_link":"https://drive.google.com/drive/u/1/folders/1hYNi_t_JK6qej2mx-m_xqJe34bGQmJNn?ths=true","state_ref_link":"https://drive.google.com/drive/u/0/folders/1LpxTlKqi7W0TyhphKUsU2SufsFXHckZC","ObjectId":2409}},{"type":"Feature","id":2410,"geometry":{"type":"Point","coordinates":[-97.289114,27.693548]},"properties":{"site_name":"Corpus Christi Texas Naval Air Station","other_site_names":null,"state":"Texas","industry":"Military","matrix_type":"Groundwater","matrix":"Groundwater","year":null,"pfoa":"358000","pfos":"155000","total_pfas":null,"pfas_level":358000,"notes":"AFFF used at Corpus Christi Texas Naval Air Station","regulation_gvt_link":"N/A","resources_link":"https://www.cnic.navy.mil/content/cnic/cnic_hq/regions/cnrse/installations/nas_corpus_christi/om/environmental_support/pfas-drinking-water-investigation/_jcr_content/par1/pdfdownload_672100962/file.res/CorpusChristi_Fact%20Sheet_012420%20(compatible).pdf","suspected_source_link":"https://drive.google.com/file/d/1EUMAiROzk8OxvPAWubv0xGGH9zI6mw4d/view?usp=drive_link ","pfas_testing_link":"https://www.agri-pulse.com/ext/resources/pdfs/congress/STATUS-OF-NOTIFICATIONS-TO-AGRICULTURAL-OPERATIONS-PURSUANT-TO-SECTION-335-OF-THE-FISCAL-YEAR-2021-NATIONAL-DEFENSE-AUTHORIZATION-ACT-1.pdf","site_ref_link":"https://drive.google.com/drive/u/0/folders/1txRyEgSeGmOwantra-oLC82Ma1Eu-lzm","state_ref_link":"https://drive.google.com/drive/u/0/folders/1LpxTlKqi7W0TyhphKUsU2SufsFXHckZC","ObjectId":2410}},{"type":"Feature","id":2411,"geometry":{"type":"Point","coordinates":[-96.97,32.74]},"properties":{"site_name":"Grand Prairie Armed Forces Reserve Complex","other_site_names":"Former Naval Air Station Dallas","state":"Texas","industry":"Military","matrix_type":"Groundwater","matrix":"Groundwater","year":null,"pfoa":"124331","pfos":"1200000","total_pfas":null,"pfas_level":1247000,"notes":"AFFF used at Grand Prairie Armed Forces Reserve Complex (Former NAS Dallas)","regulation_gvt_link":"N/A","resources_link":"https://www.tceq.texas.gov/drinkingwater/drinkwaterconcerns.html","suspected_source_link":"https://drive.google.com/file/d/1EUMAiROzk8OxvPAWubv0xGGH9zI6mw4d/view?usp=drive_link ","pfas_testing_link":"https://www.agri-pulse.com/ext/resources/pdfs/congress/STATUS-OF-NOTIFICATIONS-TO-AGRICULTURAL-OPERATIONS-PURSUANT-TO-SECTION-335-OF-THE-FISCAL-YEAR-2021-NATIONAL-DEFENSE-AUTHORIZATION-ACT-1.pdf","site_ref_link":"https://drive.google.com/drive/u/0/folders/1XewguT_JZ4SRSco0JAYv8FXMALDxAsyC","state_ref_link":"https://drive.google.com/drive/u/0/folders/1LpxTlKqi7W0TyhphKUsU2SufsFXHckZC","ObjectId":2411}},{"type":"Feature","id":2412,"geometry":{"type":"Point","coordinates":[-98.61791,29.386208]},"properties":{"site_name":"Joint Base San Antonio - Lackland Air Force Base","other_site_names":null,"state":"Texas","industry":"Military","matrix_type":"Groundwater","matrix":"Groundwater","year":2017,"pfoa":"130000","pfos":"680000","total_pfas":842000,"pfas_level":842000,"notes":"AFFF used at Lackland Air Force Base","regulation_gvt_link":"N/A","resources_link":"https://ar.cce.af.mil/Search","suspected_source_link":"https://drive.google.com/file/d/1EUMAiROzk8OxvPAWubv0xGGH9zI6mw4d/view?usp=drive_link ","pfas_testing_link":"https://drive.google.com/file/d/1TTZ32rYuOHDPnbvUh9b9CWqnD1BLwgQJ/view?usp=sharing","site_ref_link":"https://drive.google.com/drive/u/1/folders/1bPHe0dQGjkU4_ToqEMtiw5TsclmkYoqC?ths=true","state_ref_link":"https://drive.google.com/drive/u/0/folders/1LpxTlKqi7W0TyhphKUsU2SufsFXHckZC","ObjectId":2412}},{"type":"Feature","id":2413,"geometry":{"type":"Point","coordinates":[-98.281475,29.524905]},"properties":{"site_name":"Joint Base San Antonio - Randolph Air Force Base","other_site_names":null,"state":"Texas","industry":"Military","matrix_type":"Groundwater","matrix":"Groundwater","year":2017,"pfoa":"62000","pfos":"120000","total_pfas":486310,"pfas_level":486310,"notes":"AFFF used at Randolph Air Force Base","regulation_gvt_link":"N/A","resources_link":"https://ar.cce.af.mil/Search","suspected_source_link":"https://drive.google.com/file/d/1EUMAiROzk8OxvPAWubv0xGGH9zI6mw4d/view?usp=drive_link ","pfas_testing_link":"https://drive.google.com/file/d/1FRofumnzFr5iS8_TxeZ1zQDYWBunPbZP/view?usp=sharing","site_ref_link":"https://drive.google.com/drive/u/1/folders/12_w4Abh0IytrZxslv_FrAn1ET7hsATHz?ths=true","state_ref_link":"https://drive.google.com/drive/u/0/folders/1LpxTlKqi7W0TyhphKUsU2SufsFXHckZC","ObjectId":2413}},{"type":"Feature","id":2414,"geometry":{"type":"Point","coordinates":[-98.573997,29.382999]},"properties":{"site_name":"Kelly Air Force Base","other_site_names":null,"state":"Texas","industry":"Military","matrix_type":"Groundwater","matrix":"Groundwater","year":2014,"pfoa":"30000","pfos":"5800","total_pfas":110215,"pfas_level":110215,"notes":"AFFF used at Former Kelly Air Force Base","regulation_gvt_link":"N/A","resources_link":"https://ar.cce.af.mil/Search","suspected_source_link":"https://drive.google.com/file/d/1EUMAiROzk8OxvPAWubv0xGGH9zI6mw4d/view?usp=drive_link ","pfas_testing_link":"https://drive.google.com/file/d/1EUMAiROzk8OxvPAWubv0xGGH9zI6mw4d/view?usp=drive_link ","site_ref_link":"https://drive.google.com/drive/u/1/folders/1fYDQFe4UWFk2YQGKTr3XuP00Dglemjs9?ths=true","state_ref_link":"https://drive.google.com/drive/u/0/folders/1LpxTlKqi7W0TyhphKUsU2SufsFXHckZC","ObjectId":2414}},{"type":"Feature","id":2415,"geometry":{"type":"Point","coordinates":[-102.029749,33.593578]},"properties":{"site_name":"Reese Air Force Base","other_site_names":null,"state":"Texas","industry":"Military","matrix_type":"Groundwater","matrix":"Groundwater","year":2018,"pfoa":"5460","pfos":"1820","total_pfas":5633,"pfas_level":7280,"notes":"AFFF used at Former Reese Air Force Base","regulation_gvt_link":"https://www.afcec.af.mil/News/Article-Display/Article/2030669/air-force-taking-next-steps-to-address-pfas-at-former-reese-afb/","resources_link":"https://ar.cce.af.mil/Search","suspected_source_link":"Stegall, 01.19.2018 - U.S. Air Force finds 20 contaminated water wells at former Reese Air Force Base","pfas_testing_link":"https://www.agri-pulse.com/ext/resources/pdfs/congress/STATUS-OF-NOTIFICATIONS-TO-AGRICULTURAL-OPERATIONS-PURSUANT-TO-SECTION-335-OF-THE-FISCAL-YEAR-2021-NATIONAL-DEFENSE-AUTHORIZATION-ACT-1.pdf","site_ref_link":"https://drive.google.com/drive/u/1/folders/11c1X0qOOC6Y9PtwDH7RylKpSRA2Dp5EH?ths=true","state_ref_link":"https://drive.google.com/drive/u/0/folders/1LpxTlKqi7W0TyhphKUsU2SufsFXHckZC","ObjectId":2415}},{"type":"Feature","id":2416,"geometry":{"type":"Point","coordinates":[-95.09609,29.734041]},"properties":{"site_name":"Intercontinental Terminals Company","other_site_names":null,"state":"Texas","industry":"Industry","matrix_type":"Groundwater","matrix":"Groundwater","year":2019,"pfoa":null,"pfos":null,"total_pfas":46000,"pfas_level":46000,"notes":"AFFF used to put out March 17, 2019 fire at the Intercontinental Terminals Company (Deer Park Emergency Services 4.12.2019)","regulation_gvt_link":"N/A","resources_link":"https://ar.cce.af.mil/Search","suspected_source_link":"https://galvbay.org/environmental-impacts-of-itc-fire-what-galveston-bay-foundation-has-found/","pfas_testing_link":"https://galvbay.org/environmental-impacts-of-itc-fire-what-galveston-bay-foundation-has-found/","site_ref_link":"https://drive.google.com/drive/u/1/folders/10vtrL6nFYz6aMFVnTpHCwQ6zMLeVUR3r?ths=true","state_ref_link":"https://drive.google.com/drive/u/0/folders/1LpxTlKqi7W0TyhphKUsU2SufsFXHckZC","ObjectId":2416}},{"type":"Feature","id":2417,"geometry":{"type":"Point","coordinates":[-97.666353,30.197471]},"properties":{"site_name":"Bergstrom Air Force Base","other_site_names":null,"state":"Texas","industry":"Military","matrix_type":"Groundwater","matrix":"Groundwater","year":2016,"pfoa":"2260","pfos":"1980","total_pfas":11869,"pfas_level":11869,"notes":"AFFF used at Former Bergstrom Air Force Base from 1942 to 1991 (Air Force 06.30.2016)","regulation_gvt_link":"N/A","resources_link":"https://ar.cce.af.mil/Search","suspected_source_link":"https://drive.google.com/file/d/1EUMAiROzk8OxvPAWubv0xGGH9zI6mw4d/view?usp=drive_link ","pfas_testing_link":"https://drive.google.com/file/d/1qI2WMukKonzoWG9rIgtL9KDpvAKOlX7V/view?usp=sharing","site_ref_link":"https://drive.google.com/drive/u/1/folders/1Hy8bzJShXQU2kAGlPt0t96HFiDJEmWl6?ths=true","state_ref_link":"https://drive.google.com/drive/u/0/folders/1LpxTlKqi7W0TyhphKUsU2SufsFXHckZC","ObjectId":2417}},{"type":"Feature","id":2418,"geometry":{"type":"Point","coordinates":[-99.845386,32.419105]},"properties":{"site_name":"Dyess Air Force Base","other_site_names":null,"state":"Texas","industry":"Military","matrix_type":"Groundwater","matrix":"Groundwater","year":2018,"pfoa":"384000","pfos":"64200","total_pfas":2052000,"pfas_level":2052000,"notes":"AFFF used at Dyess Air Force Base","regulation_gvt_link":"N/A","resources_link":"https://ar.cce.af.mil/Search","suspected_source_link":null,"pfas_testing_link":"https://drive.google.com/file/d/14v0Gw83WMACl3zuiR8YISOcOpxefzSM0/view?usp=sharing","site_ref_link":"https://drive.google.com/drive/u/0/folders/1k8GDm-TuKsemAvhUhH8Wr3nWPZZccO3M","state_ref_link":"https://drive.google.com/drive/u/0/folders/1LpxTlKqi7W0TyhphKUsU2SufsFXHckZC","ObjectId":2418}},{"type":"Feature","id":2419,"geometry":{"type":"Point","coordinates":[-95.175713,29.607611]},"properties":{"site_name":"Ellington Field Joint Reserve Base","other_site_names":null,"state":"Texas","industry":"Military","matrix_type":"Groundwater","matrix":"Groundwater","year":2018,"pfoa":"14000","pfos":"47000","total_pfas":94710,"pfas_level":94710,"notes":"AFFF used at Ellington Field Joint Reserve Base","regulation_gvt_link":"N/A","resources_link":"https://ar.cce.af.mil/Search","suspected_source_link":"https://ar.afcec-cloud.af.mil/Search.aspx","pfas_testing_link":"https://drive.google.com/drive/u/0/folders/168d21heZdnylQT7_ipiytsFPEUJGWSlp","site_ref_link":"https://drive.google.com/drive/u/0/folders/168d21heZdnylQT7_ipiytsFPEUJGWSlp","state_ref_link":"https://drive.google.com/drive/u/0/folders/1LpxTlKqi7W0TyhphKUsU2SufsFXHckZC","ObjectId":2419}},{"type":"Feature","id":2420,"geometry":{"type":"Point","coordinates":[-100.783083,29.356558]},"properties":{"site_name":"Laughlin Air Force Base","other_site_names":null,"state":"Texas","industry":"Military","matrix_type":"Groundwater","matrix":"Groundwater","year":2018,"pfoa":"7300","pfos":"20000","total_pfas":67850,"pfas_level":67850,"notes":"AFFF used at Laughlin Air Force Base","regulation_gvt_link":"N/A","resources_link":"https://ar.cce.af.mil/Search","suspected_source_link":null,"pfas_testing_link":"https://www.laughlin.af.mil/News/Article-Display/Article/1890695/laughlin-water-report-released/","site_ref_link":"https://drive.google.com/drive/u/0/folders/1BiHkwHDb2KEyLHz8zfx2vQ-DkTVwKeqb","state_ref_link":"https://drive.google.com/drive/u/0/folders/1LpxTlKqi7W0TyhphKUsU2SufsFXHckZC","ObjectId":2420}},{"type":"Feature","id":2421,"geometry":{"type":"Point","coordinates":[-98.510735,33.968572]},"properties":{"site_name":"Sheppard Air Force Base","other_site_names":null,"state":"Texas","industry":"Military","matrix_type":"Groundwater","matrix":"Groundwater","year":2018,"pfoa":"140000","pfos":"550000","total_pfas":3502600,"pfas_level":3502600,"notes":"AFFF used at Sheppard Air Force Base","regulation_gvt_link":"N/A","resources_link":"https://ar.cce.af.mil/Search","suspected_source_link":null,"pfas_testing_link":"https://drive.google.com/file/d/1NpBfLXjtuz4-s8jgx5OaDLpLp_8iIjgp/view?usp=sharing","site_ref_link":"https://drive.google.com/drive/u/0/folders/1qwhcJ_G-q5dfNs4tEfFz0QeNupltkJjo","state_ref_link":"https://drive.google.com/drive/u/0/folders/1LpxTlKqi7W0TyhphKUsU2SufsFXHckZC","ObjectId":2421}},{"type":"Feature","id":2608,"geometry":{"type":"Point","coordinates":[-98.95759,31.658211]},"properties":{"site_name":"Camp Bowie-Musgrave","other_site_names":null,"state":"Texas","industry":"Military","matrix_type":"Other Water","matrix":"Drinking Water","year":2018,"pfoa":"1","pfos":null,"total_pfas":3,"pfas_level":3,"notes":null,"regulation_gvt_link":null,"resources_link":null,"suspected_source_link":"https://drive.google.com/file/d/1g1t60FsMLcfluvkLqorqlbsHnkF_rNZw/view?usp=sharing","pfas_testing_link":"https://drive.google.com/file/d/1g1t60FsMLcfluvkLqorqlbsHnkF_rNZw/view?usp=sharing","site_ref_link":"https://drive.google.com/drive/u/0/folders/17vc5JX3Gvo92Bih-kg-GABnBbExIJhXg","state_ref_link":"https://drive.google.com/drive/u/0/folders/1LpxTlKqi7W0TyhphKUsU2SufsFXHckZC","ObjectId":2608}},{"type":"Feature","id":2609,"geometry":{"type":"Point","coordinates":[-96.269618,29.210768]},"properties":{"site_name":"El Campo Fire Training Site","other_site_names":null,"state":"Texas","industry":"Military","matrix_type":"Other Water","matrix":"Drinking Water","year":2018,"pfoa":"62","pfos":"70","total_pfas":241,"pfas_level":241,"notes":null,"regulation_gvt_link":null,"resources_link":null,"suspected_source_link":"https://drive.google.com/file/d/1g1t60FsMLcfluvkLqorqlbsHnkF_rNZw/view?usp=sharing","pfas_testing_link":"https://drive.google.com/file/d/1g1t60FsMLcfluvkLqorqlbsHnkF_rNZw/view?usp=sharing","site_ref_link":"https://drive.google.com/drive/u/0/folders/17vc5JX3Gvo92Bih-kg-GABnBbExIJhXg","state_ref_link":"https://drive.google.com/drive/u/0/folders/1LpxTlKqi7W0TyhphKUsU2SufsFXHckZC","ObjectId":2609}},{"type":"Feature","id":2991,"geometry":{"type":"Point","coordinates":[-97.445707,32.774768]},"properties":{"site_name":"Air Force Plant 4","other_site_names":"Air Force Plant #4 (General Dynamics)","state":"Texas","industry":"Military","matrix_type":"Groundwater","matrix":"Groundwater","year":2018,"pfoa":"200000","pfos":"80000","total_pfas":881200,"pfas_level":881200,"notes":null,"regulation_gvt_link":null,"resources_link":null,"suspected_source_link":"https://ar.afcec-cloud.af.mil/Search.aspx","pfas_testing_link":"https://drive.google.com/file/d/1hwPMIGgj0FnVHDurNtqqYHrGO8fc8Rs-/view?usp=sharing","site_ref_link":null,"state_ref_link":null,"ObjectId":2991}},{"type":"Feature","id":2992,"geometry":{"type":"Point","coordinates":[-97.663471,28.373158]},"properties":{"site_name":"Chase Field Naval Air Station","other_site_names":null,"state":"Texas","industry":"Military","matrix_type":"Groundwater","matrix":"Groundwater","year":null,"pfoa":"9330","pfos":"1470","total_pfas":null,"pfas_level":9330,"notes":null,"regulation_gvt_link":null,"resources_link":null,"suspected_source_link":null,"pfas_testing_link":"https://www.agri-pulse.com/ext/resources/pdfs/congress/STATUS-OF-NOTIFICATIONS-TO-AGRICULTURAL-OPERATIONS-PURSUANT-TO-SECTION-335-OF-THE-FISCAL-YEAR-2021-NATIONAL-DEFENSE-AUTHORIZATION-ACT-1.pdf","site_ref_link":null,"state_ref_link":null,"ObjectId":2992}},{"type":"Feature","id":2993,"geometry":{"type":"Point","coordinates":[-100.401092,31.435914]},"properties":{"site_name":"Goodfellow Air Force Base","other_site_names":null,"state":"Texas","industry":"Military","matrix_type":"Solid","matrix":"Soil","year":2017,"pfoa":"14000","pfos":"110000","total_pfas":null,"pfas_level":110000,"notes":null,"regulation_gvt_link":null,"resources_link":null,"suspected_source_link":"https://ar.afcec-cloud.af.mil/Search.aspx","pfas_testing_link":"https://drive.google.com/file/d/1INGeuxzKllo8qIA0V-SqfXa1i1CH81Ey/view?usp=sharing","site_ref_link":null,"state_ref_link":null,"ObjectId":2993}},{"type":"Feature","id":3309,"geometry":{"type":"Point","coordinates":[-97.140764,32.791785]},"properties":{"site_name":"Synagro of Texas-CDR Inc.","other_site_names":null,"state":"Texas","industry":"Waste","matrix_type":"Other Water","matrix":"Surface Water","year":2024,"pfoa":null,"pfos":null,"total_pfas":1300000,"pfas_level":1300000,"notes":"The drinking water wells on the farms suing Synagro showed PFAS levels of 90,900 ppt and 268,200 ppt respectively, with a separate well on the same property measuring 192,710 ppt. Surface water on the plaintiffs' properties ranged from 84,700 ppt to 1.3 million ppt of PFAS contamination.","regulation_gvt_link":null,"resources_link":null,"suspected_source_link":"https://www.dtnpf.com/agriculture/web/ag/crops/article/2024/02/20/texas-farms-detail-pfas-lawsuit#:~:text=The%20Synagro%20biosolids%20product%20was,took%20from%20the%20plaintiffs'%20properties.","pfas_testing_link":null,"site_ref_link":"https://drive.google.com/drive/u/2/folders/1evu8NnsU4Bc24FlGaniOSuBztMN2hDcN","state_ref_link":"https://drive.google.com/drive/u/2/folders/1LpxTlKqi7W0TyhphKUsU2SufsFXHckZC","ObjectId":3309}},{"type":"Feature","id":4243,"geometry":{"type":"Point","coordinates":[-96.769485,32.687886]},"properties":{"site_name":"Lane Plating Works, Inc","other_site_names":null,"state":"Texas","industry":"Industry","matrix_type":"Groundwater","matrix":"Groundwater","year":2022,"pfoa":"3","pfos":"986","total_pfas":1206,"pfas_level":1206,"notes":null,"regulation_gvt_link":"https://semspub.epa.gov/work/06/100032450.pdf","resources_link":null,"suspected_source_link":"https://cumulis.epa.gov/supercpad/SiteProfiles/index.cfm?fuseaction=second.cleanup&id=0605240","pfas_testing_link":"https://semspub.epa.gov/work/06/100032207.pdf","site_ref_link":"https://drive.google.com/file/d/1Y1XlQi4dw5RcErrmvyHloOxMf3ZQRtF7/view?usp=drive_link","state_ref_link":"https://drive.google.com/drive/folders/1dDmmmNwBve_x7Cad9OV0w37XO2Tw1mDa?usp=drive_link","ObjectId":4243}},{"type":"Feature","id":4244,"geometry":{"type":"Point","coordinates":[-94.123339,32.665]},"properties":{"site_name":"Longhorn Army Ammunition Plant","other_site_names":null,"state":"Texas","industry":"Military","matrix_type":"Groundwater","matrix":"Groundwater","year":2022,"pfoa":"620","pfos":"42","total_pfas":640,"pfas_level":640,"notes":null,"regulation_gvt_link":"https://cumulis.epa.gov/supercpad/SiteProfiles/index.cfm?fuseaction=second.schedule&id=0603606","resources_link":null,"suspected_source_link":"https://cumulis.epa.gov/supercpad/cursites/csitinfo.cfm?id=0603606","pfas_testing_link":"https://aec.army.mil/Portals/115/PFAS/LHAAP_PFAS_PASI.pdf?ver=6cSdnW7-GNtuX1M9AnDDcQ%3D%3D","site_ref_link":"https://drive.google.com/drive/folders/1l3VGuq41KSviOEXIoMpJFWkYFVnr7AjL?usp=drive_link","state_ref_link":"https://drive.google.com/drive/folders/1dDmmmNwBve_x7Cad9OV0w37XO2Tw1mDa?usp=drive_link","ObjectId":4244}}]}