{"type":"FeatureCollection","crs":{"type":"name","properties":{"name":"EPSG:4326"}},"features":[{"type":"Feature","id":37,"geometry":{"type":"Point","coordinates":[-94.544047,38.841772]},"properties":{"site_name":"Richards-Gebaur Memorial Airport","other_site_names":"Richards-Gebaur Air Force Station, Richards-Gebaur Air Reserve Station","state":"Missouri","industry":"Military","matrix_type":"Groundwater","matrix":"Groundwater","year":2015,"pfoa":"43,300","pfos":"329,000","total_pfas":571288,"pfas_level":571288,"notes":"AFFF used at Former Richards-Gebaur Air Force Base","regulation_gvt_link":"https://19january2017snapshot.epa.gov/sites/production/files/2015-09/documents/2nd_5year_review_richards_gebaur_afb_kansas_city_mo.pdf","resources_link":"https://ar.cce.af.mil/Search","suspected_source_link":"https://drive.google.com/file/d/1EUMAiROzk8OxvPAWubv0xGGH9zI6mw4d/view?usp=drive_link ","pfas_testing_link":"N/A","site_ref_link":"https://drive.google.com/drive/u/1/folders/15FXGE8GqqAJfVb5R51jG8v_wCU1BvdH0","state_ref_link":"https://drive.google.com/drive/u/1/folders/1dTV8Q8901s7OPLU4-GbgNAoDFO9tM2Dt","ObjectId":37}},{"type":"Feature","id":44,"geometry":{"type":"Point","coordinates":[-92.164028,37.727795]},"properties":{"site_name":"Fort Leonard Wood","other_site_names":null,"state":"Missouri","industry":"Military","matrix_type":"Other Water","matrix":"Drinking Water","year":2016,"pfoa":null,"pfos":null,"total_pfas":6,"pfas_level":6,"notes":null,"regulation_gvt_link":"https://dnr.mo.gov/waste-recycling/sites-regulated-facilities/federal/fort-leonard-wood-army-training-center","resources_link":null,"suspected_source_link":"https://dnr.mo.gov/waste-recycling/sites-regulated-facilities/federal/fort-leonard-wood-army-training-center","pfas_testing_link":"https://www.ewg.org/sites/default/files/u352/EWG_PFASTable-Army_C01.pdf","site_ref_link":null,"state_ref_link":null,"ObjectId":44}},{"type":"Feature","id":112,"geometry":{"type":"Point","coordinates":[-90.374819,38.74994]},"properties":{"site_name":"Lambert Air National Guard Base","other_site_names":"Lambert International Airport","state":"Missouri","industry":"Military","matrix_type":"Groundwater","matrix":"Groundwater","year":2018,"pfoa":"340","pfos":"570","total_pfas":1509,"pfas_level":1509,"notes":"AFFF used at Lambert International Airport / Air National Guard Base","regulation_gvt_link":"N/A","resources_link":"http://afcec.publicadmin-record.us.af.mil/","suspected_source_link":"https://ar.afcec-cloud.af.mil/Search.aspx","pfas_testing_link":"https://drive.google.com/file/d/1mf_SzKfXJtebnXkHgFEpUWBnMl-Nbcdo/view?usp=sharing","site_ref_link":"https://drive.google.com/drive/u/0/folders/17wIaRhJ9UINpEf88PIsSgoqEQn5dr5J0","state_ref_link":"https://drive.google.com/drive/u/1/folders/1dTV8Q8901s7OPLU4-GbgNAoDFO9tM2Dt","ObjectId":112}},{"type":"Feature","id":421,"geometry":{"type":"Point","coordinates":[-94.546406,38.863392]},"properties":{"site_name":"Kansas City National Security Campus - BFC","other_site_names":null,"state":"Missouri","industry":"Industry","matrix_type":"Groundwater","matrix":"Groundwater","year":2017,"pfoa":"9","pfos":null,"total_pfas":null,"pfas_level":9,"notes":"Operated by Honeywell under military contract until decomission in 2014","regulation_gvt_link":"https://www.energy.gov/sites/default/files/2022-11/DOE%20Initial%20PFAS%20Assessment%20-508.pdf","resources_link":null,"suspected_source_link":null,"pfas_testing_link":null,"site_ref_link":"DOE Initial PFAS Assessment -508.pdf","state_ref_link":null,"ObjectId":421}},{"type":"Feature","id":668,"geometry":{"type":"Point","coordinates":[-94.902835,39.767827]},"properties":{"site_name":"Rosecrans Air National Guard Base","other_site_names":"Rosecrans Memorial Airport","state":"Missouri","industry":"Military","matrix_type":"Groundwater","matrix":"Groundwater","year":2018,"pfoa":"5,100","pfos":"34,000","total_pfas":80565,"pfas_level":80565,"notes":"AFFF used at Rosecrans Memorial Airport / Air National Guard Base","regulation_gvt_link":"N/A","resources_link":"http://afcec.publicadmin-record.us.af.mil/","suspected_source_link":"https://ar.afcec-cloud.af.mil/Search.aspx","pfas_testing_link":"https://drive.google.com/file/d/1oG3IXzzIrOxe3riefgKJKjUw6Ik-xJGm/view?usp=sharing","site_ref_link":"https://drive.google.com/drive/u/0/folders/1eo9cCr8DjWkIvdXhwC5D6wAXP2LyDb81","state_ref_link":"https://drive.google.com/drive/u/1/folders/1dTV8Q8901s7OPLU4-GbgNAoDFO9tM2Dt","ObjectId":668}},{"type":"Feature","id":675,"geometry":{"type":"Point","coordinates":[-93.560552,38.728996]},"properties":{"site_name":"Whiteman Air Force Base","other_site_names":null,"state":"Missouri","industry":"Military","matrix_type":"Groundwater","matrix":"Groundwater","year":2018,"pfoa":"60,000","pfos":"29,000","total_pfas":96400,"pfas_level":96400,"notes":"AFFF used at Whiteman Air Force Base","regulation_gvt_link":"https://www.whiteman.af.mil/News/Article/1598730/extinguishing-safely-base-facilities-to-receive-firefighting-chemical-upgrade/","resources_link":"http://afcec.publicadmin-record.us.af.mil/","suspected_source_link":"https://www.whiteman.af.mil/Portals/53/documents/Water%20Reports/2018%20Consumer%20Confidence%20Report.pdf?ver=2019-06-26-131427-800","pfas_testing_link":"https://drive.google.com/file/d/1SHHjcqlnmVWh7jPAtxzVLBgd7kceORnk/view?usp=sharing","site_ref_link":"https://drive.google.com/drive/u/0/folders/1XKfi196Y2HLTXHV3u8k1vh-mbDfLdTXM","state_ref_link":"https://drive.google.com/drive/u/1/folders/1dTV8Q8901s7OPLU4-GbgNAoDFO9tM2Dt","ObjectId":675}},{"type":"Feature","id":1165,"geometry":{"type":"Point","coordinates":[-94.250579,39.096759]},"properties":{"site_name":"Lake City Ammunition Plant","other_site_names":"Lake City Army Ammunition Plant","state":"Missouri","industry":"Military","matrix_type":"Groundwater","matrix":"Groundwater","year":2019,"pfoa":"160","pfos":"86","total_pfas":205,"pfas_level":205,"notes":null,"regulation_gvt_link":"https://cumulis.epa.gov/supercpad/SiteProfiles/index.cfm?fuseaction=second.docdata&id=0701757","resources_link":null,"suspected_source_link":null,"pfas_testing_link":null,"site_ref_link":"Lake City Ammunition Plant_PFAS_PASI.pdf","state_ref_link":null,"ObjectId":1165}},{"type":"Feature","id":1254,"geometry":{"type":"Point","coordinates":[-89.557219,36.96305]},"properties":{"site_name":"Quality Manufacturing","other_site_names":null,"state":"Missouri","industry":"Industry","matrix_type":"Groundwater","matrix":"Groundwater","year":2021,"pfoa":"48","pfos":null,"total_pfas":null,"pfas_level":48,"notes":null,"regulation_gvt_link":null,"resources_link":"https://cumulis.epa.gov/supercpad/SiteProfiles/index.cfm?fuseaction=second.cleanup&id=0701442","suspected_source_link":"https://cumulis.epa.gov/supercpad/SiteProfiles/index.cfm?fuseaction=second.Cleanup&id=0701442#bkground","pfas_testing_link":"https://semspub.epa.gov/work/07/30821320.pdf","site_ref_link":"https://drive.google.com/drive/folders/1KjDeubi1K_mmSLMya4IIx7vcsznLdeVM?usp=drive_link","state_ref_link":"https://drive.google.com/drive/folders/1syihmqwf0b8rw_3kSTnL60nytcTOCaZs?usp=drive_link","ObjectId":1254}},{"type":"Feature","id":1424,"geometry":{"type":"Point","coordinates":[-91.214722,38.613889]},"properties":{"site_name":"Riverfront","other_site_names":null,"state":"Missouri","industry":"Industry","matrix_type":"Groundwater","matrix":"Groundwater","year":2020,"pfoa":"62","pfos":null,"total_pfas":null,"pfas_level":62,"notes":null,"regulation_gvt_link":null,"resources_link":"https://cumulis.epa.gov/supercpad/SiteProfiles/index.cfm?fuseaction=second.cleanup&id=0702089","suspected_source_link":"https://cumulis.epa.gov/supercpad/SiteProfiles/index.cfm?fuseaction=second.Cleanup&id=0702089#bkground","pfas_testing_link":"https://semspub.epa.gov/work/07/30821352.pdf","site_ref_link":"https://drive.google.com/drive/folders/1uQPO84sq_WmctjjZyu5XExearPsK7PgF?usp=drive_link","state_ref_link":"https://drive.google.com/drive/folders/1syihmqwf0b8rw_3kSTnL60nytcTOCaZs?usp=drive_link","ObjectId":1424}},{"type":"Feature","id":1792,"geometry":{"type":"Point","coordinates":[-94.56522,38.957969]},"properties":{"site_name":"Kansas City Plant Bannister Federal Complex","other_site_names":"Bannister Federal Complex","state":"Missouri","industry":"Industry","matrix_type":"Solid","matrix":"Soil","year":null,"pfoa":null,"pfos":null,"total_pfas":37,"pfas_level":37,"notes":null,"regulation_gvt_link":null,"resources_link":null,"suspected_source_link":"https://www.energy.gov/pfas/articles/initial-assessment-and-polyfluoroalkyl-substances-department-energy-sites","pfas_testing_link":"https://drive.google.com/file/d/1HMGZ9ml8yL97Bj4JlFy1G1AmOoo33fS0/view?usp=share_link","site_ref_link":"https://drive.google.com/drive/folders/1q-t24KjP5fQTKFojskkozQeQIm43-A6D?usp=share_link","state_ref_link":"https://drive.google.com/drive/folders/1yQOqRtWgdLe6WzU56O2mydjceukaU9t_?usp=share_link","ObjectId":1792}},{"type":"Feature","id":2313,"geometry":{"type":"Point","coordinates":[-94.544047,38.841772]},"properties":{"site_name":"Richards-Gebaur Memorial Airport","other_site_names":"Richards-Gebaur Air Force Station, Richards-Gebaur Air Reserve Station","state":"Missouri","industry":"Military","matrix_type":"Groundwater","matrix":"Groundwater","year":2015,"pfoa":"43300","pfos":"329000","total_pfas":571288,"pfas_level":571288,"notes":"AFFF used at Former Richards-Gebaur Air Force Base","regulation_gvt_link":"https://19january2017snapshot.epa.gov/sites/production/files/2015-09/documents/2nd_5year_review_richards_gebaur_afb_kansas_city_mo.pdf","resources_link":"https://ar.cce.af.mil/Search","suspected_source_link":"https://drive.google.com/file/d/1EUMAiROzk8OxvPAWubv0xGGH9zI6mw4d/view?usp=drive_link ","pfas_testing_link":"N/A","site_ref_link":"https://drive.google.com/drive/u/1/folders/15FXGE8GqqAJfVb5R51jG8v_wCU1BvdH0","state_ref_link":"https://drive.google.com/drive/u/1/folders/1dTV8Q8901s7OPLU4-GbgNAoDFO9tM2Dt","ObjectId":2313}},{"type":"Feature","id":2314,"geometry":{"type":"Point","coordinates":[-90.374819,38.74994]},"properties":{"site_name":"Lambert Air National Guard Base","other_site_names":"Lambert International Airport","state":"Missouri","industry":"Military","matrix_type":"Groundwater","matrix":"Groundwater","year":2018,"pfoa":"340","pfos":"570","total_pfas":1509,"pfas_level":1509,"notes":"AFFF used at Lambert International Airport / Air National Guard Base","regulation_gvt_link":"N/A","resources_link":"http://afcec.publicadmin-record.us.af.mil/","suspected_source_link":"https://ar.afcec-cloud.af.mil/Search.aspx","pfas_testing_link":"https://drive.google.com/file/d/1mf_SzKfXJtebnXkHgFEpUWBnMl-Nbcdo/view?usp=sharing","site_ref_link":"https://drive.google.com/drive/u/0/folders/17wIaRhJ9UINpEf88PIsSgoqEQn5dr5J0","state_ref_link":"https://drive.google.com/drive/u/1/folders/1dTV8Q8901s7OPLU4-GbgNAoDFO9tM2Dt","ObjectId":2314}},{"type":"Feature","id":2315,"geometry":{"type":"Point","coordinates":[-94.902835,39.767827]},"properties":{"site_name":"Rosecrans Air National Guard Base","other_site_names":"Rosecrans Memorial Airport","state":"Missouri","industry":"Military","matrix_type":"Groundwater","matrix":"Groundwater","year":2018,"pfoa":"5100","pfos":"34000","total_pfas":80565,"pfas_level":80565,"notes":"AFFF used at Rosecrans Memorial Airport / Air National Guard Base","regulation_gvt_link":"N/A","resources_link":"http://afcec.publicadmin-record.us.af.mil/","suspected_source_link":"https://ar.afcec-cloud.af.mil/Search.aspx","pfas_testing_link":"https://drive.google.com/file/d/1oG3IXzzIrOxe3riefgKJKjUw6Ik-xJGm/view?usp=sharing","site_ref_link":"https://drive.google.com/drive/u/0/folders/1eo9cCr8DjWkIvdXhwC5D6wAXP2LyDb81","state_ref_link":"https://drive.google.com/drive/u/1/folders/1dTV8Q8901s7OPLU4-GbgNAoDFO9tM2Dt","ObjectId":2315}},{"type":"Feature","id":2316,"geometry":{"type":"Point","coordinates":[-93.560552,38.728996]},"properties":{"site_name":"Whiteman Air Force Base","other_site_names":null,"state":"Missouri","industry":"Military","matrix_type":"Groundwater","matrix":"Groundwater","year":2018,"pfoa":"60000","pfos":"29000","total_pfas":96400,"pfas_level":96400,"notes":"AFFF used at Whiteman Air Force Base","regulation_gvt_link":"https://www.whiteman.af.mil/News/Article/1598730/extinguishing-safely-base-facilities-to-receive-firefighting-chemical-upgrade/","resources_link":"http://afcec.publicadmin-record.us.af.mil/","suspected_source_link":"https://www.whiteman.af.mil/Portals/53/documents/Water%20Reports/2018%20Consumer%20Confidence%20Report.pdf?ver=2019-06-26-131427-800","pfas_testing_link":"https://drive.google.com/file/d/1SHHjcqlnmVWh7jPAtxzVLBgd7kceORnk/view?usp=sharing","site_ref_link":"https://drive.google.com/drive/u/0/folders/1XKfi196Y2HLTXHV3u8k1vh-mbDfLdTXM","state_ref_link":"https://drive.google.com/drive/u/1/folders/1dTV8Q8901s7OPLU4-GbgNAoDFO9tM2Dt","ObjectId":2316}},{"type":"Feature","id":2872,"geometry":{"type":"Point","coordinates":[-92.164028,37.727795]},"properties":{"site_name":"Fort Leonard Wood","other_site_names":null,"state":"Missouri","industry":"Military","matrix_type":"Other Water","matrix":"Drinking Water","year":2016,"pfoa":null,"pfos":null,"total_pfas":6,"pfas_level":6,"notes":null,"regulation_gvt_link":"https://dnr.mo.gov/waste-recycling/sites-regulated-facilities/federal/fort-leonard-wood-army-training-center","resources_link":null,"suspected_source_link":"https://dnr.mo.gov/waste-recycling/sites-regulated-facilities/federal/fort-leonard-wood-army-training-center","pfas_testing_link":"https://www.ewg.org/sites/default/files/u352/EWG_PFASTable-Army_C01.pdf","site_ref_link":null,"state_ref_link":null,"ObjectId":2872}},{"type":"Feature","id":3213,"geometry":{"type":"Point","coordinates":[-94.56522,38.957969]},"properties":{"site_name":"Kansas City Plant Bannister Federal Complex","other_site_names":"Bannister Federal Complex","state":"Missouri","industry":"Industry","matrix_type":"Solid","matrix":"Soil","year":null,"pfoa":null,"pfos":null,"total_pfas":37,"pfas_level":37,"notes":null,"regulation_gvt_link":null,"resources_link":null,"suspected_source_link":"https://www.energy.gov/pfas/articles/initial-assessment-and-polyfluoroalkyl-substances-department-energy-sites","pfas_testing_link":"https://drive.google.com/file/d/1HMGZ9ml8yL97Bj4JlFy1G1AmOoo33fS0/view?usp=share_link","site_ref_link":"https://drive.google.com/drive/folders/1q-t24KjP5fQTKFojskkozQeQIm43-A6D?usp=share_link","state_ref_link":"https://drive.google.com/drive/folders/1yQOqRtWgdLe6WzU56O2mydjceukaU9t_?usp=share_link","ObjectId":3213}},{"type":"Feature","id":4159,"geometry":{"type":"Point","coordinates":[-94.546406,38.863392]},"properties":{"site_name":"Kansas City National Security Campus - BFC","other_site_names":null,"state":"Missouri","industry":"Industry","matrix_type":"Groundwater","matrix":"Groundwater","year":2017,"pfoa":"9","pfos":null,"total_pfas":null,"pfas_level":9,"notes":"Operated by Honeywell under military contract until decomission in 2014","regulation_gvt_link":"https://www.energy.gov/sites/default/files/2022-11/DOE%20Initial%20PFAS%20Assessment%20-508.pdf","resources_link":null,"suspected_source_link":null,"pfas_testing_link":null,"site_ref_link":"DOE Initial PFAS Assessment -508.pdf","state_ref_link":null,"ObjectId":4159}},{"type":"Feature","id":4160,"geometry":{"type":"Point","coordinates":[-94.250579,39.096759]},"properties":{"site_name":"Lake City Ammunition Plant","other_site_names":"Lake City Army Ammunition Plant","state":"Missouri","industry":"Military","matrix_type":"Groundwater","matrix":"Groundwater","year":2019,"pfoa":"160","pfos":"86","total_pfas":205,"pfas_level":205,"notes":null,"regulation_gvt_link":"https://cumulis.epa.gov/supercpad/SiteProfiles/index.cfm?fuseaction=second.docdata&id=0701757","resources_link":null,"suspected_source_link":null,"pfas_testing_link":null,"site_ref_link":"Lake City Ammunition Plant_PFAS_PASI.pdf","state_ref_link":null,"ObjectId":4160}},{"type":"Feature","id":4161,"geometry":{"type":"Point","coordinates":[-89.557219,36.96305]},"properties":{"site_name":"Quality Manufacturing","other_site_names":null,"state":"Missouri","industry":"Industry","matrix_type":"Groundwater","matrix":"Groundwater","year":2021,"pfoa":"48","pfos":null,"total_pfas":null,"pfas_level":48,"notes":null,"regulation_gvt_link":null,"resources_link":"https://cumulis.epa.gov/supercpad/SiteProfiles/index.cfm?fuseaction=second.cleanup&id=0701442","suspected_source_link":"https://cumulis.epa.gov/supercpad/SiteProfiles/index.cfm?fuseaction=second.Cleanup&id=0701442#bkground","pfas_testing_link":"https://semspub.epa.gov/work/07/30821320.pdf","site_ref_link":"https://drive.google.com/drive/folders/1KjDeubi1K_mmSLMya4IIx7vcsznLdeVM?usp=drive_link","state_ref_link":"https://drive.google.com/drive/folders/1syihmqwf0b8rw_3kSTnL60nytcTOCaZs?usp=drive_link","ObjectId":4161}},{"type":"Feature","id":4162,"geometry":{"type":"Point","coordinates":[-91.214722,38.613889]},"properties":{"site_name":"Riverfront","other_site_names":null,"state":"Missouri","industry":"Industry","matrix_type":"Groundwater","matrix":"Groundwater","year":2020,"pfoa":"62","pfos":null,"total_pfas":null,"pfas_level":62,"notes":null,"regulation_gvt_link":null,"resources_link":"https://cumulis.epa.gov/supercpad/SiteProfiles/index.cfm?fuseaction=second.cleanup&id=0702089","suspected_source_link":"https://cumulis.epa.gov/supercpad/SiteProfiles/index.cfm?fuseaction=second.Cleanup&id=0702089#bkground","pfas_testing_link":"https://semspub.epa.gov/work/07/30821352.pdf","site_ref_link":"https://drive.google.com/drive/folders/1uQPO84sq_WmctjjZyu5XExearPsK7PgF?usp=drive_link","state_ref_link":"https://drive.google.com/drive/folders/1syihmqwf0b8rw_3kSTnL60nytcTOCaZs?usp=drive_link","ObjectId":4162}}]}